{"type":"FeatureCollection","features":[{"type":"Feature","geometry":{"type":"Polygon","coordinates":[[[104.6697841,28.8149906],[104.6695249,28.8150429],[104.6692729,28.814964],[104.6689738,28.8146173],[104.668732,28.814347],[104.6683976,28.8141933],[104.6671115,28.8134811],[104.6668023,28.8128928],[104.6662513,28.8125801],[104.6658897,28.8119903],[104.6653622,28.8118349],[104.6648906,28.8125181],[104.6647046,28.8125284],[104.6638856,28.8119897],[104.662569,28.8108555],[104.6625778,28.8107503],[104.6629643,28.8103844],[104.6629426,28.8100397],[104.6630022,28.8096983],[104.6629279,28.8093604],[104.6627579,28.8089332],[104.6635436,28.807951],[104.6647578,28.8062558],[104.6650656,28.8058425],[104.6652447,28.8056021],[104.6655977,28.8056842],[104.6680713,28.802834],[104.6685059,28.8027099],[104.6690813,28.8031079],[104.6696824,28.8034095],[104.6710598,28.8039612],[104.6711737,28.8041334],[104.6718007,28.8043808],[104.6720919,28.8043475],[104.674748,28.805452],[104.6748851,28.8056616],[104.6747088,28.8062737],[104.6746775,28.8067453],[104.6743315,28.8076557],[104.6738783,28.8086421],[104.6736408,28.8091157],[104.6735301,28.8096898],[104.6733663,28.8098077],[104.6731766,28.8104023],[104.6732765,28.8105873],[104.6729998,28.8113622],[104.6727602,28.8118985],[104.6723431,28.812646],[104.6718937,28.8132603],[104.6712776,28.8138674],[104.6701792,28.8147948],[104.6697841,28.8149906]]]},"properties":{"name":"四川轻化工大学宜宾校区","is_suse":1}},{"type":"Feature","geometry":{"type":"Polygon","coordinates":[[[104.6812831,28.8178116],[104.6845762,28.8207544],[104.6881112,28.8238789],[104.6837017,28.8278057],[104.6811464,28.8256792],[104.6821619,28.8246594],[104.6777329,28.8205595],[104.6812831,28.8178116]]]},"properties":{"name":"宜宾学院临港校区"}},{"type":"Feature","geometry":{"type":"Polygon","coordinates":[[[104.6809848,28.8164329],[104.6852849,28.8129916],[104.689244,28.8168229],[104.6850961,28.8203597],[104.6809848,28.8164329]]]},"properties":{"name":"成都外国语学院宜宾校区"}},{"type":"Feature","geometry":{"type":"Polygon","coordinates":[[[104.6853157,28.8206968],[104.6854321,28.8205935],[104.6862052,28.8199431],[104.6897335,28.8170957],[104.6979941,28.8243337],[104.6947223,28.8271115],[104.6946029,28.8272113],[104.6935531,28.828093],[104.6853157,28.8206968]]]},"properties":{"name":"成都理工大学（宜宾校区）"}},{"type":"Feature","geometry":{"type":"Polygon","coordinates":[[[104.6746563,28.8170711],[104.6744934,28.8169244],[104.6742024,28.8167615],[104.6739185,28.8165961],[104.6735131,28.8164893],[104.6729987,28.8168564],[104.6725895,28.8172702],[104.6717842,28.8167196],[104.6710844,28.8162891],[104.6705548,28.8157618],[104.6705539,28.8155928],[104.6706687,28.8154963],[104.6706239,28.815451],[104.6715,28.8147379],[104.6718838,28.8143722],[104.6722509,28.8139594],[104.672544,28.8136019],[104.6727018,28.8133884],[104.6728516,28.8130952],[104.6732533,28.8122907],[104.6734657,28.8117153],[104.6736685,28.8110298],[104.6739526,28.8109596],[104.6749766,28.8116194],[104.6756795,28.8121466],[104.6764802,28.8128937],[104.6766065,28.8130116],[104.6779826,28.8143194],[104.6812547,28.8177768],[104.6777059,28.8205091],[104.6773297,28.8201172],[104.6771973,28.8197701],[104.677221,28.819482],[104.6771556,28.8192038],[104.6769692,28.8188033],[104.6766296,28.8186075],[104.6761956,28.8185085],[104.6757507,28.818574],[104.6753783,28.8182052],[104.6751251,28.8177935],[104.6746563,28.8170711]]]},"properties":{"name":"西华大学宜宾校区"}}]}