{"type":"FeatureCollection","features":[{"type":"Feature","geometry":{"type":"Polygon","coordinates":[[[104.6742751,28.8151925],[104.6737784,28.8146891],[104.6741292,28.8144235],[104.6746259,28.8149269],[104.6742751,28.8151925]],[[104.6742704,28.8150051],[104.6744045,28.8149017],[104.6741144,28.8146128],[104.6739803,28.8147163],[104.6742704,28.8150051]]]},"properties":{"osm_id":"relation/9700404","name":"一教","campus":"suse","kind":"teaching","levels":7,"height_m":28,"desc":"一号教学楼,校区最高教学建筑,7 层"}},{"type":"Feature","geometry":{"type":"Polygon","coordinates":[[[104.6754091,28.8150859],[104.6749543,28.8146206],[104.6754847,28.8142225],[104.6759396,28.8146877],[104.6754091,28.8150859]],[[104.6754153,28.8149042],[104.6756567,28.8147228],[104.6753968,28.8144574],[104.6751554,28.8146388],[104.6754153,28.8149042]]]},"properties":{"osm_id":"relation/9700405","name":"研发楼","campus":"suse","kind":"office","levels":6,"height_m":21.6,"desc":"研发楼"}},{"type":"Feature","geometry":{"type":"Polygon","coordinates":[[[104.6744696,28.8141346],[104.6740114,28.8136767],[104.6745282,28.8132796],[104.6749864,28.8137376],[104.6744696,28.8141346]],[[104.6744627,28.8139553],[104.6746945,28.8137844],[104.6746805,28.8137204],[104.6747065,28.8136913],[104.6744924,28.8134708],[104.6742006,28.8136941],[104.6744627,28.8139553]]]},"properties":{"osm_id":"relation/9700406","name":"实验楼","campus":"suse","kind":"lab","levels":5,"height_m":20,"desc":"实验楼"}},{"type":"Feature","geometry":{"type":"Polygon","coordinates":[[[104.6730302,28.8145611],[104.6725682,28.8141014],[104.6728488,28.8138849],[104.6733109,28.8143445],[104.6730302,28.8145611]],[[104.6729917,28.8143614],[104.6730752,28.814296],[104.6728639,28.8140885],[104.6727803,28.8141539],[104.6729917,28.8143614]]]},"properties":{"osm_id":"relation/9700407","name":"静苑","campus":"suse","kind":"canteen","levels":3,"height_m":13.5,"desc":"静苑(后勤服务)"}},{"type":"Feature","geometry":{"type":"Polygon","coordinates":[[[104.6724568,28.8161434],[104.6721194,28.815817],[104.6720566,28.8157562],[104.6719987,28.8157002],[104.6721881,28.81555],[104.6725299,28.8158806],[104.6726949,28.8157495],[104.6723683,28.8154337],[104.6725098,28.8153214],[104.6729527,28.8157499],[104.6724568,28.8161434]]]},"properties":{"osm_id":"way/698029916","name":"育秀苑1栋","campus":"suse","kind":"dormitory","levels":6,"height_m":19.8}},{"type":"Feature","geometry":{"type":"Polygon","coordinates":[[[104.6730827,28.8159146],[104.6733843,28.8156662],[104.673784,28.8160388],[104.6734823,28.8162872],[104.6730827,28.8159146]]]},"properties":{"osm_id":"way/698029917","name":"一食堂","campus":"suse","kind":"canteen","levels":2,"height_m":9}},{"type":"Feature","geometry":{"type":"Polygon","coordinates":[[[104.6747871,28.8168737],[104.6742886,28.8164264],[104.6751107,28.8157926],[104.6756095,28.8162665],[104.6754476,28.8163973],[104.6750428,28.8160127],[104.6748815,28.8161431],[104.67527,28.8165119],[104.675092,28.8166232],[104.6746681,28.8162533],[104.6745053,28.8163849],[104.6749129,28.816772],[104.6747871,28.8168737]]]},"properties":{"osm_id":"way/698029918","name":"育秀苑3栋","campus":"suse","kind":"dormitory","levels":6,"height_m":19.8}},{"type":"Feature","geometry":{"type":"Polygon","coordinates":[[[104.6718521,28.8166225],[104.671394,28.8161794],[104.6715834,28.8160291],[104.6716281,28.8160723],[104.6717112,28.8161527],[104.6719252,28.8163597],[104.6720902,28.8162287],[104.6718756,28.8160212],[104.671791,28.8159393],[104.6717636,28.8159128],[104.6719051,28.8158005],[104.6719496,28.8158436],[104.6720128,28.8159057],[104.672348,28.816229],[104.6718521,28.8166225]]]},"properties":{"osm_id":"way/723308068","name":"育秀苑2栋","campus":"suse","kind":"dormitory","levels":6,"height_m":19.8}},{"type":"Feature","geometry":{"type":"Polygon","coordinates":[[[104.6736866,28.813547],[104.6732403,28.8131547],[104.6736674,28.8127812],[104.6741172,28.8131788],[104.6736866,28.813547]]]},"properties":{"osm_id":"way/723632028","name":"实训厂房A","campus":"suse","kind":"factory","levels":1,"height_m":9,"desc":"实训厂房 A"}},{"type":"Feature","geometry":{"type":"Polygon","coordinates":[[[104.6741617,28.8131268],[104.6736004,28.8126085],[104.6739273,28.8123749],[104.6739596,28.812404],[104.6743713,28.8120935],[104.6741912,28.8118908],[104.6743837,28.8117405],[104.6750784,28.8124442],[104.6747865,28.8126566],[104.6744805,28.8123564],[104.6741498,28.8125919],[104.6744675,28.8128939],[104.6741617,28.8131268]]]},"properties":{"osm_id":"way/723632029","name":"实训厂房B","campus":"suse","kind":"factory","levels":1,"height_m":12,"desc":"实训厂房 B"}},{"type":"Feature","geometry":{"type":"Polygon","coordinates":[[[104.6722475,28.8143401],[104.6723708,28.8142474],[104.6724393,28.8143174],[104.6723159,28.8144101],[104.6722475,28.8143401]]]},"properties":{"osm_id":"way/724835630","campus":"other","kind":"service","levels":1,"height_m":4}},{"type":"Feature","geometry":{"type":"Polygon","coordinates":[[[104.6693616,28.80436],[104.669074,28.804239],[104.6692864,28.8038514],[104.6686719,28.8035928],[104.6687909,28.8033756],[104.6696885,28.8037533],[104.6696315,28.8038573],[104.6696795,28.8038775],[104.6694576,28.8042825],[104.6694141,28.8042642],[104.6693616,28.80436]]]},"properties":{"osm_id":"way/738400625","name":"综合楼","campus":"suse","kind":"office","levels":5,"height_m":18}},{"type":"Feature","geometry":{"type":"Polygon","coordinates":[[[104.6692505,28.805683],[104.6693295,28.80554],[104.6692838,28.8055206],[104.6694291,28.8052579],[104.6694817,28.8052803],[104.6695337,28.8051862],[104.6694916,28.8051683],[104.6696424,28.8048956],[104.669685,28.8049137],[104.6697722,28.804756],[104.6704082,28.805026],[104.6702583,28.8052971],[104.6702523,28.8052945],[104.6700864,28.8055947],[104.6700076,28.8055612],[104.6698091,28.8059201],[104.6692505,28.805683]]]},"properties":{"osm_id":"way/738400632","name":"A1国际学院 法学院 知识产权学院 外语学院","campus":"suse","kind":"teaching","levels":5,"height_m":20}},{"type":"Feature","geometry":{"type":"Polygon","coordinates":[[[104.6714535,28.8066411],[104.6708912,28.8064015],[104.6710939,28.8060362],[104.6710252,28.8060069],[104.6713484,28.8054245],[104.6719811,28.8056941],[104.6718966,28.8058465],[104.6719387,28.8058644],[104.6717845,28.8061421],[104.6717415,28.8061238],[104.6716894,28.8062176],[104.6717385,28.8062385],[104.671581,28.8065223],[104.6715312,28.8065011],[104.6714535,28.8066411]]]},"properties":{"osm_id":"way/738400633","name":"A2管理学院 经济学院","campus":"suse","kind":"teaching","levels":5,"height_m":20}},{"type":"Feature","geometry":{"type":"Polygon","coordinates":[[[104.6704432,28.8065397],[104.6710785,28.8068033],[104.6708484,28.8072292],[104.6702131,28.8069657],[104.6704432,28.8065397]]]},"properties":{"osm_id":"way/738400635","name":"A4明德楼","campus":"suse","kind":"teaching","levels":5,"height_m":20}},{"type":"Feature","geometry":{"type":"Polygon","coordinates":[[[104.6710547,28.8076378],[104.671337,28.8071374],[104.6717642,28.8073224],[104.671734,28.8073759],[104.6719882,28.807486],[104.6718907,28.8076589],[104.6716082,28.8075365],[104.6716506,28.8074614],[104.6713677,28.8073389],[104.6712621,28.8075261],[104.6715102,28.8076335],[104.6714735,28.8076985],[104.6717856,28.8078337],[104.671695,28.8079943],[104.6713557,28.8078473],[104.6713916,28.8077838],[104.6710547,28.8076378]]]},"properties":{"osm_id":"way/738400637","name":"B1","campus":"suse","kind":"dormitory","levels":6,"height_m":19.8}},{"type":"Feature","geometry":{"type":"Polygon","coordinates":[[[104.6726636,28.8087731],[104.6727491,28.8086149],[104.6732507,28.808823],[104.673349,28.8086411],[104.6728454,28.8084321],[104.6731214,28.8079214],[104.6737539,28.8081839],[104.6736699,28.8083395],[104.6731596,28.8081278],[104.6730537,28.8083237],[104.6735679,28.808537],[104.6732981,28.8090363],[104.6726636,28.8087731]]]},"properties":{"osm_id":"way/738400639","name":"B3","campus":"suse","kind":"dormitory","levels":6,"height_m":19.8}},{"type":"Feature","geometry":{"type":"Polygon","coordinates":[[[104.671621,28.8068477],[104.6720703,28.8064432],[104.6725329,28.8068377],[104.6720837,28.8072422],[104.671621,28.8068477]]]},"properties":{"osm_id":"way/738400640","name":"品正食堂","campus":"suse","kind":"canteen","levels":2,"height_m":9}},{"type":"Feature","geometry":{"type":"Polygon","coordinates":[[[104.6725087,28.8074554],[104.6727979,28.8069428],[104.6734183,28.8072116],[104.673326,28.8073752],[104.6728337,28.8071619],[104.6727301,28.8073455],[104.6730881,28.8075006],[104.6729949,28.8076659],[104.6725087,28.8074554]]]},"properties":{"osm_id":"way/738400641","name":"B4","campus":"suse","kind":"dormitory","levels":6,"height_m":19.8}},{"type":"Feature","geometry":{"type":"Polygon","coordinates":[[[104.6732032,28.8076529],[104.6734405,28.8072274],[104.6735557,28.8072768],[104.6734091,28.8075397],[104.6738332,28.8077212],[104.6737426,28.8078838],[104.6732032,28.8076529]]]},"properties":{"osm_id":"way/738400642","campus":"suse","kind":"service","levels":2,"height_m":8}},{"type":"Feature","geometry":{"type":"Polygon","coordinates":[[[104.666733,28.8087932],[104.6660069,28.808472],[104.666332,28.8079077],[104.6670581,28.808229],[104.666733,28.8087932]]]},"properties":{"osm_id":"way/738400643","name":"A7机械工程学院","campus":"suse","kind":"teaching","levels":5,"height_m":20}},{"type":"Feature","geometry":{"type":"Polygon","coordinates":[[[104.6675142,28.809893],[104.66766,28.8096313],[104.6676009,28.809606],[104.6677288,28.8093765],[104.6677847,28.8094004],[104.6679342,28.8091321],[104.6682261,28.8092569],[104.6681775,28.8093441],[104.6682645,28.8093813],[104.6683094,28.8093008],[104.6686703,28.8094552],[104.6686295,28.8095285],[104.6686987,28.8095581],[104.6687411,28.8094821],[104.6690158,28.8095996],[104.6688661,28.8098684],[104.6689339,28.8098974],[104.6688019,28.8101342],[104.6687244,28.810101],[104.6685777,28.8103643],[104.6683036,28.8102471],[104.6683485,28.8101666],[104.6678465,28.8099518],[104.667809,28.8100191],[104.6675142,28.809893]]]},"properties":{"osm_id":"way/738400645","name":"四川轻化工大学图书馆","campus":"suse","kind":"library","levels":5,"height_m":25,"desc":"四川轻化工大学图书馆,位于校园中轴线北端"}},{"type":"Feature","geometry":{"type":"Polygon","coordinates":[[[104.6674437,28.8085198],[104.66757,28.8082794],[104.6675055,28.8082534],[104.6675765,28.8081182],[104.6676457,28.8081461],[104.6677558,28.8079365],[104.6683444,28.8081738],[104.6684315,28.808008],[104.6680209,28.8078424],[104.6681306,28.8076335],[104.6687738,28.8078928],[104.6684698,28.8084717],[104.668267,28.80839],[104.6680669,28.808771],[104.6674437,28.8085198]]]},"properties":{"osm_id":"way/738400646","name":"勤工楼  A5物理与电子工程学院","campus":"suse","kind":"teaching","levels":5,"height_m":20}},{"type":"Feature","geometry":{"type":"Polygon","coordinates":[[[104.6719147,28.8111351],[104.6722598,28.8105301],[104.6728395,28.8107839],[104.6724944,28.811389],[104.6719147,28.8111351]]]},"properties":{"osm_id":"way/738400648","name":"食品与发酵工程中试基地","campus":"suse","kind":"lab","levels":4,"height_m":16}},{"type":"Feature","geometry":{"type":"Polygon","coordinates":[[[104.6708707,28.8107989],[104.6709851,28.8105932],[104.6716561,28.81088],[104.6715416,28.8110856],[104.6708707,28.8107989]]]},"properties":{"osm_id":"way/738400651","name":"工程实践中心","campus":"suse","kind":"lab","levels":2,"height_m":11,"desc":"工程实践中心"}},{"type":"Feature","geometry":{"type":"Polygon","coordinates":[[[104.6661219,28.8109705],[104.6661433,28.8106731],[104.666284,28.8104096],[104.6665124,28.8103829],[104.666726,28.8104612],[104.6668498,28.8105927],[104.6667067,28.8108789],[104.6664115,28.8111015],[104.6661219,28.8109705]]]},"properties":{"osm_id":"way/738400659","name":"科学会堂","campus":"suse","kind":"hall","levels":3,"height_m":13.5}},{"type":"Feature","geometry":{"type":"Polygon","coordinates":[[[104.6696276,28.8127446],[104.6691491,28.8125332],[104.6694589,28.8119947],[104.6699373,28.812206],[104.6696276,28.8127446]]]},"properties":{"osm_id":"way/738400660","name":"令雅","campus":"suse","kind":"canteen","levels":2,"height_m":9}},{"type":"Feature","geometry":{"type":"Polygon","coordinates":[[[104.6736366,28.7961228],[104.6743178,28.795361],[104.6751548,28.7958456],[104.6753762,28.7958872],[104.6755897,28.7958525],[104.6759693,28.7957624],[104.6764279,28.7956342],[104.6766295,28.7956134],[104.6769577,28.7956897],[104.6773332,28.7957867],[104.6777207,28.7958941],[104.6780133,28.7960119],[104.6779263,28.7962717],[104.6774716,28.7961678],[104.6772463,28.7961505],[104.6769418,28.7961435],[104.6766572,28.7961574],[104.6762618,28.7962406],[104.6760009,28.796341],[104.6758546,28.7963965],[104.6755699,28.7964554],[104.675226,28.7964935],[104.6750402,28.7965004],[104.6746764,28.7964935],[104.6742218,28.7964138],[104.6736366,28.7961228]]]},"properties":{"osm_id":"way/815580287","name":"宜宾水街","campus":"other","kind":"other","levels":2,"height_m":6.8,"desc":"宜宾水街商业街区(校区外)"}},{"type":"Feature","geometry":{"type":"Polygon","coordinates":[[[104.6671596,28.8079252],[104.6665003,28.8076607],[104.6668097,28.8070684],[104.6674691,28.807333],[104.6671596,28.8079252]]]},"properties":{"osm_id":"way/871558794","name":"A8自动化与信息工程学院","campus":"suse","kind":"teaching","levels":5,"height_m":20}},{"type":"Feature","geometry":{"type":"Polygon","coordinates":[[[104.6705828,28.8113337],[104.6707998,28.8109348],[104.6714736,28.8112162],[104.6712565,28.8116152],[104.6705828,28.8113337]]]},"properties":{"osm_id":"way/871558795","name":"工程实践中心","campus":"suse","kind":"lab","levels":2,"height_m":11,"desc":"工程实践中心"}},{"type":"Feature","geometry":{"type":"Polygon","coordinates":[[[104.6698979,28.8095482],[104.6692968,28.8092871],[104.6697157,28.8085467],[104.6703167,28.8088078],[104.6698979,28.8095482]]]},"properties":{"osm_id":"way/871558796","name":"A6计算机学院 数学与统计学院","campus":"suse","kind":"teaching","levels":5,"height_m":20}},{"type":"Feature","geometry":{"type":"Polygon","coordinates":[[[104.6692139,28.8060541],[104.6699101,28.8063682],[104.6696979,28.8067295],[104.6690016,28.8064153],[104.6692139,28.8060541]]]},"properties":{"osm_id":"way/871558814","name":"A3达理楼","campus":"suse","kind":"teaching","levels":5,"height_m":20}},{"type":"Feature","geometry":{"type":"Polygon","coordinates":[[[104.6639633,28.8118391],[104.6643499,28.8113929],[104.664677,28.8116106],[104.6647156,28.811566],[104.6650767,28.8118062],[104.6649633,28.8119371],[104.6646197,28.8117085],[104.6645728,28.8117626],[104.6643297,28.8116009],[104.6641853,28.8117675],[104.6645051,28.8119802],[104.6645535,28.8119243],[104.6648328,28.8121101],[104.6647083,28.8122538],[104.6644405,28.8120757],[104.6643961,28.812127],[104.6639633,28.8118391]]]},"properties":{"osm_id":"way/946212454","name":"B8","campus":"suse","kind":"dormitory","levels":6,"height_m":19.8}},{"type":"Feature","geometry":{"type":"Polygon","coordinates":[[[104.6638445,28.8105868],[104.6633961,28.8101564],[104.6635505,28.8100328],[104.6639043,28.8103724],[104.6640831,28.8102294],[104.6637033,28.8098648],[104.6641811,28.8094826],[104.6646447,28.8099276],[104.6645003,28.8100431],[104.6641195,28.8096776],[104.6639365,28.8098239],[104.6643282,28.8101999],[104.6638445,28.8105868]]]},"properties":{"osm_id":"way/946212455","name":"B6","campus":"suse","kind":"dormitory","levels":6,"height_m":19.8}},{"type":"Feature","geometry":{"type":"Polygon","coordinates":[[[104.6637071,28.8107616],[104.6635522,28.8108898],[104.6632162,28.810578],[104.6630432,28.8107212],[104.6633622,28.8110172],[104.6632248,28.8111309],[104.6628208,28.8107561],[104.6632863,28.810371],[104.6637071,28.8107616]]]},"properties":{"osm_id":"way/946212456","name":"B10","campus":"suse","kind":"dormitory","levels":6,"height_m":19.8}},{"type":"Feature","geometry":{"type":"Polygon","coordinates":[[[104.6638048,28.8108454],[104.6642245,28.8112451],[104.6637457,28.8116311],[104.6633332,28.8112383],[104.6634891,28.8111126],[104.663803,28.8114116],[104.6639744,28.8112735],[104.6636532,28.8109676],[104.6638048,28.8108454]]]},"properties":{"osm_id":"way/946212457","name":"B7","campus":"suse","kind":"dormitory","levels":6,"height_m":19.8}},{"type":"Feature","geometry":{"type":"Polygon","coordinates":[[[104.6647768,28.8100428],[104.6651965,28.8104425],[104.6647177,28.8108286],[104.6643052,28.8104357],[104.6644611,28.81031],[104.664775,28.810609],[104.6649464,28.8104709],[104.6646252,28.810165],[104.6647768,28.8100428]]]},"properties":{"osm_id":"way/946212458","name":"B9","campus":"suse","kind":"dormitory","levels":6,"height_m":19.8}},{"type":"Feature","geometry":{"type":"Polygon","coordinates":[[[104.6656172,28.8112628],[104.665518,28.8112237],[104.6653537,28.8115437],[104.6650895,28.8114396],[104.6651196,28.8113811],[104.6647438,28.811233],[104.6648642,28.8109986],[104.6649651,28.8110384],[104.6651216,28.8107337],[104.6653742,28.8108333],[104.6653415,28.810897],[104.665727,28.8110489],[104.6656172,28.8112628]]]},"properties":{"osm_id":"way/946212459","name":"器美","campus":"suse","kind":"canteen","levels":2,"height_m":9}},{"type":"Feature","geometry":{"type":"Polygon","coordinates":[[[104.6676801,28.8131102],[104.667389,28.812684],[104.6677713,28.8124192],[104.6678545,28.8123528],[104.6679688,28.8122874],[104.6680529,28.8122453],[104.6684445,28.8120291],[104.6689032,28.8122359],[104.6688335,28.8123523],[104.6684472,28.8121842],[104.6682152,28.81231],[104.6684848,28.8126531],[104.6683681,28.8127236],[104.6680905,28.8123734],[104.6678773,28.8125027],[104.6681361,28.8128634],[104.6680073,28.8129269],[104.6677606,28.8125779],[104.6675527,28.8126907],[104.6678075,28.8130432],[104.6676801,28.8131102]]]},"properties":{"osm_id":"way/946212460","name":"留学生B14","campus":"suse","kind":"dormitory","levels":6,"height_m":19.8}},{"type":"Feature","geometry":{"type":"Polygon","coordinates":[[[104.6680702,28.8136436],[104.6677853,28.813255],[104.6682817,28.8129756],[104.6685272,28.8133104],[104.6683915,28.8133867],[104.6682273,28.8131629],[104.6679874,28.8132979],[104.6681911,28.8135756],[104.6680702,28.8136436]]]},"properties":{"osm_id":"way/946212461","name":"B13研究生","campus":"suse","kind":"dormitory","levels":6,"height_m":19.8}},{"type":"Feature","geometry":{"type":"Polygon","coordinates":[[[104.6685136,28.8135615],[104.6686072,28.8133928],[104.6691477,28.8136229],[104.6688627,28.8141367],[104.6683145,28.8139032],[104.6684065,28.8137373],[104.6687707,28.8138924],[104.6688701,28.8137133],[104.6685136,28.8135615]]]},"properties":{"osm_id":"way/946212462","name":"B11","campus":"suse","kind":"dormitory","levels":6,"height_m":19.8}},{"type":"Feature","geometry":{"type":"Polygon","coordinates":[[[104.6692686,28.8134296],[104.6687069,28.8132021],[104.6689755,28.8126928],[104.6695297,28.8129172],[104.66945,28.8130684],[104.6690726,28.8129156],[104.6689595,28.8131301],[104.6693443,28.813286],[104.6692686,28.8134296]]]},"properties":{"osm_id":"way/946212463","name":"B12","campus":"suse","kind":"dormitory","levels":6,"height_m":19.8}},{"type":"Feature","geometry":{"type":"Polygon","coordinates":[[[104.6696261,28.8107236],[104.6698199,28.8103609],[104.6699555,28.810417],[104.6698346,28.8106539],[104.6702807,28.810826],[104.6703848,28.8105944],[104.6705651,28.810669],[104.6703588,28.8110063],[104.6696261,28.8107236]]]},"properties":{"osm_id":"way/946212464","name":"生物工程学院 五粮液白酒学院","campus":"suse","kind":"teaching","levels":5,"height_m":20}},{"type":"Feature","geometry":{"type":"Polygon","coordinates":[[[104.6705651,28.810669],[104.6703848,28.8105944],[104.6699555,28.810417],[104.6698199,28.8103609],[104.6699309,28.8101548],[104.6706761,28.8104629],[104.6705651,28.810669]]]},"properties":{"osm_id":"way/946212465","campus":"suse","kind":"service","levels":2,"height_m":8}},{"type":"Feature","geometry":{"type":"Polygon","coordinates":[[[104.6701965,28.8100403],[104.6703901,28.8096583],[104.6709967,28.8098943],[104.6709366,28.8100128],[104.6704703,28.8098313],[104.6703979,28.8099742],[104.6708607,28.8101542],[104.6707995,28.8102749],[104.6701965,28.8100403]]]},"properties":{"osm_id":"way/946212466","name":"酿酒生物技术及应用","campus":"suse","kind":"lab","levels":4,"height_m":16}},{"type":"Feature","geometry":{"type":"Polygon","coordinates":[[[104.6718309,28.8100769],[104.6717243,28.8102735],[104.6714197,28.8101467],[104.6713432,28.8102879],[104.6718345,28.8104925],[104.671727,28.8106909],[104.6710698,28.8104173],[104.6711807,28.8102129],[104.6712233,28.8102306],[104.6712973,28.8100941],[104.6712698,28.8100827],[104.6713757,28.8098874],[104.6718309,28.8100769]]]},"properties":{"osm_id":"way/946212467","name":"基础化学楼","campus":"suse","kind":"lab","levels":4,"height_m":16}},{"type":"Feature","geometry":{"type":"Polygon","coordinates":[[[104.6718603,28.8081915],[104.6721426,28.8076911],[104.6725698,28.8078761],[104.6725396,28.8079296],[104.6727938,28.8080397],[104.6726963,28.8082126],[104.6724138,28.8080902],[104.6724562,28.8080151],[104.6721733,28.8078926],[104.6720677,28.8080798],[104.6723157,28.8081873],[104.6722791,28.8082522],[104.6725912,28.8083874],[104.6725006,28.808548],[104.6721613,28.808401],[104.6721972,28.8083375],[104.6718603,28.8081915]]]},"properties":{"osm_id":"way/946212486","name":"B2","campus":"suse","kind":"dormitory","levels":6,"height_m":19.8}},{"type":"Feature","geometry":{"type":"Polygon","coordinates":[[[104.6691553,28.7922089],[104.6690856,28.7920209],[104.6695255,28.7917388],[104.669681,28.7918751],[104.6691553,28.7922089]]]},"properties":{"osm_id":"way/1120360583","name":"恒旭国际大酒店","campus":"other","kind":"other","levels":10,"height_m":34,"desc":"恒旭国际大酒店(校区外)"}},{"type":"Feature","geometry":{"type":"Polygon","coordinates":[[[104.6704052,28.7919692],[104.6703844,28.7916799],[104.6703008,28.7915525],[104.6705675,28.7913436],[104.6707539,28.7915038],[104.6708773,28.791499],[104.6710865,28.7916824],[104.6711241,28.7919128],[104.6707003,28.7922418],[104.6704052,28.7919692]]]},"properties":{"osm_id":"way/1120360585","campus":"other","kind":"other","levels":4,"height_m":13.6}},{"type":"Feature","geometry":{"type":"Polygon","coordinates":[[[104.6721969,28.7927284],[104.6722801,28.7926485],[104.6726315,28.792893],[104.6725671,28.7929682],[104.6721969,28.7927284]]]},"properties":{"osm_id":"way/1120360586","campus":"other","kind":"other","levels":4,"height_m":13.6}},{"type":"Feature","geometry":{"type":"Polygon","coordinates":[[[104.6711777,28.7925968],[104.6717195,28.792585],[104.6717168,28.7926955],[104.6715964,28.7926997],[104.6711723,28.7927143],[104.6711777,28.7925968]]]},"properties":{"osm_id":"way/1120360587","campus":"other","kind":"other","levels":4,"height_m":13.6}},{"type":"Feature","geometry":{"type":"Polygon","coordinates":[[[104.6717168,28.7925075],[104.6718214,28.7923782],[104.6719555,28.7924722],[104.6718456,28.7925944],[104.6717168,28.7925075]]]},"properties":{"osm_id":"way/1120360588","campus":"other","kind":"other","levels":4,"height_m":13.6}},{"type":"Feature","geometry":{"type":"Polygon","coordinates":[[[104.6827548,28.8178214],[104.6822302,28.817315],[104.6825993,28.8170216],[104.6831237,28.8175281],[104.6827548,28.8178214]]]},"properties":{"osm_id":"way/1204448858","campus":"other","kind":"other","levels":4,"height_m":13.6}},{"type":"Feature","geometry":{"type":"Polygon","coordinates":[[[104.6832605,28.8173904],[104.682798,28.8169201],[104.6832023,28.8166148],[104.6836647,28.8170852],[104.6832605,28.8173904]]]},"properties":{"osm_id":"way/1204448859","campus":"other","kind":"other","levels":4,"height_m":13.6}},{"type":"Feature","geometry":{"type":"Polygon","coordinates":[[[104.6838075,28.8169521],[104.6833374,28.8164777],[104.6837832,28.8161387],[104.6842532,28.8166132],[104.6838075,28.8169521]]]},"properties":{"osm_id":"way/1204448860","campus":"other","kind":"other","levels":4,"height_m":13.6}},{"type":"Feature","geometry":{"type":"Polygon","coordinates":[[[104.6847917,28.816291],[104.6846532,28.8163401],[104.6844962,28.8163556],[104.6843039,28.8161877],[104.6841386,28.8160321],[104.6841239,28.8159745],[104.6842704,28.8158186],[104.6844396,28.815654],[104.684755,28.8156213],[104.6848994,28.8157319],[104.6850726,28.815675],[104.6853974,28.8156972],[104.685282,28.816004],[104.6852356,28.8161685],[104.6852039,28.8162483],[104.6851439,28.8163033],[104.6847917,28.816291]]]},"properties":{"osm_id":"way/1204448861","campus":"other","kind":"other","levels":4,"height_m":13.6}},{"type":"Feature","geometry":{"type":"Polygon","coordinates":[[[104.6837402,28.8187764],[104.6835298,28.8185599],[104.6840926,28.8181399],[104.6843031,28.8183564],[104.6837402,28.8187764]]]},"properties":{"osm_id":"way/1204448862","campus":"other","kind":"other","levels":4,"height_m":13.6}},{"type":"Feature","geometry":{"type":"Polygon","coordinates":[[[104.6850227,28.8192307],[104.6845616,28.8195512],[104.6843174,28.8192814],[104.6842296,28.8193424],[104.6837956,28.8188628],[104.6840684,28.8186734],[104.6842258,28.8188474],[104.6846077,28.8187722],[104.6850227,28.8192307]]]},"properties":{"osm_id":"way/1204448863","campus":"other","kind":"other","levels":4,"height_m":13.6}},{"type":"Feature","geometry":{"type":"Polygon","coordinates":[[[104.6858504,28.8187488],[104.6863769,28.8188337],[104.68634,28.8190095],[104.6858135,28.8189246],[104.6858504,28.8187488]]]},"properties":{"osm_id":"way/1204448864","campus":"other","kind":"other","levels":4,"height_m":13.6}},{"type":"Feature","geometry":{"type":"Polygon","coordinates":[[[104.6856561,28.8159017],[104.6861624,28.8164253],[104.6859626,28.8165736],[104.6858291,28.8166336],[104.6855949,28.8167056],[104.6854763,28.8167244],[104.6854094,28.8167289],[104.6852777,28.8166402],[104.6852158,28.8165314],[104.6852402,28.8164391],[104.6852671,28.8163384],[104.6852827,28.8163113],[104.6854895,28.8160254],[104.6856561,28.8159017]]]},"properties":{"osm_id":"way/1204448870","campus":"other","kind":"other","levels":4,"height_m":13.6}},{"type":"Feature","geometry":{"type":"Polygon","coordinates":[[[104.6860746,28.8210253],[104.68568,28.8206907],[104.6862116,28.8202094],[104.6866062,28.8205439],[104.6860746,28.8210253]]]},"properties":{"osm_id":"way/1204450920","campus":"other","kind":"other","levels":4,"height_m":13.6}},{"type":"Feature","geometry":{"type":"Polygon","coordinates":[[[104.6788549,28.8209448],[104.6786284,28.8211243],[104.6782866,28.8207932],[104.6785132,28.8206137],[104.6788549,28.8209448]]]},"properties":{"osm_id":"way/1204664856","campus":"other","kind":"other","levels":4,"height_m":13.6}},{"type":"Feature","geometry":{"type":"Polygon","coordinates":[[[104.6785534,28.8205675],[104.6784269,28.8204445],[104.6787916,28.8201568],[104.6795514,28.8208961],[104.6790238,28.8213124],[104.6788548,28.821148],[104.6791426,28.8209209],[104.6786781,28.8204691],[104.6785534,28.8205675]]]},"properties":{"osm_id":"way/1204664857","campus":"other","kind":"other","levels":4,"height_m":13.6}},{"type":"Feature","geometry":{"type":"Polygon","coordinates":[[[104.679627,28.8218204],[104.6794385,28.8219759],[104.6791321,28.8216908],[104.6793206,28.8215353],[104.679627,28.8218204]]]},"properties":{"osm_id":"way/1204664858","campus":"other","kind":"other","levels":4,"height_m":13.6}},{"type":"Feature","geometry":{"type":"Polygon","coordinates":[[[104.6800188,28.8221974],[104.679817,28.8223568],[104.6795094,28.8220577],[104.6797111,28.8218985],[104.6800188,28.8221974]]]},"properties":{"osm_id":"way/1204664859","campus":"other","kind":"other","levels":4,"height_m":13.6}},{"type":"Feature","geometry":{"type":"Polygon","coordinates":[[[104.6799348,28.8220076],[104.6801693,28.821824],[104.679698,28.821362],[104.6794462,28.8215591],[104.679316,28.8214315],[104.6797908,28.8210599],[104.6805414,28.8217961],[104.6800841,28.822154],[104.6799348,28.8220076]]]},"properties":{"osm_id":"way/1204664860","campus":"other","kind":"other","levels":4,"height_m":13.6}},{"type":"Feature","geometry":{"type":"Polygon","coordinates":[[[104.6805499,28.8207671],[104.6800704,28.8211408],[104.6795347,28.8206133],[104.6800143,28.8202395],[104.6805499,28.8207671]]]},"properties":{"osm_id":"way/1204664861","campus":"other","kind":"other","levels":4,"height_m":13.6}},{"type":"Feature","geometry":{"type":"Polygon","coordinates":[[[104.6795262,28.8202738],[104.679364,28.8204116],[104.6789771,28.8200619],[104.6793582,28.8197382],[104.6795333,28.8198964],[104.6793143,28.8200825],[104.6795262,28.8202738]]]},"properties":{"osm_id":"way/1204664862","campus":"other","kind":"other","levels":4,"height_m":13.6}},{"type":"Feature","geometry":{"type":"Polygon","coordinates":[[[104.680438,28.821155],[104.6806232,28.8213233],[104.6808208,28.8211563],[104.6810322,28.8213483],[104.680666,28.8216579],[104.6802693,28.8212976],[104.680438,28.821155]]]},"properties":{"osm_id":"way/1204664863","campus":"other","kind":"other","levels":4,"height_m":13.6}},{"type":"Feature","geometry":{"type":"Polygon","coordinates":[[[104.6809899,28.8212482],[104.6806352,28.8209173],[104.6809537,28.8206552],[104.6813084,28.8209862],[104.6809899,28.8212482]]]},"properties":{"osm_id":"way/1204664864","campus":"other","kind":"other","levels":4,"height_m":13.6}},{"type":"Feature","geometry":{"type":"Polygon","coordinates":[[[104.6796975,28.8200179],[104.6794543,28.819785],[104.6799047,28.8194239],[104.6801479,28.8196567],[104.6796975,28.8200179]]]},"properties":{"osm_id":"way/1204664865","campus":"other","kind":"other","levels":4,"height_m":13.6}},{"type":"Feature","geometry":{"type":"Polygon","coordinates":[[[104.6806037,28.8199222],[104.6799322,28.8193115],[104.6804686,28.8188589],[104.68114,28.8194697],[104.6806037,28.8199222]]]},"properties":{"osm_id":"way/1204664866","campus":"other","kind":"other","levels":4,"height_m":13.6}},{"type":"Feature","geometry":{"type":"Polygon","coordinates":[[[104.6810039,28.8203028],[104.6810981,28.8202362],[104.6810297,28.8201618],[104.6815518,28.8197931],[104.6819695,28.8202471],[104.6820617,28.820182],[104.6822444,28.8203805],[104.681536,28.820881],[104.6810039,28.8203028]]]},"properties":{"osm_id":"way/1204664867","campus":"other","kind":"other","levels":4,"height_m":13.6}},{"type":"Feature","geometry":{"type":"Polygon","coordinates":[[[104.6814853,28.8190189],[104.6813262,28.8188599],[104.6816281,28.8186279],[104.6813968,28.8183967],[104.6812065,28.8185428],[104.6810459,28.8183824],[104.6814549,28.8180681],[104.6820061,28.8186187],[104.6814853,28.8190189]]]},"properties":{"osm_id":"way/1204664868","campus":"other","kind":"other","levels":4,"height_m":13.6}},{"type":"Feature","geometry":{"type":"Polygon","coordinates":[[[104.680741,28.8189634],[104.6805785,28.8188088],[104.6810207,28.8184517],[104.6811833,28.8186063],[104.680741,28.8189634]]]},"properties":{"osm_id":"way/1204664869","campus":"other","kind":"other","levels":4,"height_m":13.6}},{"type":"Feature","geometry":{"type":"Polygon","coordinates":[[[104.6823822,28.8199163],[104.682691,28.8196639],[104.6824832,28.8194687],[104.6821825,28.8197145],[104.6820023,28.8195453],[104.6824891,28.8191473],[104.6830386,28.8196632],[104.6825437,28.8200679],[104.6823822,28.8199163]]]},"properties":{"osm_id":"way/1204664870","campus":"other","kind":"other","levels":4,"height_m":13.6}},{"type":"Feature","geometry":{"type":"Polygon","coordinates":[[[104.6806315,28.8227983],[104.6801717,28.8223494],[104.6806612,28.8219646],[104.6811209,28.8224136],[104.6806315,28.8227983]]]},"properties":{"osm_id":"way/1204664871","campus":"other","kind":"other","levels":4,"height_m":13.6}},{"type":"Feature","geometry":{"type":"Polygon","coordinates":[[[104.6783845,28.7993646],[104.678484,28.7990292],[104.6785631,28.7990449],[104.6786116,28.7989017],[104.6787264,28.7989241],[104.6786984,28.7990113],[104.6788311,28.7990359],[104.6789127,28.7988414],[104.6791015,28.7988794],[104.6790301,28.7990873],[104.6790862,28.7991008],[104.6791373,28.7989644],[104.6791628,28.7988883],[104.67927,28.7988995],[104.6793567,28.7986446],[104.6795532,28.7985864],[104.6796476,28.7988324],[104.679543,28.7988749],[104.6794664,28.7987609],[104.6794307,28.7987609],[104.679344,28.7990113],[104.6795864,28.7990605],[104.6792955,28.7998745],[104.6788591,28.7997627],[104.679025,28.7992439],[104.6787264,28.7991768],[104.6786856,28.799302],[104.6786244,28.7992953],[104.6785835,28.7994205],[104.6783845,28.7993646]]]},"properties":{"osm_id":"way/1204674535","name":"宜宾市博物馆","campus":"other","kind":"hall","levels":4,"height_m":18,"desc":"宜宾市博物馆(校区外)"}},{"type":"Feature","geometry":{"type":"Polygon","coordinates":[[[104.6784126,28.8007667],[104.6784024,28.8001495],[104.6791755,28.800154],[104.67915,28.8007734],[104.6784126,28.8007667]]]},"properties":{"osm_id":"way/1204674536","name":"宜宾市文化馆","campus":"other","kind":"hall","levels":4,"height_m":18,"desc":"宜宾市文化馆(校区外)"}},{"type":"Feature","geometry":{"type":"Polygon","coordinates":[[[104.6856163,28.8170952],[104.685655,28.8169561],[104.6862751,28.8170971],[104.6862215,28.81727],[104.685979,28.817176],[104.6856163,28.8170952]]]},"properties":{"osm_id":"way/1230333623","campus":"other","kind":"other","levels":4,"height_m":13.6}},{"type":"Feature","geometry":{"type":"Polygon","coordinates":[[[104.6855412,28.8172982],[104.685906,28.817473],[104.6861185,28.8175088],[104.6860176,28.8176874],[104.6857172,28.8175764],[104.685449,28.8174223],[104.6855412,28.8172982]]]},"properties":{"osm_id":"way/1230333624","campus":"other","kind":"other","levels":4,"height_m":13.6}},{"type":"Feature","geometry":{"type":"Polygon","coordinates":[[[104.68567,28.8180183],[104.6851721,28.8175803],[104.6852794,28.8174844],[104.6855884,28.8177889],[104.6858052,28.8179112],[104.68567,28.8180183]]]},"properties":{"osm_id":"way/1230333625","campus":"other","kind":"other","levels":4,"height_m":13.6}},{"type":"Feature","geometry":{"type":"Polygon","coordinates":[[[104.6711473,28.8034778],[104.6715219,28.8026819],[104.6737464,28.8026538],[104.6757146,28.8026138],[104.6758815,28.8027675],[104.6752053,28.8048372],[104.6749474,28.8049596],[104.674867,28.8049235],[104.6739868,28.8045948],[104.673807,28.8045602],[104.6736593,28.8044908],[104.6733664,28.8043701],[104.6730537,28.8042158],[104.6729054,28.8041375],[104.6725221,28.8039809],[104.6723501,28.8039449],[104.6720887,28.803841],[104.6711473,28.8034778]]]},"properties":{"osm_id":"way/1230333886","name":"公园π","campus":"other","kind":"other","levels":4,"height_m":13.6}},{"type":"Feature","geometry":{"type":"Polygon","coordinates":[[[104.6814453,28.7961337],[104.6813756,28.796066],[104.6813761,28.795878],[104.6823294,28.7958799],[104.6824302,28.7959654],[104.6824265,28.7961491],[104.6814453,28.7961337]]]},"properties":{"osm_id":"way/1231620463","campus":"other","kind":"other","levels":4,"height_m":13.6}},{"type":"Feature","geometry":{"type":"Polygon","coordinates":[[[104.6830722,28.7967235],[104.6830758,28.7966555],[104.6830595,28.7965875],[104.6830379,28.7965321],[104.683018,28.7964958],[104.6829711,28.7964483],[104.6828755,28.7963835],[104.6827312,28.7963329],[104.6826951,28.7962396],[104.6826734,28.7961226],[104.6826752,28.7959613],[104.6827239,28.7959139],[104.6827961,28.7958917],[104.6830704,28.795887],[104.6833735,28.7958933],[104.6834475,28.7958901],[104.6834556,28.795948],[104.6835052,28.7960514],[104.6835954,28.7960925],[104.6836658,28.7961115],[104.6836596,28.7965726],[104.6835004,28.796732],[104.6830722,28.7967235]]]},"properties":{"osm_id":"way/1231620464","campus":"other","kind":"other","levels":4,"height_m":13.6}},{"type":"Feature","geometry":{"type":"Polygon","coordinates":[[[104.6818709,28.7963021],[104.6819335,28.7962127],[104.6823047,28.7962138],[104.6823583,28.7962865],[104.6821759,28.7965693],[104.6820406,28.7965649],[104.6818709,28.7963021]]]},"properties":{"osm_id":"way/1231620465","campus":"other","kind":"other","levels":4,"height_m":13.6}},{"type":"Feature","geometry":{"type":"Polygon","coordinates":[[[104.682884,28.7974237],[104.6829556,28.7972473],[104.6831152,28.7971189],[104.6832191,28.7971205],[104.6832412,28.7971618],[104.6833305,28.7973291],[104.6833714,28.7974081],[104.683189,28.797691],[104.6830537,28.7976865],[104.682884,28.7974237]]]},"properties":{"osm_id":"way/1231620466","campus":"other","kind":"other","levels":4,"height_m":13.6}},{"type":"Feature","geometry":{"type":"Polygon","coordinates":[[[104.6834533,28.7975055],[104.6832412,28.7971618],[104.6833054,28.797126],[104.6832296,28.7970106],[104.6833126,28.7969331],[104.6836049,28.7969347],[104.6838341,28.7973189],[104.6834533,28.7975055]]]},"properties":{"osm_id":"way/1231620467","campus":"other","kind":"other","levels":4,"height_m":13.6}},{"type":"Feature","geometry":{"type":"Polygon","coordinates":[[[104.6824304,28.7965363],[104.6824911,28.7965668],[104.6825624,28.7967025],[104.6826792,28.7968115],[104.682919,28.7968979],[104.6830511,28.7970204],[104.6828765,28.7971652],[104.6827733,28.7971612],[104.6827187,28.7971067],[104.6827323,28.7970814],[104.6822889,28.796722],[104.6822938,28.79664],[104.6824304,28.7965363]]]},"properties":{"osm_id":"way/1231620468","campus":"other","kind":"other","levels":4,"height_m":13.6}},{"type":"Feature","geometry":{"type":"Polygon","coordinates":[[[104.6844768,28.7959894],[104.6846748,28.7960756],[104.6847993,28.7961231],[104.68507,28.7962053],[104.6853027,28.7962448],[104.6855481,28.7962575],[104.6857755,28.796248],[104.6859,28.7962195],[104.6859866,28.7965563],[104.685669,28.7966038],[104.6856059,28.7966338],[104.6855481,28.7966892],[104.6855337,28.796773],[104.6855391,28.7968504],[104.6851746,28.79692],[104.6851638,28.7968742],[104.6851133,28.7968394],[104.6850573,28.7968251],[104.6849852,28.7968204],[104.6849419,28.796841],[104.684895,28.796871],[104.6848643,28.7969058],[104.6848336,28.7969342],[104.6848047,28.7969738],[104.6844918,28.796819],[104.6846516,28.7966133],[104.6846642,28.7965618],[104.6846629,28.7965171],[104.6846419,28.7964686],[104.6845848,28.7964233],[104.6842595,28.7962793],[104.6844768,28.7959894]]]},"properties":{"osm_id":"way/1231620469","name":"宜宾科技馆","campus":"other","kind":"hall","levels":4,"height_m":18,"desc":"宜宾科技馆(校区外)"}},{"type":"Feature","geometry":{"type":"Polygon","coordinates":[[[104.6851003,28.814761],[104.6853531,28.8147728],[104.6853279,28.8151886],[104.6857611,28.8152088],[104.6861584,28.8156098],[104.6859989,28.8157311],[104.6856753,28.8154043],[104.6850629,28.8153757],[104.6851003,28.814761]]]},"properties":{"osm_id":"way/1280162880","campus":"other","kind":"other","levels":4,"height_m":13.6}},{"type":"Feature","geometry":{"type":"Polygon","coordinates":[[[104.6857583,28.8149028],[104.6852655,28.8144471],[104.6857929,28.8140093],[104.6862857,28.814465],[104.6861054,28.8146147],[104.6857934,28.814326],[104.6856064,28.8144812],[104.6859184,28.8147699],[104.6857583,28.8149028]]]},"properties":{"osm_id":"way/1280162882","campus":"other","kind":"other","levels":4,"height_m":13.6}},{"type":"Feature","geometry":{"type":"Polygon","coordinates":[[[104.6837493,28.8144716],[104.6842046,28.8141188],[104.6847544,28.8146633],[104.6842989,28.8150162],[104.6837493,28.8144716]]]},"properties":{"osm_id":"way/1280162883","campus":"other","kind":"other","levels":4,"height_m":13.6}},{"type":"Feature","geometry":{"type":"Polygon","coordinates":[[[104.6845732,28.8138638],[104.6849722,28.8142559],[104.6851531,28.8141145],[104.6847449,28.8137133],[104.6852399,28.8133266],[104.6857507,28.8138285],[104.6855744,28.8139662],[104.6851826,28.8135811],[104.6850132,28.8137134],[104.6853873,28.8140813],[104.6849041,28.8144585],[104.6844205,28.813983],[104.6845732,28.8138638]]]},"properties":{"osm_id":"way/1280162884","campus":"other","kind":"other","levels":4,"height_m":13.6}},{"type":"Feature","geometry":{"type":"Polygon","coordinates":[[[104.6769322,28.8144123],[104.6771716,28.8142281],[104.6775171,28.8145729],[104.6772776,28.8147571],[104.6769322,28.8144123]]]},"properties":{"osm_id":"way/1280162886","campus":"other","kind":"other","levels":4,"height_m":13.6}},{"type":"Feature","geometry":{"type":"Polygon","coordinates":[[[104.6772182,28.8141889],[104.6774045,28.814048],[104.6777584,28.8144073],[104.6775722,28.8145481],[104.6772182,28.8141889]]]},"properties":{"osm_id":"way/1280162887","campus":"other","kind":"other","levels":4,"height_m":13.6}},{"type":"Feature","geometry":{"type":"Polygon","coordinates":[[[104.6774117,28.8149191],[104.6779115,28.8145318],[104.6786858,28.815299],[104.6781862,28.8156862],[104.6774117,28.8149191]]]},"properties":{"osm_id":"way/1280162888","campus":"other","kind":"other","levels":4,"height_m":13.6}},{"type":"Feature","geometry":{"type":"Polygon","coordinates":[[[104.6761622,28.8178767],[104.6763591,28.8174442],[104.6768594,28.8176191],[104.6767757,28.8178028],[104.6765035,28.8177076],[104.6763902,28.8179564],[104.6761622,28.8178767]]]},"properties":{"osm_id":"way/1280162889","campus":"other","kind":"other","levels":4,"height_m":13.6}},{"type":"Feature","geometry":{"type":"Polygon","coordinates":[[[104.6770346,28.818159],[104.6768333,28.817856],[104.6769976,28.8177722],[104.6771077,28.817938],[104.6772747,28.8178529],[104.6773658,28.8179901],[104.6770346,28.818159]]]},"properties":{"osm_id":"way/1280162890","campus":"other","kind":"other","levels":4,"height_m":13.6}},{"type":"Feature","geometry":{"type":"Polygon","coordinates":[[[104.6754625,28.8175232],[104.6755251,28.8173829],[104.6757823,28.8174709],[104.6759033,28.8171995],[104.6760815,28.8172605],[104.6758978,28.8176723],[104.6754625,28.8175232]]]},"properties":{"osm_id":"way/1280162891","campus":"other","kind":"other","levels":4,"height_m":13.6}},{"type":"Feature","geometry":{"type":"Polygon","coordinates":[[[104.6751187,28.8171588],[104.6749924,28.8170345],[104.6754269,28.8166958],[104.6758229,28.817086],[104.6756501,28.8172206],[104.6753803,28.8169549],[104.6751187,28.8171588]]]},"properties":{"osm_id":"way/1280162892","campus":"other","kind":"other","levels":4,"height_m":13.6}},{"type":"Feature","geometry":{"type":"Polygon","coordinates":[[[104.6755919,28.8166243],[104.675799,28.8164645],[104.6761194,28.8167366],[104.6762131,28.8168964],[104.6765532,28.8170951],[104.6764201,28.8172852],[104.6760898,28.8171038],[104.6758434,28.8168144],[104.6755919,28.8166243]]]},"properties":{"osm_id":"way/1280162897","campus":"other","kind":"other","levels":4,"height_m":13.6}},{"type":"Feature","geometry":{"type":"Polygon","coordinates":[[[104.6788614,28.8171247],[104.6787255,28.8169163],[104.6792068,28.8166682],[104.6797731,28.8172487],[104.6794276,28.8175365],[104.6792521,28.8173331],[104.6794333,28.8171743],[104.6791955,28.8169808],[104.6788614,28.8171247]]]},"properties":{"osm_id":"way/1280162898","campus":"other","kind":"other","levels":4,"height_m":13.6}},{"type":"Feature","geometry":{"type":"Polygon","coordinates":[[[104.6800675,28.8174521],[104.6806281,28.8172537],[104.6811095,28.8177151],[104.6806281,28.8181517],[104.6800675,28.8174521]]]},"properties":{"osm_id":"way/1280162899","campus":"other","kind":"other","levels":4,"height_m":13.6}},{"type":"Feature","geometry":{"type":"Polygon","coordinates":[[[104.6784246,28.8194703],[104.6783412,28.8192939],[104.6789717,28.819065],[104.6790551,28.8192413],[104.6784246,28.8194703]]]},"properties":{"osm_id":"way/1280162900","campus":"other","kind":"other","levels":4,"height_m":13.6}},{"type":"Feature","geometry":{"type":"Polygon","coordinates":[[[104.6790539,28.8190596],[104.6787243,28.818771],[104.678986,28.8182747],[104.6797285,28.8186093],[104.6800117,28.8184138],[104.6800847,28.818504],[104.6802177,28.8183799],[104.6799216,28.8181431],[104.6797886,28.8182371],[104.6796341,28.8181092],[104.6799602,28.8178535],[104.6804366,28.8183085],[104.6801018,28.8186206],[104.6800392,28.8186032],[104.6797787,28.8188264],[104.6791049,28.8185585],[104.6790029,28.8187371],[104.6792294,28.8189554],[104.6790539,28.8190596]]]},"properties":{"osm_id":"way/1280162901","campus":"other","kind":"other","levels":4,"height_m":13.6}},{"type":"Feature","geometry":{"type":"Polygon","coordinates":[[[104.679162,28.8180247],[104.6789205,28.8176057],[104.6791719,28.8175366],[104.6792902,28.8177569],[104.6796402,28.8176359],[104.6797043,28.8178303],[104.679162,28.8180247]]]},"properties":{"osm_id":"way/1280162902","campus":"other","kind":"other","levels":4,"height_m":13.6}},{"type":"Feature","geometry":{"type":"Polygon","coordinates":[[[104.6786346,28.8172386],[104.6781958,28.8170788],[104.6784176,28.8166641],[104.6780874,28.8163143],[104.6779148,28.816487],[104.6780085,28.8171047],[104.6773479,28.8172213],[104.6771606,28.8173379],[104.6768944,28.817001],[104.6772838,28.81669],[104.6776535,28.8169924],[104.6777965,28.8169967],[104.6776733,28.8164006],[104.678112,28.8160551],[104.6786641,28.8166166],[104.6785113,28.8169837],[104.6787233,28.8170572],[104.6786346,28.8172386]]]},"properties":{"osm_id":"way/1280162903","campus":"other","kind":"other","levels":4,"height_m":13.6}},{"type":"Feature","geometry":{"type":"Polygon","coordinates":[[[104.6746944,28.8103024],[104.6748574,28.8100819],[104.6751425,28.8102437],[104.6749795,28.8104642],[104.6746944,28.8103024]]]},"properties":{"osm_id":"way/1280194221","campus":"other","kind":"service","levels":1,"height_m":4}},{"type":"Feature","geometry":{"type":"Polygon","coordinates":[[[104.6750392,28.8105314],[104.6751943,28.8103539],[104.6754669,28.8105368],[104.6753118,28.8107143],[104.6750392,28.8105314]]]},"properties":{"osm_id":"way/1280194222","campus":"other","kind":"other","levels":4,"height_m":13.6}},{"type":"Feature","geometry":{"type":"Polygon","coordinates":[[[104.6752124,28.8099247],[104.6753675,28.8097472],[104.6756402,28.8099301],[104.6754851,28.8101076],[104.6752124,28.8099247]]]},"properties":{"osm_id":"way/1280194223","campus":"other","kind":"other","levels":4,"height_m":13.6}},{"type":"Feature","geometry":{"type":"Polygon","coordinates":[[[104.6746627,28.80993],[104.6747069,28.8096459],[104.675028,28.8096842],[104.6749839,28.8099683],[104.6746627,28.80993]]]},"properties":{"osm_id":"way/1280194224","campus":"other","kind":"service","levels":1,"height_m":4}},{"type":"Feature","geometry":{"type":"Polygon","coordinates":[[[104.6747696,28.8094086],[104.6748492,28.809145],[104.6751728,28.80922],[104.6750932,28.8094836],[104.6747696,28.8094086]]]},"properties":{"osm_id":"way/1280194225","campus":"other","kind":"service","levels":1,"height_m":4}},{"type":"Feature","geometry":{"type":"Polygon","coordinates":[[[104.6749178,28.8090125],[104.6749932,28.8087558],[104.6752828,28.8088211],[104.6752073,28.8090779],[104.6749178,28.8090125]]]},"properties":{"osm_id":"way/1280194226","campus":"other","kind":"service","levels":1,"height_m":4}},{"type":"Feature","geometry":{"type":"Polygon","coordinates":[[[104.6755072,28.8095242],[104.6756962,28.8093108],[104.675989,28.80951],[104.6758001,28.8097234],[104.6755072,28.8095242]]]},"properties":{"osm_id":"way/1280194227","campus":"other","kind":"other","levels":4,"height_m":13.6}},{"type":"Feature","geometry":{"type":"Polygon","coordinates":[[[104.6753613,28.8087689],[104.6755503,28.8085555],[104.6758432,28.8087546],[104.6756542,28.808968],[104.6753613,28.8087689]]]},"properties":{"osm_id":"way/1280194228","campus":"other","kind":"other","levels":4,"height_m":13.6}},{"type":"Feature","geometry":{"type":"Polygon","coordinates":[[[104.6757433,28.8090133],[104.6759323,28.8087999],[104.6762251,28.808999],[104.6760362,28.8092124],[104.6757433,28.8090133]]]},"properties":{"osm_id":"way/1280194229","campus":"other","kind":"other","levels":4,"height_m":13.6}},{"type":"Feature","geometry":{"type":"Polygon","coordinates":[[[104.6760952,28.8092652],[104.6762842,28.8090518],[104.676577,28.809251],[104.6763954,28.809455],[104.6763881,28.8094644],[104.6763365,28.8094291],[104.6760952,28.8092652]]]},"properties":{"osm_id":"way/1280194230","campus":"other","kind":"other","levels":4,"height_m":13.6}},{"type":"Feature","geometry":{"type":"Polygon","coordinates":[[[104.6757688,28.8105344],[104.6755583,28.8103637],[104.6757901,28.8101443],[104.6760005,28.8103149],[104.6757688,28.8105344]]]},"properties":{"osm_id":"way/1280194231","campus":"other","kind":"other","levels":4,"height_m":13.6}},{"type":"Feature","geometry":{"type":"Polygon","coordinates":[[[104.6758591,28.8099835],[104.6760481,28.8097701],[104.676341,28.8099692],[104.676152,28.8101826],[104.6758591,28.8099835]]]},"properties":{"osm_id":"way/1280194232","campus":"other","kind":"other","levels":4,"height_m":13.6}},{"type":"Feature","geometry":{"type":"Polygon","coordinates":[[[104.6761553,28.8096337],[104.6763365,28.8094291],[104.6763443,28.8094203],[104.6763954,28.809455],[104.6766371,28.8096195],[104.6764482,28.8098329],[104.6761553,28.8096337]]]},"properties":{"osm_id":"way/1280194233","campus":"other","kind":"other","levels":4,"height_m":13.6}},{"type":"Feature","geometry":{"type":"Polygon","coordinates":[[[104.6759011,28.8108229],[104.6761059,28.8106131],[104.6763401,28.8107886],[104.6761353,28.8109984],[104.6759011,28.8108229]]]},"properties":{"osm_id":"way/1280194234","campus":"other","kind":"other","levels":4,"height_m":13.6}},{"type":"Feature","geometry":{"type":"Polygon","coordinates":[[[104.6762325,28.8104422],[104.6764215,28.8102288],[104.6767144,28.810428],[104.6765254,28.8106413],[104.6762325,28.8104422]]]},"properties":{"osm_id":"way/1280194235","campus":"other","kind":"other","levels":4,"height_m":13.6}},{"type":"Feature","geometry":{"type":"Polygon","coordinates":[[[104.6765458,28.8101226],[104.6767348,28.8099092],[104.6770277,28.8101083],[104.6768387,28.8103217],[104.6765458,28.8101226]]]},"properties":{"osm_id":"way/1280194236","campus":"other","kind":"other","levels":4,"height_m":13.6}},{"type":"Feature","geometry":{"type":"Polygon","coordinates":[[[104.6770221,28.809912],[104.6772111,28.8096986],[104.677504,28.8098978],[104.6773151,28.8101111],[104.6770221,28.809912]]]},"properties":{"osm_id":"way/1280194237","campus":"other","kind":"other","levels":4,"height_m":13.6}},{"type":"Feature","geometry":{"type":"Polygon","coordinates":[[[104.6770908,28.8105249],[104.6772798,28.8103115],[104.6775727,28.8105107],[104.6773837,28.8107241],[104.6770908,28.8105249]]]},"properties":{"osm_id":"way/1280194238","campus":"other","kind":"other","levels":4,"height_m":13.6}},{"type":"Feature","geometry":{"type":"Polygon","coordinates":[[[104.6764728,28.8108483],[104.6766618,28.8106349],[104.6769547,28.8108341],[104.6767657,28.8110475],[104.6764728,28.8108483]]]},"properties":{"osm_id":"way/1280194239","campus":"other","kind":"other","levels":4,"height_m":13.6}},{"type":"Feature","geometry":{"type":"Polygon","coordinates":[[[104.676829,28.8111191],[104.677018,28.8109057],[104.6773109,28.8111048],[104.6771219,28.8113182],[104.676829,28.8111191]]]},"properties":{"osm_id":"way/1280194240","campus":"other","kind":"other","levels":4,"height_m":13.6}},{"type":"Feature","geometry":{"type":"Polygon","coordinates":[[[104.677314,28.8112356],[104.677503,28.8110222],[104.6777958,28.8112214],[104.6776069,28.8114348],[104.677314,28.8112356]]]},"properties":{"osm_id":"way/1280194241","campus":"other","kind":"other","levels":4,"height_m":13.6}},{"type":"Feature","geometry":{"type":"Polygon","coordinates":[[[104.6776273,28.8109574],[104.6778163,28.810744],[104.6781091,28.8109431],[104.6779202,28.8111565],[104.6776273,28.8109574]]]},"properties":{"osm_id":"way/1280194242","campus":"other","kind":"other","levels":4,"height_m":13.6}},{"type":"Feature","geometry":{"type":"Polygon","coordinates":[[[104.6759664,28.8112056],[104.6761554,28.8109922],[104.6764483,28.8111913],[104.6762593,28.8114047],[104.6759664,28.8112056]]]},"properties":{"osm_id":"way/1280194243","campus":"other","kind":"other","levels":4,"height_m":13.6}},{"type":"Feature","geometry":{"type":"Polygon","coordinates":[[[104.6764428,28.811544],[104.6766318,28.8113306],[104.6769247,28.8115297],[104.6767357,28.8117431],[104.6764428,28.811544]]]},"properties":{"osm_id":"way/1280194244","campus":"other","kind":"other","levels":4,"height_m":13.6}},{"type":"Feature","geometry":{"type":"Polygon","coordinates":[[[104.6770221,28.811559],[104.6772111,28.8113456],[104.677504,28.8115448],[104.6773151,28.8117582],[104.6770221,28.811559]]]},"properties":{"osm_id":"way/1280194245","campus":"other","kind":"other","levels":4,"height_m":13.6}},{"type":"Feature","geometry":{"type":"Polygon","coordinates":[[[104.6797012,28.7988581],[104.6795409,28.7984261],[104.6798559,28.7983364],[104.6798087,28.7982093],[104.6796286,28.7982606],[104.679511,28.7982861],[104.6794734,28.7981849],[104.6793884,28.7982123],[104.6793131,28.7980089],[104.6791342,28.7980598],[104.6790648,28.7978723],[104.6800101,28.7976035],[104.6801244,28.7979122],[104.6801454,28.7979715],[104.6802009,28.7981054],[104.6800472,28.7981542],[104.6799066,28.7981942],[104.6799473,28.7983039],[104.6802531,28.7982168],[104.6804155,28.7986546],[104.6797012,28.7988581]]]},"properties":{"osm_id":"way/1280194246","name":"宜宾市竹文化博物馆","campus":"other","kind":"hall","levels":3,"height_m":13.5,"desc":"宜宾市竹文化博物馆(校区外)"}},{"type":"Feature","geometry":{"type":"Polygon","coordinates":[[[104.6831753,28.8238354],[104.6825511,28.8232488],[104.6832113,28.8227096],[104.6838355,28.8232962],[104.6831753,28.8238354]]]},"properties":{"osm_id":"way/1280201957","campus":"other","kind":"other","levels":4,"height_m":13.6}},{"type":"Feature","geometry":{"type":"Polygon","coordinates":[[[104.6840978,28.8231534],[104.6834736,28.8225668],[104.6841338,28.8220276],[104.684758,28.8226142],[104.6840978,28.8231534]]]},"properties":{"osm_id":"way/1280201958","campus":"other","kind":"other","levels":4,"height_m":13.6}},{"type":"Feature","geometry":{"type":"Polygon","coordinates":[[[104.684896,28.8224541],[104.6842719,28.8218674],[104.684932,28.8213282],[104.6855562,28.8219148],[104.684896,28.8224541]]]},"properties":{"osm_id":"way/1280201959","campus":"other","kind":"other","levels":4,"height_m":13.6}},{"type":"Feature","geometry":{"type":"Polygon","coordinates":[[[104.6820018,28.8239403],[104.6823799,28.8236336],[104.68289,28.8241163],[104.6825118,28.8244231],[104.6820018,28.8239403]]]},"properties":{"osm_id":"way/1280201960","campus":"other","kind":"other","levels":4,"height_m":13.6}},{"type":"Feature","geometry":{"type":"Polygon","coordinates":[[[104.6853862,28.8223073],[104.6855876,28.8221481],[104.6860366,28.8225844],[104.6858353,28.8227435],[104.6853862,28.8223073]]]},"properties":{"osm_id":"way/1280201967","campus":"other","kind":"other","levels":4,"height_m":13.6}},{"type":"Feature","geometry":{"type":"Polygon","coordinates":[[[104.6853459,28.8238844],[104.6855086,28.8233575],[104.6857699,28.823405],[104.6856072,28.8239405],[104.6853459,28.8238844]]]},"properties":{"osm_id":"way/1280201968","campus":"other","kind":"other","levels":4,"height_m":13.6}},{"type":"Feature","geometry":{"type":"Polygon","coordinates":[[[104.6849235,28.8239965],[104.6846628,28.8235157],[104.6848906,28.8234209],[104.6851514,28.8239017],[104.6849235,28.8239965]]]},"properties":{"osm_id":"way/1280201969","campus":"other","kind":"other","levels":4,"height_m":13.6}},{"type":"Feature","geometry":{"type":"Polygon","coordinates":[[[104.6841358,28.8241246],[104.6842363,28.8239058],[104.684791,28.8241015],[104.6846905,28.8243202],[104.6841358,28.8241246]]]},"properties":{"osm_id":"way/1280201970","campus":"other","kind":"other","levels":4,"height_m":13.6}},{"type":"Feature","geometry":{"type":"Polygon","coordinates":[[[104.6844346,28.8239511],[104.6842994,28.8238409],[104.6845746,28.8235816],[104.6847099,28.8236919],[104.6844346,28.8239511]]]},"properties":{"osm_id":"way/1280201971","campus":"other","kind":"other","levels":4,"height_m":13.6}},{"type":"Feature","geometry":{"type":"Polygon","coordinates":[[[104.6849957,28.8235716],[104.6849774,28.8234225],[104.6854061,28.8233821],[104.6854244,28.8235312],[104.6849957,28.8235716]]]},"properties":{"osm_id":"way/1280201972","campus":"other","kind":"other","levels":4,"height_m":13.6}},{"type":"Feature","geometry":{"type":"Polygon","coordinates":[[[104.6841772,28.8247176],[104.6841389,28.8244909],[104.6847189,28.8244157],[104.6847572,28.8246424],[104.6841772,28.8247176]]]},"properties":{"osm_id":"way/1280201973","campus":"other","kind":"other","levels":4,"height_m":13.6}},{"type":"Feature","geometry":{"type":"Polygon","coordinates":[[[104.6843255,28.8248724],[104.6846302,28.824613],[104.6851838,28.8250115],[104.6848447,28.8253349],[104.6843255,28.8248724]]]},"properties":{"osm_id":"way/1280201974","campus":"other","kind":"other","levels":4,"height_m":13.6}},{"type":"Feature","geometry":{"type":"Polygon","coordinates":[[[104.6849432,28.8254761],[104.6850362,28.8249606],[104.6853037,28.8249976],[104.6852109,28.8255132],[104.6849432,28.8254761]]]},"properties":{"osm_id":"way/1280201975","campus":"other","kind":"other","levels":4,"height_m":13.6}},{"type":"Feature","geometry":{"type":"Polygon","coordinates":[[[104.6856765,28.8254793],[104.6854452,28.8249746],[104.6856864,28.8248898],[104.6858534,28.8252456],[104.6859177,28.8253945],[104.6856765,28.8254793]]]},"properties":{"osm_id":"way/1280201976","campus":"other","kind":"other","levels":4,"height_m":13.6}},{"type":"Feature","geometry":{"type":"Polygon","coordinates":[[[104.6858171,28.8247989],[104.6859355,28.8246029],[104.6864771,28.8248541],[104.6863587,28.8250501],[104.6858171,28.8247989]]]},"properties":{"osm_id":"way/1280201978","campus":"other","kind":"other","levels":4,"height_m":13.6}},{"type":"Feature","geometry":{"type":"Polygon","coordinates":[[[104.6859505,28.8244521],[104.685883,28.824209],[104.6864786,28.824082],[104.6865462,28.8243253],[104.6859505,28.8244521]]]},"properties":{"osm_id":"way/1280201980","campus":"other","kind":"other","levels":4,"height_m":13.6}},{"type":"Feature","geometry":{"type":"Polygon","coordinates":[[[104.685963,28.8028082],[104.6858496,28.8027304],[104.6858053,28.8025447],[104.6857412,28.8025706],[104.685613,28.8025533],[104.6853961,28.8023114],[104.685401,28.8021516],[104.6855736,28.8020825],[104.6856574,28.802022],[104.6856919,28.8019529],[104.6858102,28.801901],[104.6860666,28.801901],[104.686313,28.8019097],[104.6864905,28.8019226],[104.6866088,28.8019788],[104.6866335,28.802117],[104.6867321,28.8021429],[104.6869539,28.8021559],[104.6871116,28.802238],[104.6870476,28.8023287],[104.6869095,28.8024496],[104.6867961,28.8024324],[104.6866433,28.8023892],[104.6863968,28.8023892],[104.6863525,28.8024367],[104.6863525,28.8025663],[104.686387,28.8026872],[104.6864609,28.8028168],[104.6864757,28.8029032],[104.6863032,28.8029205],[104.685963,28.8028082]]]},"properties":{"osm_id":"way/1367618091","name":"三江之眼","campus":"other","kind":"other","levels":4,"height_m":13.6}},{"type":"Feature","geometry":{"type":"Polygon","coordinates":[[[104.6657299,28.8117044],[104.6659189,28.8114153],[104.6661216,28.8114996],[104.6660941,28.8115809],[104.666156,28.8115749],[104.6661491,28.8116652],[104.6660838,28.8116532],[104.6661285,28.811876],[104.6657299,28.8117044]]]},"properties":{"osm_id":"way/1422212729","name":"励志楼","campus":"suse","kind":"office","levels":5,"height_m":18}}]}