{"type":"FeatureCollection","features":[{"type":"Feature","geometry":{"type":"Polygon","coordinates":[[[104.6700087,28.806101],[104.6700777,28.805918],[104.6701884,28.8057258],[104.6703435,28.8055555],[104.6705238,28.8053817],[104.6706397,28.8051981],[104.6707132,28.8050012],[104.6711956,28.8052145],[104.6710423,28.8053592],[104.6709385,28.8055177],[104.6708638,28.8057195],[104.6707992,28.8059259],[104.6707383,28.806029],[104.6706714,28.8061241],[104.6705704,28.8062454],[104.6705089,28.8063102],[104.6700087,28.806101]]]},"properties":{"kind":"grass"}},{"type":"Feature","geometry":{"type":"Polygon","coordinates":[[[104.6687183,28.8062709],[104.6684773,28.8062483],[104.6679566,28.8060371],[104.6675693,28.8058411],[104.6673585,28.805547],[104.6672961,28.8054546],[104.6671648,28.8053924],[104.6667087,28.8052792],[104.6665022,28.8052038],[104.6663343,28.8049738],[104.6663623,28.8048343],[104.6666227,28.8045741],[104.6673456,28.803771],[104.6675199,28.803737],[104.6677716,28.8038313],[104.6679351,28.8037144],[104.6684429,28.8036729],[104.6689033,28.8038426],[104.6689851,28.8039067],[104.6688086,28.8041556],[104.6688259,28.8043366],[104.6694584,28.8046081],[104.6694627,28.8047777],[104.6688259,28.8057581],[104.6687957,28.8060598],[104.6687183,28.8062709]]]},"properties":{"kind":"wood"}},{"type":"Feature","geometry":{"type":"Polygon","coordinates":[[[104.6671112,28.8124763],[104.6668,28.8122827],[104.6663645,28.8120571],[104.6662336,28.811995],[104.6656306,28.8117675],[104.6655705,28.811728],[104.6655855,28.8116716],[104.6656907,28.8115776],[104.6658044,28.8114611],[104.6659417,28.811258],[104.666019,28.811085],[104.6660812,28.810912],[104.6661134,28.8106789],[104.6661735,28.8105153],[104.6662379,28.810333],[104.6663301,28.8102032],[104.6664095,28.8101769],[104.6667078,28.8102935],[104.6671369,28.8104589],[104.667373,28.8105229],[104.6676412,28.8106056],[104.6679116,28.8107184],[104.6681884,28.8108914],[104.6685574,28.8111997],[104.6688836,28.8114234],[104.6689222,28.8114968],[104.6688235,28.8116397],[104.6685789,28.8118596],[104.668006,28.8121717],[104.6676777,28.8123616],[104.6674888,28.8125083],[104.6673065,28.8126418],[104.6671112,28.8124763]]]},"properties":{"kind":"park"}},{"type":"Feature","geometry":{"type":"Polygon","coordinates":[[[104.6665134,28.8100609],[104.6664981,28.8100005],[104.6665377,28.8099256],[104.6667763,28.8097233],[104.6679105,28.8102219],[104.6677727,28.8105025],[104.6672853,28.8103627],[104.6670978,28.8103057],[104.6669549,28.8102644],[104.6666691,28.8101447],[104.6665134,28.8100609]]]},"properties":{"kind":"grass"}},{"type":"Feature","geometry":{"type":"Polygon","coordinates":[[[104.6680075,28.8106031],[104.6681478,28.8103337],[104.669078,28.8107551],[104.6690614,28.8108558],[104.6690461,28.8110581],[104.6690269,28.8111688],[104.668995,28.8112616],[104.6689695,28.811285],[104.6688917,28.8112929],[104.668847,28.8112649],[104.6684694,28.8109832],[104.6681249,28.8106981],[104.6680254,28.810631],[104.6680075,28.8106031]]]},"properties":{"kind":"grass"}},{"type":"Feature","geometry":{"type":"Polygon","coordinates":[[[104.6691119,28.811427],[104.6692684,28.8107796],[104.6703246,28.8112715],[104.6700041,28.8118676],[104.6698957,28.8118848],[104.6691119,28.811427]]]},"properties":{"kind":"grass"}},{"type":"Feature","geometry":{"type":"Polygon","coordinates":[[[104.6701612,28.8119708],[104.6704602,28.8114747],[104.6712515,28.8118408],[104.6709524,28.812337],[104.6701612,28.8119708]]]},"properties":{"kind":"grass"}}]}