{"type":"FeatureCollection","features":[{"type":"Feature","geometry":{"type":"Polygon","coordinates":[[[104.6723545,28.8145777],[104.6722502,28.8144726],[104.672459,28.8143134],[104.6725633,28.8144183],[104.6723545,28.8145777]]]},"properties":{"kind":"basketball"}},{"type":"Feature","geometry":{"type":"Polygon","coordinates":[[[104.6721611,28.8146894],[104.6723018,28.8145809],[104.6725519,28.8148301],[104.6724114,28.8149385],[104.6721611,28.8146894]]]},"properties":{"kind":"tennis"}},{"type":"Feature","geometry":{"type":"Polygon","coordinates":[[[104.672379,28.8149677],[104.6725677,28.8148193],[104.6726467,28.8148964],[104.6724579,28.8150449],[104.672379,28.8149677]]]},"properties":{"kind":"badminton"}},{"type":"Feature","geometry":{"type":"Polygon","coordinates":[[[104.6724617,28.8146861],[104.6723574,28.8145811],[104.6725662,28.8144219],[104.6726705,28.8145269],[104.6724617,28.8146861]]]},"properties":{"kind":"basketball"}},{"type":"Feature","geometry":{"type":"Polygon","coordinates":[[[104.6725699,28.814797],[104.6724655,28.8146919],[104.6726744,28.8145327],[104.6727787,28.8146377],[104.6725699,28.814797]]]},"properties":{"kind":"basketball"}},{"type":"Feature","geometry":{"type":"Polygon","coordinates":[[[104.6726799,28.8149049],[104.6725756,28.8147999],[104.6727844,28.8146407],[104.6728887,28.8147456],[104.6726799,28.8149049]]]},"properties":{"kind":"basketball"}},{"type":"Feature","geometry":{"type":"Polygon","coordinates":[[[104.672788,28.8150172],[104.6726837,28.8149122],[104.6728926,28.8147529],[104.6729968,28.814858],[104.672788,28.8150172]]]},"properties":{"kind":"basketball"}},{"type":"Feature","geometry":{"type":"Polygon","coordinates":[[[104.6725677,28.8151803],[104.6724634,28.8150754],[104.6726723,28.8149162],[104.6727766,28.8150211],[104.6725677,28.8151803]]]},"properties":{"kind":"basketball"}},{"type":"Feature","geometry":{"type":"Polygon","coordinates":[[[104.6720476,28.8146329],[104.6722364,28.8144845],[104.6723154,28.8145615],[104.6721267,28.81471],[104.6720476,28.8146329]]]},"properties":{"kind":"badminton"}},{"type":"Feature","geometry":{"type":"Polygon","coordinates":[[[104.6720044,28.8146282],[104.6719002,28.8145232],[104.6721089,28.8143639],[104.6722132,28.814469],[104.6720044,28.8146282]]]},"properties":{"kind":"basketball"}},{"type":"Feature","geometry":{"type":"Polygon","coordinates":[[[104.6736768,28.8070025],[104.673934,28.8065756],[104.6742954,28.8067428],[104.6740382,28.8071697],[104.6736768,28.8070025]]]},"properties":{"kind":"multi"}},{"type":"Feature","geometry":{"type":"Polygon","coordinates":[[[104.6738904,28.8065059],[104.6742082,28.8059139],[104.6743798,28.8059847],[104.674216,28.8062898],[104.6745308,28.8064196],[104.6743768,28.8067064],[104.6738904,28.8065059]]]},"properties":{"kind":"tennis"}},{"type":"Feature","geometry":{"type":"Polygon","coordinates":[[[104.6720982,28.8060799],[104.6725098,28.8053454],[104.6729709,28.8055438],[104.6725593,28.8062783],[104.6720982,28.8060799]]]},"properties":{"kind":"basketball"}},{"type":"Feature","geometry":{"type":"Polygon","coordinates":[[[104.6726695,28.8050659],[104.6727736,28.8048825],[104.6732336,28.8050829],[104.6731295,28.8052663],[104.6726695,28.8050659]]]},"properties":{"kind":"badminton"}},{"type":"Feature","geometry":{"type":"Polygon","coordinates":[[[104.6700784,28.8131047],[104.6697355,28.8129562],[104.6700358,28.8124213],[104.6703785,28.8125708],[104.6700784,28.8131047]]]},"properties":{"kind":"basketball"}},{"type":"Feature","geometry":{"type":"Polygon","coordinates":[[[104.6704827,28.8137678],[104.6706211,28.8135187],[104.6711407,28.8137403],[104.6709949,28.8140028],[104.6708235,28.8139298],[104.6706741,28.8141988],[104.6704955,28.8141226],[104.6706524,28.8138402],[104.6704827,28.8137678]]]},"properties":{"kind":"basketball"}},{"type":"Feature","geometry":{"type":"Polygon","coordinates":[[[104.6725098,28.8053454],[104.6726695,28.8050659],[104.6731295,28.8052663],[104.6729709,28.8055438],[104.6725098,28.8053454]]]},"properties":{"kind":"badminton"}},{"type":"Feature","geometry":{"type":"Polygon","coordinates":[[[104.6727647,28.8160166],[104.6729084,28.815907],[104.6732891,28.81629],[104.6731455,28.8163996],[104.6727647,28.8160166]]]},"properties":{"kind":"basketball"}},{"type":"Feature","geometry":{"type":"Polygon","coordinates":[[[104.6702883,28.8138751],[104.6698149,28.8147174],[104.6692478,28.8144727],[104.6697212,28.8136304],[104.6702883,28.8138751]]]},"properties":{"kind":"soccer","name":"T2操场"}},{"type":"Feature","geometry":{"type":"Polygon","coordinates":[[[104.6705015,28.81378],[104.6698519,28.8149327],[104.6697121,28.8148677],[104.6696822,28.8148781],[104.6696172,28.8148903],[104.6695509,28.814893],[104.6694849,28.814886],[104.6694212,28.8148697],[104.6693614,28.8148443],[104.6693072,28.8148107],[104.66926,28.8147698],[104.6692211,28.8147226],[104.6691917,28.8146704],[104.6691808,28.8146389],[104.6690366,28.8145778],[104.6696767,28.8134272],[104.6698302,28.8134915],[104.6698489,28.813485],[104.6699138,28.8134728],[104.6699802,28.8134701],[104.6700461,28.8134771],[104.6701099,28.8134934],[104.6701697,28.8135188],[104.6702239,28.8135524],[104.6702711,28.8135933],[104.6703099,28.8136405],[104.6703394,28.8136927],[104.6703466,28.8137136],[104.6705015,28.81378]]]},"properties":{"kind":"track"}},{"type":"Feature","geometry":{"type":"Polygon","coordinates":[[[104.6709418,28.8154671],[104.671782,28.814809],[104.6722266,28.8152432],[104.6713859,28.8159024],[104.6709418,28.8154671]]]},"properties":{"kind":"soccer"}},{"type":"Feature","geometry":{"type":"Polygon","coordinates":[[[104.6700358,28.8124213],[104.670141,28.8122362],[104.6704837,28.8123857],[104.6703785,28.8125708],[104.6700358,28.8124213]]]},"properties":{"kind":"table_tennis"}},{"type":"Feature","geometry":{"type":"Polygon","coordinates":[[[104.6760436,28.8017949],[104.6759024,28.8023058],[104.6755624,28.8022336],[104.6757036,28.8017227],[104.6760436,28.8017949]]]},"properties":{"kind":"soccer"}},{"type":"Feature","geometry":{"type":"Polygon","coordinates":[[[104.675649,28.8016197],[104.6757361,28.8016356],[104.6757703,28.8016203],[104.6758085,28.8016103],[104.6758515,28.8016074],[104.6759085,28.8016127],[104.6759494,28.8016221],[104.6759869,28.8016373],[104.6760251,28.8016667],[104.6760593,28.8017026],[104.6761499,28.801719],[104.6759541,28.8024188],[104.675881,28.8024036],[104.6758273,28.8024235],[104.6757851,28.8024324],[104.6757435,28.8024353],[104.6757019,28.8024335],[104.6756657,28.8024253],[104.6756235,28.8024089],[104.6755899,28.8023877],[104.6755584,28.8023607],[104.6755343,28.8023307],[104.6754605,28.8023148],[104.675649,28.8016197]]]},"properties":{"kind":"soccer"}},{"type":"Feature","geometry":{"type":"Polygon","coordinates":[[[104.6712155,28.8160067],[104.6712022,28.8160071],[104.6711356,28.8159995],[104.6710712,28.8159829],[104.6710106,28.8159577],[104.6709552,28.8159244],[104.6709065,28.815884],[104.6708655,28.8158374],[104.6708334,28.8157858],[104.6708109,28.8157304],[104.6707985,28.8156726],[104.6707966,28.8156138],[104.6707996,28.8155941],[104.6706911,28.8154901],[104.6718314,28.8145941],[104.671949,28.8147085],[104.6720155,28.814716],[104.6720799,28.8147326],[104.6721405,28.8147579],[104.6721959,28.8147911],[104.6722447,28.8148315],[104.6722856,28.8148781],[104.6723178,28.8149297],[104.6723403,28.8149851],[104.6723526,28.8150429],[104.6723545,28.8151017],[104.6724819,28.8152206],[104.6713279,28.816118],[104.6712155,28.8160067]]]},"properties":{"kind":"track"}},{"type":"Feature","geometry":{"type":"Polygon","coordinates":[[[104.6728246,28.8063557],[104.6733168,28.8054672],[104.6739162,28.8057211],[104.6734241,28.8066107],[104.6728246,28.8063557]]]},"properties":{"kind":"soccer","name":"T1操场"}},{"type":"Feature","geometry":{"type":"Polygon","coordinates":[[[104.6733139,28.8067699],[104.6733017,28.8067746],[104.6732369,28.8067899],[104.6731702,28.8067961],[104.6731031,28.8067931],[104.6730375,28.8067809],[104.6729748,28.8067599],[104.6729166,28.8067306],[104.6728644,28.8066936],[104.6728195,28.8066499],[104.6727829,28.8066006],[104.6727555,28.8065469],[104.6727496,28.8065277],[104.672604,28.8064679],[104.6732672,28.8052581],[104.6734257,28.8053244],[104.6734905,28.8053092],[104.6735573,28.8053029],[104.6736243,28.805306],[104.67369,28.8053181],[104.6737526,28.8053392],[104.6738108,28.8053685],[104.673863,28.8054055],[104.673908,28.8054491],[104.6739446,28.8054984],[104.6739719,28.8055521],[104.6741416,28.8056194],[104.6734663,28.8068351],[104.6733139,28.8067699]]]},"properties":{"kind":"track"}}]}