{"type":"FeatureCollection","features":[{"type":"Feature","geometry":{"type":"Point","coordinates":[104.6728343,28.8130059]},"properties":{"name":"西华大学","kind":"bus","campus":"other"}},{"type":"Feature","geometry":{"type":"Point","coordinates":[104.6719303,28.8134108]},"properties":{"name":"西华大学","kind":"bus","campus":"other"}},{"type":"Feature","geometry":{"type":"Point","coordinates":[104.6059249,28.7258098]},"properties":{"name":"高铁宜宾西站","kind":"bus","campus":"other"}},{"type":"Feature","geometry":{"type":"Point","coordinates":[104.614512,28.7313208]},"properties":{"name":"天璇路站","kind":"bus","campus":"other"}},{"type":"Feature","geometry":{"type":"Point","coordinates":[104.6208469,28.740077]},"properties":{"name":"大湾路站","kind":"bus","campus":"other"}},{"type":"Feature","geometry":{"type":"Point","coordinates":[104.6264502,28.7498134]},"properties":{"name":"时代广场站","kind":"bus","campus":"other"}},{"type":"Feature","geometry":{"type":"Point","coordinates":[104.6321692,28.7579633]},"properties":{"name":"新世纪广场站","kind":"bus","campus":"other"}},{"type":"Feature","geometry":{"type":"Point","coordinates":[104.6408189,28.7619279]},"properties":{"name":"酒都路站","kind":"bus","campus":"other"}},{"type":"Feature","geometry":{"type":"Point","coordinates":[104.663021,28.7765502]},"properties":{"name":"学堂路站","kind":"bus","campus":"other"}},{"type":"Feature","geometry":{"type":"Point","coordinates":[104.6487852,28.7633106]},"properties":{"name":"长江桥南站","kind":"bus","campus":"other"}},{"type":"Feature","geometry":{"type":"Point","coordinates":[104.669915,28.7835378]},"properties":{"name":"光明路站","kind":"bus","campus":"other"}},{"type":"Feature","geometry":{"type":"Point","coordinates":[104.6796983,28.7909548]},"properties":{"name":"长翠路站","kind":"bus","campus":"other"}},{"type":"Feature","geometry":{"type":"Point","coordinates":[104.6774447,28.7985155]},"properties":{"name":"新楼路站","kind":"bus","campus":"other"}},{"type":"Feature","geometry":{"type":"Point","coordinates":[104.6737792,28.8097282]},"properties":{"name":"四川轻化工大学站","kind":"bus","campus":"other"}},{"type":"Feature","geometry":{"type":"Point","coordinates":[104.6926876,28.7941395]},"properties":{"name":"紫金城站","kind":"bus","campus":"other"}},{"type":"Feature","geometry":{"type":"Point","coordinates":[104.7054334,28.7985899]},"properties":{"name":"西南交通大学站","kind":"bus","campus":"other"}},{"type":"Feature","geometry":{"type":"Point","coordinates":[104.7115885,28.8026574]},"properties":{"name":"牌坊路站","kind":"bus","campus":"other"}},{"type":"Feature","geometry":{"type":"Point","coordinates":[104.7197496,28.8064298]},"properties":{"name":"智轨产业园站","kind":"bus","campus":"other"}},{"type":"Feature","geometry":{"type":"Point","coordinates":[104.6758001,28.8121509]},"properties":{"name":"西华大学（南门）","kind":"bus","campus":"other"}},{"type":"Feature","geometry":{"type":"Point","coordinates":[104.6822307,28.8179417]},"properties":{"name":"四川外国语大学站","kind":"bus","campus":"other"}},{"type":"Feature","geometry":{"type":"Point","coordinates":[104.6744937,28.8107057]},"properties":{"name":"西华大学（南门）","kind":"bus","campus":"other"}},{"type":"Feature","geometry":{"type":"Point","coordinates":[104.6730641,28.8038645]},"properties":{"name":"蜜雪冰城","kind":"cafe","campus":"other"}},{"type":"Feature","geometry":{"type":"Point","coordinates":[104.6732089,28.7927043]},"properties":{"name":"护国路","kind":"bus","campus":"other"}},{"type":"Feature","geometry":{"type":"Point","coordinates":[104.673294,28.7923359]},"properties":{"name":"爱进超市","kind":"supermarket","campus":"other"}},{"type":"Feature","geometry":{"type":"Point","coordinates":[104.6728809,28.7927731]},"properties":{"name":"护国路","kind":"bus","campus":"other"}},{"type":"Feature","geometry":{"type":"Point","coordinates":[104.6881771,28.8235131]},"properties":{"name":"成都理工大学站","kind":"bus","campus":"other"}},{"type":"Feature","geometry":{"type":"Point","coordinates":[104.6833297,28.7959507]},"properties":{"name":"麦当劳","kind":"fast_food","campus":"other"}},{"type":"Feature","geometry":{"type":"Point","coordinates":[104.6784616,28.7947588]},"properties":{"name":"喜茶","kind":"cafe","campus":"other"}},{"type":"Feature","geometry":{"type":"Point","coordinates":[104.678107,28.7947447]},"properties":{"name":"肯德基","kind":"fast_food","campus":"other"}},{"type":"Feature","geometry":{"type":"Point","coordinates":[104.6825486,28.7959418]},"properties":{"name":"茶百道","kind":"cafe","campus":"other"}},{"type":"Feature","geometry":{"type":"Point","coordinates":[104.6768122,28.8121454]},"properties":{"name":"蜜雪冰城","kind":"cafe","campus":"other"}},{"type":"Feature","geometry":{"type":"Point","coordinates":[104.6777572,28.7946546]},"properties":{"name":"小米之家","kind":"mobile_phone","campus":"other"}},{"type":"Feature","geometry":{"type":"Point","coordinates":[104.6733399,28.8041919]},"properties":{"name":"小米之家","kind":"mobile_phone","campus":"other"}},{"type":"Feature","geometry":{"type":"Point","coordinates":[104.6741596,28.8041167]},"properties":{"name":"沪上阿姨","kind":"cafe","campus":"other"}},{"type":"Feature","geometry":{"type":"Point","coordinates":[104.6686187,28.8011857]},"properties":{"name":"蜜雪冰城","kind":"cafe","campus":"other"}},{"type":"Feature","geometry":{"type":"Point","coordinates":[104.6949381,28.8302801]},"properties":{"name":"成都工业学院站","kind":"bus","campus":"other"}}]}