{"type":"FeatureCollection","features":[{"type":"Feature","geometry":{"type":"LineString","coordinates":[[104.671562,28.8045889],[104.671374,28.8051988]]},"properties":{"cls":"minor","highway":"service"}},{"type":"Feature","geometry":{"type":"LineString","coordinates":[[104.6706908,28.804908],[104.6711856,28.8044198]]},"properties":{"cls":"minor","highway":"service"}},{"type":"Feature","geometry":{"type":"LineString","coordinates":[[104.6672559,28.8127222],[104.6675451,28.8125193],[104.6678293,28.8123097],[104.6681824,28.8121242],[104.6685304,28.8119387],[104.6686694,28.8118326],[104.6687643,28.8117595],[104.6688541,28.8116639],[104.6689336,28.8115595],[104.6689992,28.8114531],[104.6690846,28.8112586],[104.669123,28.81112],[104.6692302,28.8106837],[104.669322,28.8105055],[104.6693725,28.8104076],[104.6694242,28.8103311],[104.6695033,28.8102226],[104.6695583,28.8101619],[104.6696477,28.8100993],[104.6697657,28.8100215],[104.6700305,28.8098235],[104.6701532,28.8096521],[104.6702732,28.8094888],[104.6703558,28.8093203],[104.6704513,28.8090296],[104.6704191,28.8087333],[104.6704172,28.8085659],[104.6704164,28.8084964],[104.6704434,28.8082619],[104.6705124,28.808058],[104.6706329,28.8078123],[104.6707655,28.807528],[104.6708485,28.8073879],[104.6709485,28.8072826],[104.671055,28.8071793],[104.671147,28.8070953],[104.6713762,28.8068907],[104.6714774,28.8067781],[104.6716881,28.8064697],[104.6718513,28.8062418],[104.6719696,28.8060825],[104.6721689,28.8058068],[104.6721918,28.8057488],[104.6721871,28.8056762],[104.6721578,28.8056163],[104.672108,28.8055407],[104.6720341,28.8054808],[104.6714609,28.8052369],[104.671374,28.8051988],[104.6706908,28.804908],[104.6705967,28.8048657],[104.6700791,28.8046289],[104.6699749,28.8046032],[104.6698788,28.8046065],[104.6697911,28.804622],[104.6697245,28.8046442],[104.669645,28.804706],[104.6691062,28.8055474],[104.6690915,28.80564],[104.6691126,28.8057164],[104.6691554,28.8057796],[104.6692364,28.8058283]]},"properties":{"cls":"minor","highway":"service"}},{"type":"Feature","geometry":{"type":"LineString","coordinates":[[104.6719696,28.8060825],[104.6723398,28.8064291],[104.6726338,28.8066778],[104.6727851,28.8067783],[104.6729508,28.8068747],[104.6734913,28.8070906],[104.6742483,28.8074272],[104.674547,28.8075088],[104.6746934,28.8076006]]},"properties":{"cls":"minor","highway":"service"}},{"type":"Feature","geometry":{"type":"LineString","coordinates":[[104.6627333,28.8044489],[104.665473,28.805413],[104.6656228,28.8054657],[104.6659364,28.8055824],[104.666554,28.8058204],[104.6671292,28.8061169],[104.6685654,28.8068778]]},"properties":{"cls":"major","highway":"secondary","name":"大学路"}},{"type":"Feature","geometry":{"type":"LineString","coordinates":[[104.6707041,28.8082887],[104.6700016,28.8078117],[104.6684726,28.8070179]]},"properties":{"cls":"major","highway":"secondary","name":"大学路","tunnel":1}},{"type":"Feature","geometry":{"type":"LineString","coordinates":[[104.6685654,28.8068778],[104.6700793,28.8077082],[104.6707494,28.8082005]]},"properties":{"cls":"major","highway":"secondary","name":"大学路","tunnel":1}},{"type":"Feature","geometry":{"type":"LineString","coordinates":[[104.6707494,28.8082005],[104.6735911,28.810117],[104.6737406,28.8102245]]},"properties":{"cls":"major","highway":"secondary","name":"大学路"}},{"type":"Feature","geometry":{"type":"LineString","coordinates":[[104.668548,28.8035813],[104.6687171,28.8033403],[104.6688096,28.8032956],[104.6688965,28.8032845],[104.6689915,28.8032985],[104.670067,28.8037534],[104.6702382,28.8038207],[104.6706399,28.8040116],[104.6707463,28.8040783],[104.6711856,28.8044198],[104.6713753,28.804503],[104.671562,28.8045889],[104.6719972,28.8046193],[104.6721898,28.8046456],[104.672402,28.8046784],[104.6726285,28.8047454],[104.672861,28.8048313],[104.6739191,28.805306],[104.6740258,28.805366],[104.6740841,28.8054186],[104.6741612,28.8055278],[104.6742159,28.8056271],[104.6744823,28.8060525],[104.6745676,28.8061695],[104.6745849,28.8062427],[104.674582,28.806353],[104.6745325,28.8065969],[104.6742483,28.8074272],[104.6739368,28.8081226],[104.6738652,28.8082754],[104.6734331,28.8090101],[104.6733941,28.8090698],[104.6733533,28.8091162],[104.673303,28.8091404],[104.6732427,28.8091458],[104.6731577,28.8091252],[104.6728268,28.8089928],[104.6727481,28.8089492],[104.6725559,28.8087828],[104.6721876,28.808512],[104.6717839,28.8082506],[104.6715179,28.8081304],[104.671272,28.8079644],[104.6710369,28.8077411],[104.6707655,28.807528],[104.6698254,28.8070452],[104.6688513,28.8065827]]},"properties":{"cls":"minor","highway":"service"}},{"type":"Feature","geometry":{"type":"LineString","coordinates":[[104.6654002,28.8056259],[104.6649176,28.8063041],[104.6641263,28.8073617],[104.6640766,28.8075177],[104.6640715,28.8076703],[104.6640816,28.8078025],[104.6641024,28.807911],[104.6641549,28.8080095],[104.6644589,28.8083734],[104.6649058,28.8088397],[104.665584,28.8095602],[104.6658587,28.8097608],[104.6663221,28.8100821],[104.6665322,28.8101693],[104.6670568,28.8103896],[104.6674837,28.8105088],[104.6677567,28.8106144],[104.6680629,28.810774],[104.6683211,28.8109655],[104.6685151,28.811102],[104.6687628,28.8112907],[104.6689992,28.8114531],[104.6694281,28.8117264],[104.6699885,28.8120208],[104.6701846,28.8121192],[104.6709589,28.8124572],[104.671745,28.8128011],[104.6718135,28.8128448],[104.6722543,28.8131046]]},"properties":{"cls":"minor","highway":"unclassified","name":"A9食品与发酵工程中试基地"}},{"type":"Feature","geometry":{"type":"LineString","coordinates":[[104.6649058,28.8088397],[104.6647523,28.8089756],[104.6644545,28.8092264],[104.6641394,28.8094643],[104.6635367,28.809984],[104.6633363,28.8102051],[104.6638559,28.8106852],[104.6638816,28.8107129],[104.6644591,28.8112595],[104.6645469,28.8113258],[104.6653904,28.8117542],[104.6662385,28.8120743],[104.6666224,28.8122722],[104.6667962,28.8123927],[104.6669379,28.8124979],[104.6671023,28.8126105],[104.6672559,28.8127222],[104.6673636,28.8128065],[104.667704,28.8132387],[104.6681222,28.8137854],[104.6684785,28.8141266],[104.6686953,28.8142488],[104.6688268,28.81427],[104.6689352,28.8142029],[104.6692799,28.8136326],[104.6696415,28.8130247],[104.6696883,28.8129409],[104.6701846,28.8121192]]},"properties":{"cls":"minor","highway":"service"}},{"type":"Feature","geometry":{"type":"LineString","coordinates":[[104.6649176,28.8063041],[104.6650665,28.8063715],[104.6652908,28.8064162],[104.6655174,28.8064198],[104.66581,28.8063983],[104.6660806,28.8064363],[104.6663587,28.8065013],[104.6666212,28.8066228],[104.6668474,28.8067655],[104.6671696,28.8070107],[104.6681339,28.8075087]]},"properties":{"cls":"minor","highway":"service"}},{"type":"Feature","geometry":{"type":"LineString","coordinates":[[104.6709589,28.8124572],[104.6717091,28.8112223],[104.6718714,28.810927],[104.6721277,28.810462],[104.6721371,28.8103227],[104.6721193,28.8101896],[104.6720591,28.8100499],[104.6718875,28.8098854],[104.6716302,28.8096938],[104.6704513,28.8090296]]},"properties":{"cls":"minor","highway":"service"}},{"type":"Feature","geometry":{"type":"LineString","coordinates":[[104.6667446,28.8096455],[104.6670485,28.8097506],[104.6673315,28.8098651],[104.6680091,28.8101769],[104.6688067,28.810536],[104.6692302,28.8106837],[104.6704241,28.81116]]},"properties":{"cls":"minor","highway":"service"}},{"type":"Feature","geometry":{"type":"LineString","coordinates":[[104.6692364,28.8058283],[104.6697557,28.8060525],[104.6702711,28.8062687],[104.6706282,28.8064214],[104.6714774,28.8067781]]},"properties":{"cls":"path","highway":"footway"}},{"type":"Feature","geometry":{"type":"LineString","coordinates":[[104.6702696,28.8148486],[104.6709326,28.8142795],[104.6714285,28.8138992],[104.6716994,28.8136568],[104.6721452,28.8132164],[104.6722543,28.8131046],[104.6725536,28.8126889],[104.6728389,28.8121687],[104.6732474,28.8112378],[104.6735424,28.8102725]]},"properties":{"cls":"major","highway":"secondary","name":"长翠路"}},{"type":"Feature","geometry":{"type":"LineString","coordinates":[[104.6688513,28.8065827],[104.6688446,28.8067057],[104.6688166,28.8068033],[104.6687784,28.8068852],[104.6686582,28.807057],[104.6685073,28.8072309],[104.6683923,28.8073356],[104.6683233,28.8073936],[104.6682543,28.8074403],[104.6681339,28.8075087],[104.6679567,28.8076533],[104.6677285,28.8077889],[104.6676375,28.8078458],[104.6674949,28.8079579],[104.6673983,28.808088],[104.6672482,28.8083406],[104.6671898,28.8084703],[104.6671569,28.8086],[104.6671417,28.8086905],[104.6671367,28.8087855],[104.6671402,28.8088804],[104.6671387,28.8089664],[104.6670999,28.8091339],[104.6670882,28.8092264],[104.6669869,28.8094042],[104.6669352,28.8094802],[104.6668488,28.8095662],[104.6667446,28.8096455],[104.6666217,28.8097345],[104.6665437,28.8097991],[104.6664759,28.8098683],[104.6663221,28.8100821],[104.6662069,28.8102668],[104.6661098,28.8104622],[104.6660766,28.8105579],[104.6660554,28.8106562],[104.6660148,28.8108795],[104.6659514,28.8110961],[104.6658779,28.8112408],[104.6658075,28.8113668],[104.6656712,28.8115259],[104.6655548,28.8116261],[104.6653904,28.8117542],[104.6650239,28.8122416],[104.6649201,28.8123111],[104.664805,28.8123683],[104.6646844,28.8123765],[104.6645463,28.812342],[104.6640152,28.8119321],[104.6632363,28.8112215],[104.6628974,28.8108904],[104.6628002,28.8107676],[104.6628023,28.8107394],[104.6629263,28.8106111],[104.6633363,28.8102051]]},"properties":{"cls":"minor","highway":"service"}},{"type":"Feature","geometry":{"type":"LineString","coordinates":[[104.6734913,28.8070906],[104.6737727,28.806653],[104.6739966,28.8062152],[104.6742159,28.8056271]]},"properties":{"cls":"minor","highway":"service"}},{"type":"Feature","geometry":{"type":"LineString","coordinates":[[104.6644591,28.8112595],[104.6646894,28.8110331],[104.6649768,28.8107613],[104.665069,28.810719],[104.6651386,28.8107138],[104.6652192,28.8107301],[104.6653157,28.8107685],[104.6656512,28.8109631],[104.6659514,28.8110961]]},"properties":{"cls":"minor","highway":"service"}},{"type":"Feature","geometry":{"type":"LineString","coordinates":[[104.6696415,28.8130247],[104.6708643,28.813584],[104.6710912,28.8136419],[104.6712875,28.8136142],[104.6714063,28.8134914],[104.671737,28.8130174],[104.6718135,28.8128448]]},"properties":{"cls":"minor","highway":"service"}},{"type":"Feature","geometry":{"type":"LineString","coordinates":[[104.6699885,28.8120208],[104.6704241,28.81116],[104.6708584,28.8104073]]},"properties":{"cls":"path","highway":"footway"}},{"type":"Feature","geometry":{"type":"LineString","coordinates":[[104.6702711,28.8062687],[104.6698254,28.8070452],[104.6692984,28.8079809],[104.6685702,28.8091875]]},"properties":{"cls":"path","highway":"footway"}},{"type":"Feature","geometry":{"type":"LineString","coordinates":[[104.6671569,28.8086],[104.6678625,28.808852],[104.6685702,28.8091875],[104.669387,28.8095278],[104.6698742,28.8097351],[104.6700305,28.8098235],[104.6701557,28.8098819],[104.6700292,28.8100762],[104.6708584,28.8104073]]},"properties":{"cls":"minor","highway":"service"}},{"type":"Feature","geometry":{"type":"LineString","coordinates":[[104.6706282,28.8064214],[104.670773,28.8061691],[104.6709082,28.8060137],[104.6710183,28.8057302],[104.6711884,28.805502],[104.6713697,28.8053115],[104.6714609,28.8052369]]},"properties":{"cls":"path","highway":"footway"}},{"type":"Feature","geometry":{"type":"LineString","coordinates":[[104.6697557,28.8060525],[104.6699796,28.8058229],[104.6703001,28.8053942],[104.6704951,28.8051535],[104.6705967,28.8048657]]},"properties":{"cls":"path","highway":"footway"}},{"type":"Feature","geometry":{"type":"LineString","coordinates":[[104.6699796,28.8058229],[104.670773,28.8061691]]},"properties":{"cls":"path","highway":"footway"}},{"type":"Feature","geometry":{"type":"LineString","coordinates":[[104.6703001,28.8053942],[104.6710183,28.8057302]]},"properties":{"cls":"path","highway":"footway"}},{"type":"Feature","geometry":{"type":"LineString","coordinates":[[104.6713762,28.8068907],[104.672048,28.8074136],[104.6722015,28.8074701],[104.6723824,28.8075382],[104.673088,28.8077959],[104.6731521,28.8078093],[104.6732234,28.8078241],[104.6739368,28.8081226]]},"properties":{"cls":"path","highway":"footway"}},{"type":"Feature","geometry":{"type":"LineString","coordinates":[[104.6717839,28.8082506],[104.6722015,28.8074701]]},"properties":{"cls":"path","highway":"footway"}},{"type":"Feature","geometry":{"type":"LineString","coordinates":[[104.6725559,28.8087828],[104.6731521,28.8078093]]},"properties":{"cls":"path","highway":"footway"}},{"type":"Feature","geometry":{"type":"LineString","coordinates":[[104.6723824,28.8075382],[104.672432,28.8073086],[104.6724445,28.8071935],[104.6724977,28.8071168],[104.6725852,28.807062],[104.6727851,28.8067783]]},"properties":{"cls":"path","highway":"footway"}},{"type":"Feature","geometry":{"type":"LineString","coordinates":[[104.668548,28.8035813],[104.6691603,28.8038552],[104.6691813,28.8038696],[104.6691897,28.8038874],[104.6691881,28.8039075],[104.66918,28.8039265],[104.6689651,28.8042441],[104.6693489,28.8044106],[104.6694458,28.8044288],[104.6695151,28.8044398],[104.669624,28.8044328],[104.6696883,28.8043922],[104.6697625,28.8043087],[104.670067,28.8037534]]},"properties":{"cls":"minor","highway":"service"}},{"type":"Feature","geometry":{"type":"LineString","coordinates":[[104.6688513,28.8065827],[104.6688542,28.8064556],[104.6688551,28.8063602],[104.6688449,28.8062731],[104.668851,28.8061869],[104.6688693,28.8061007],[104.6689924,28.8058352],[104.6691062,28.8055474]]},"properties":{"cls":"minor","highway":"service"}},{"type":"Feature","geometry":{"type":"LineString","coordinates":[[104.6681339,28.8075087],[104.6692984,28.8079809],[104.6704172,28.8085659]]},"properties":{"cls":"path","highway":"footway"}},{"type":"Feature","geometry":{"type":"LineString","coordinates":[[104.6694281,28.8117264],[104.6689383,28.8125306],[104.6688889,28.8126127],[104.668578,28.8132307]]},"properties":{"cls":"path","highway":"footway"}},{"type":"Feature","geometry":{"type":"LineString","coordinates":[[104.667704,28.8132387],[104.6683332,28.812885],[104.668834,28.8125917],[104.6689383,28.8125306]]},"properties":{"cls":"path","highway":"footway"}},{"type":"Feature","geometry":{"type":"LineString","coordinates":[[104.668834,28.8125917],[104.6688889,28.8126127],[104.6696883,28.8129409]]},"properties":{"cls":"path","highway":"footway"}},{"type":"Feature","geometry":{"type":"LineString","coordinates":[[104.6683332,28.812885],[104.668578,28.8132307],[104.6686823,28.8133832],[104.6692799,28.8136326]]},"properties":{"cls":"path","highway":"footway"}},{"type":"Feature","geometry":{"type":"LineString","coordinates":[[104.6632363,28.8112215],[104.6638816,28.8107129]]},"properties":{"cls":"path","highway":"footway"}},{"type":"Feature","geometry":{"type":"LineString","coordinates":[[104.6638559,28.8106852],[104.6641115,28.8104621],[104.6644234,28.810216],[104.6645849,28.8101648],[104.664992,28.8098478],[104.6651064,28.8097586],[104.6651363,28.8097353],[104.6652477,28.8096402],[104.6657043,28.8099379],[104.6658587,28.8097608]]},"properties":{"cls":"path","highway":"footway"}},{"type":"Feature","geometry":{"type":"LineString","coordinates":[[104.6641115,28.8104621],[104.6646894,28.8110331]]},"properties":{"cls":"path","highway":"footway"}},{"type":"Feature","geometry":{"type":"LineString","coordinates":[[104.6653157,28.8107685],[104.6654286,28.8105454],[104.6654704,28.8104527],[104.6654593,28.810377],[104.665437,28.8103014],[104.6654203,28.810216],[104.6652839,28.8100598],[104.665153,28.8099745],[104.664992,28.8098478],[104.6648467,28.8097183],[104.6648117,28.8096825],[104.664713,28.8095816],[104.6646573,28.8095255],[104.66461,28.8094255],[104.6645822,28.8093523],[104.6644545,28.8092264]]},"properties":{"cls":"path","highway":"footway"}},{"type":"Feature","geometry":{"type":"LineString","coordinates":[[104.6654286,28.8105454],[104.6656653,28.8106186],[104.6657099,28.8106088],[104.6657405,28.8105747],[104.6657767,28.8105527],[104.6660554,28.8106562]]},"properties":{"cls":"path","highway":"footway"}},{"type":"Feature","geometry":{"type":"LineString","coordinates":[[104.6656512,28.8109631],[104.6657349,28.8108211],[104.6657461,28.810721],[104.6657294,28.8106405],[104.6657099,28.8106088]]},"properties":{"cls":"path","highway":"footway"}},{"type":"Feature","geometry":{"type":"LineString","coordinates":[[104.6657405,28.8105747],[104.6657489,28.8104771],[104.6657294,28.8104112],[104.665721,28.8103477],[104.6657517,28.810299],[104.665799,28.8102526],[104.6658185,28.8102111],[104.6658296,28.810072],[104.6658157,28.8100062],[104.6657628,28.8099623],[104.6657043,28.8099379]]},"properties":{"cls":"path","highway":"footway"}},{"type":"Feature","geometry":{"type":"LineString","coordinates":[[104.6648117,28.8096825],[104.6648745,28.8096426],[104.6649609,28.8096402],[104.6649943,28.8096573],[104.6651064,28.8097586],[104.6653423,28.809972],[104.6654231,28.8098964],[104.6655679,28.8100525],[104.6657043,28.8099379]]},"properties":{"cls":"path","highway":"footway"}},{"type":"Feature","geometry":{"type":"LineString","coordinates":[[104.6652477,28.8096402],[104.6651892,28.8095719],[104.6651558,28.8094889],[104.6651307,28.8094352],[104.6650583,28.8093669],[104.6649469,28.8092718],[104.6648857,28.8091986],[104.6647523,28.8089756]]},"properties":{"cls":"path","highway":"footway"}},{"type":"Feature","geometry":{"type":"LineString","coordinates":[[104.6644589,28.8083734],[104.6645293,28.8081177],[104.6645822,28.8080396],[104.6646991,28.8079713],[104.6648773,28.8078835],[104.6652198,28.8083422],[104.6653757,28.8084056],[104.6654481,28.8084642],[104.6654788,28.8085398],[104.6654788,28.8086423],[104.665515,28.8087155],[104.6655818,28.8087936],[104.6657294,28.8088936],[104.6658157,28.8089692],[104.6658686,28.8090302],[104.6659859,28.8090745],[104.6660914,28.809101],[104.6662445,28.8091522],[104.6664784,28.8092815],[104.6668877,28.8085764],[104.6671569,28.8086]]},"properties":{"cls":"path","highway":"footway"}},{"type":"Feature","geometry":{"type":"LineString","coordinates":[[104.6673315,28.8098651],[104.6675647,28.8094285],[104.6678625,28.808852]]},"properties":{"cls":"path","highway":"footway"}},{"type":"Feature","geometry":{"type":"LineString","coordinates":[[104.6685151,28.811102],[104.6688067,28.810536],[104.6690037,28.8101703],[104.669387,28.8095278]]},"properties":{"cls":"path","highway":"footway"}},{"type":"Feature","geometry":{"type":"LineString","coordinates":[[104.6690037,28.8101703],[104.6694242,28.8103311]]},"properties":{"cls":"path","highway":"steps"}},{"type":"Feature","geometry":{"type":"LineString","coordinates":[[104.6670882,28.8092264],[104.6673596,28.8093447],[104.6675647,28.8094285]]},"properties":{"cls":"path","highway":"steps"}},{"type":"Feature","geometry":{"type":"LineString","coordinates":[[104.6669379,28.8124979],[104.6669053,28.8123704],[104.6668645,28.8122888],[104.6668154,28.8122158],[104.6667386,28.8121156],[104.6666684,28.8120683],[104.6665377,28.8120168],[104.6663775,28.8119624],[104.6662877,28.8119108],[104.6662092,28.8118135],[104.6661847,28.8117276],[104.666179,28.8116746],[104.6661831,28.811613],[104.6662092,28.8115314],[104.6662713,28.8114763],[104.6663612,28.8114455],[104.6664543,28.8114326],[104.6665671,28.8114369],[104.6666079,28.8114255],[104.666639,28.8114054],[104.6666733,28.8113682],[104.6666788,28.8113502],[104.6666864,28.8113253],[104.6667011,28.8112322],[104.6667239,28.8111749],[104.6667632,28.8111105],[104.6668089,28.8110504],[104.6668792,28.8109874],[104.6669478,28.8109215],[104.6670017,28.810827],[104.6670279,28.8107512],[104.6671867,28.8107515],[104.6673505,28.8107715],[104.6674143,28.8107909],[104.6674933,28.8108149],[104.6676434,28.8108562],[104.6678872,28.8109886],[104.6679953,28.8110757],[104.6681073,28.8111806],[104.6681275,28.8111954],[104.6682856,28.8112755],[104.6684037,28.8113272],[104.6684494,28.811384],[104.6684742,28.8114557],[104.6684761,28.8115625],[104.6684418,28.8117077],[104.6683485,28.8118495],[104.6683216,28.8118788],[104.6682932,28.8119096],[104.668198,28.8119814],[104.6680914,28.8120031],[104.6680171,28.8120031],[104.6679009,28.8120181],[104.6678133,28.8120448],[104.6676904,28.8121359]]},"properties":{"cls":"path","highway":"footway"}},{"type":"Feature","geometry":{"type":"LineString","coordinates":[[104.6666788,28.8113502],[104.6668153,28.8113963]]},"properties":{"cls":"path","highway":"footway","bridge":1}},{"type":"Feature","geometry":{"type":"LineString","coordinates":[[104.6668153,28.8113963],[104.6668502,28.8114026],[104.6668821,28.8113981],[104.6669335,28.8113837],[104.6669838,28.8113729],[104.6670496,28.8113702],[104.6671236,28.8113801],[104.6671781,28.8114116],[104.6672161,28.811436],[104.6672701,28.8114576],[104.6673241,28.8114792]]},"properties":{"cls":"path","highway":"footway"}},{"type":"Feature","geometry":{"type":"LineString","coordinates":[[104.6678293,28.8123097],[104.6676904,28.8121359],[104.6676228,28.8120548]]},"properties":{"cls":"path","highway":"steps"}},{"type":"Feature","geometry":{"type":"LineString","coordinates":[[104.6671023,28.8126105],[104.6673047,28.8124977],[104.6674115,28.8123824],[104.6674878,28.8122621],[104.6675125,28.8121451],[104.6675667,28.8120924],[104.6676228,28.8120548],[104.6677433,28.811978],[104.6678749,28.8119296],[104.6680236,28.8119229],[104.6681304,28.8119262],[104.6682582,28.8119079],[104.6683216,28.8118788]]},"properties":{"cls":"path","highway":"footway"}},{"type":"Feature","geometry":{"type":"LineString","coordinates":[[104.6686694,28.8118326],[104.6685404,28.8117458],[104.6685137,28.8117007],[104.668487,28.8116388],[104.6684761,28.8115625],[104.6685061,28.8114951],[104.6685595,28.8114317],[104.6686434,28.8113832],[104.6687628,28.8112907]]},"properties":{"cls":"path","highway":"footway"}},{"type":"Feature","geometry":{"type":"LineString","coordinates":[[104.6674143,28.8107909],[104.6674837,28.8105088]]},"properties":{"cls":"path","highway":"footway"}},{"type":"Feature","geometry":{"type":"LineString","coordinates":[[104.6676434,28.8108562],[104.6677567,28.8106144]]},"properties":{"cls":"path","highway":"footway"}},{"type":"Feature","geometry":{"type":"LineString","coordinates":[[104.6678872,28.8109886],[104.6680629,28.810774]]},"properties":{"cls":"path","highway":"footway"}},{"type":"Feature","geometry":{"type":"LineString","coordinates":[[104.6681073,28.8111806],[104.6683211,28.8109655]]},"properties":{"cls":"path","highway":"footway"}},{"type":"Feature","geometry":{"type":"LineString","coordinates":[[104.6677567,28.8106144],[104.6680091,28.8101769]]},"properties":{"cls":"path","highway":"footway"}},{"type":"Feature","geometry":{"type":"LineString","coordinates":[[104.6667239,28.8111749],[104.6667593,28.8110507]]},"properties":{"cls":"path","highway":"footway"}},{"type":"Feature","geometry":{"type":"LineString","coordinates":[[104.6667593,28.8110507],[104.6668337,28.8109488],[104.6668985,28.8108652],[104.66695,28.8107633],[104.6669881,28.8106396],[104.6670568,28.8103896]]},"properties":{"cls":"path","highway":"footway"}},{"type":"Feature","geometry":{"type":"LineString","coordinates":[[104.6721277,28.810462],[104.6722251,28.8104228],[104.672327,28.8104228],[104.6729681,28.8106484],[104.6730432,28.8107024],[104.673062,28.8108152],[104.6730459,28.8109069],[104.6727911,28.8114145],[104.672724,28.8114803],[104.6726462,28.8115015],[104.6725389,28.8114945],[104.6717091,28.8112223]]},"properties":{"cls":"minor","highway":"service"}},{"type":"Feature","geometry":{"type":"LineString","coordinates":[[104.6735424,28.8102725],[104.6707041,28.8082887]]},"properties":{"cls":"major","highway":"secondary","name":"大学路"}},{"type":"Feature","geometry":{"type":"LineString","coordinates":[[104.6708584,28.8104073],[104.6717128,28.8108223],[104.6718714,28.810927]]},"properties":{"cls":"minor","highway":"service"}}]}