{"type":"FeatureCollection","features":[{"type":"Feature","geometry":{"type":"Polygon","coordinates":[[[104.66665,28.811443],[104.6667218,28.8113586],[104.6667421,28.8113347],[104.6667842,28.81122],[104.6668446,28.8111372],[104.6669384,28.8110807],[104.6670229,28.8110066],[104.6671158,28.810831],[104.6672174,28.8107823],[104.6673689,28.8107966],[104.6676693,28.8108949],[104.6678725,28.8110232],[104.668026,28.8111555],[104.6681452,28.8113055],[104.6682521,28.811446],[104.6682663,28.8115829],[104.6682238,28.8116876],[104.6680999,28.8117812],[104.6679221,28.8118014],[104.6677134,28.8119136],[104.6675325,28.8120351],[104.6674136,28.8121626],[104.6673103,28.8122609],[104.6672355,28.812288],[104.6671104,28.8122453],[104.6670697,28.8121715],[104.6669737,28.8120628],[104.6667949,28.8119413],[104.6664735,28.8118533],[104.6663226,28.8117591],[104.6662692,28.8116898],[104.6662654,28.8115927],[104.6663323,28.8115133],[104.6664398,28.8114644],[104.6665377,28.8114671],[104.66665,28.811443]],[[104.6667552,28.8114195],[104.6667466,28.8115152],[104.6667843,28.8116282],[104.6668649,28.8117777],[104.6670029,28.8118814],[104.6671618,28.8119158],[104.6673732,28.8119016],[104.6675434,28.8118822],[104.6676476,28.8117757],[104.6676416,28.811669],[104.6675299,28.8115159],[104.6674313,28.8112948],[104.6672581,28.8111944],[104.6670791,28.8111671],[104.6669102,28.8112027],[104.6668248,28.811275],[104.6667552,28.8114195]]]},"properties":{"name":"醉泉湖"}}]}