{"type":"FeatureCollection","features":[{"type":"Feature","geometry":{"type":"Polygon","coordinates":[[[104.8231457,29.3815431],[104.8252398,29.3797023],[104.8259667,29.3790035],[104.8264977,29.3784939],[104.8266144,29.3784308],[104.8271602,29.3778676],[104.8274437,29.377831],[104.8280936,29.3782883],[104.8283055,29.3783958],[104.8290244,29.3788679],[104.8291719,29.3789182],[104.830674,29.3799017],[104.8310188,29.3801274],[104.8314635,29.3804186],[104.8330504,29.3814576],[104.8331469,29.3815814],[104.8339164,29.3820969],[104.8339623,29.3823235],[104.8338691,29.3824396],[104.8337719,29.3825607],[104.8336753,29.3827594],[104.8336384,29.3828365],[104.8336109,29.3829417],[104.8336056,29.3831146],[104.8336029,29.3836218],[104.8335975,29.3841944],[104.8336163,29.3843305],[104.8336512,29.3844503],[104.8336954,29.3845324],[104.8337049,29.3845537],[104.8337541,29.3846276],[104.8333552,29.3847966],[104.8332417,29.3848359],[104.8330808,29.3848674],[104.8329027,29.3848784],[104.8327227,29.3848637],[104.8325515,29.3848196],[104.8324165,29.3847709],[104.8322827,29.3846966],[104.8307319,29.3865147],[104.830667,29.3865835],[104.8296924,29.3861207],[104.8294293,29.3860318],[104.8291937,29.3859059],[104.8283232,29.3854454],[104.8274526,29.3849773],[104.826841,29.3846244],[104.8262504,29.3842405],[104.8257539,29.383906],[104.8256769,29.3838392],[104.8251674,29.3834582],[104.824816,29.3831894],[104.8244714,29.3829206],[104.8231557,29.3818222],[104.8231457,29.3815431]]]},"properties":{"name":"四川轻化工大学本部","is_suse":1}}]}