{"type":"FeatureCollection","features":[{"type":"Feature","geometry":{"type":"Polygon","coordinates":[[[104.8270382,29.3845169],[104.8271804,29.3843451],[104.8272139,29.3843685],[104.8272246,29.3843334],[104.8272461,29.3843019],[104.8273131,29.3842481],[104.8273587,29.3842224],[104.827399,29.3841769],[104.8274378,29.3841091],[104.8274647,29.3840284],[104.8275103,29.3839653],[104.8275653,29.3839139],[104.8276189,29.3838777],[104.827702,29.3838719],[104.8277771,29.3838648],[104.8278388,29.3838859],[104.8278978,29.3839116],[104.8279327,29.3839513],[104.8279595,29.3839922],[104.8279703,29.3840331],[104.8279756,29.3840845],[104.8279783,29.3841196],[104.8280132,29.3841547],[104.82804,29.384171],[104.8280762,29.3841815],[104.8281097,29.3841827],[104.8281406,29.3841804],[104.8281956,29.3841687],[104.8282613,29.3841757],[104.8283216,29.3842084],[104.8283404,29.3842294],[104.8283699,29.3842949],[104.8283927,29.3843276],[104.8284383,29.3843521],[104.8284839,29.384358],[104.8285148,29.3843603],[104.8285496,29.3843638],[104.8285992,29.3843872],[104.8286287,29.3844223],[104.8286569,29.3844994],[104.8286435,29.384566],[104.8286153,29.3845999],[104.8285738,29.3846419],[104.8285295,29.3846793],[104.8284557,29.3847121],[104.8283967,29.3847506],[104.8283471,29.3847892],[104.8283096,29.3848289],[104.8282599,29.3849224],[104.8283377,29.3849832],[104.8281567,29.3851865],[104.8280219,29.3851035],[104.8279897,29.3851398],[104.8275754,29.3848685],[104.8274055,29.3847574],[104.8270382,29.3845169]],[[104.8279273,29.3846151],[104.8278911,29.3846618],[104.8278804,29.3846957],[104.8279046,29.3847518],[104.8279662,29.3848137],[104.8280574,29.3848651],[104.8281258,29.3848757],[104.8281634,29.3848698],[104.8282197,29.3848219],[104.8282693,29.3847565],[104.8283136,29.3846688],[104.8283833,29.3845929],[104.8284812,29.3844889],[104.828213,29.3843183],[104.8280749,29.3844935],[104.8280373,29.3845379],[104.8280051,29.384552],[104.827981,29.384566],[104.8279434,29.3845917],[104.8279273,29.3846151]],[[104.8276363,29.3845216],[104.8278013,29.3846268],[104.8279247,29.3845111],[104.8279676,29.3844351],[104.8279609,29.3843697],[104.8279367,29.3843311],[104.8279126,29.3843136],[104.8278697,29.3842996],[104.8278294,29.3843019],[104.8277973,29.3843077],[104.8277745,29.3843253],[104.8277315,29.3843521],[104.8276994,29.3844001],[104.8276578,29.384455],[104.8276363,29.3845216]]]},"properties":{"osm_id":"relation/11041594","campus":"suse","kind":"other","levels":4,"height_m":13.6}},{"type":"Feature","geometry":{"type":"Polygon","coordinates":[[[104.8289359,29.3834956],[104.8292363,29.3831403],[104.8298424,29.3835376],[104.8295883,29.3838273],[104.8295286,29.3838952],[104.8289359,29.3834956]],[[104.8291296,29.3834798],[104.8294146,29.3836685],[104.8295541,29.383519],[104.8292617,29.383325],[104.8291296,29.3834798]]]},"properties":{"osm_id":"relation/11041596","campus":"suse","kind":"other","levels":4,"height_m":13.6}},{"type":"Feature","geometry":{"type":"Polygon","coordinates":[[[104.8285563,29.383935],[104.8289359,29.3834956],[104.8295286,29.3838952],[104.8294079,29.3840331],[104.8291478,29.3843299],[104.8285563,29.383935]],[[104.8288621,29.3838648],[104.8291853,29.3840705],[104.8293248,29.3839093],[104.8289962,29.3836942],[104.8288621,29.3838648]]]},"properties":{"osm_id":"relation/11041597","name":"1#公共实验楼","campus":"suse","kind":"lab","levels":4,"height_m":16}},{"type":"Feature","geometry":{"type":"Polygon","coordinates":[[[104.8296201,29.3822315],[104.8299808,29.3818062],[104.830027,29.3818383],[104.8301291,29.3817197],[104.8306299,29.382047],[104.8301648,29.3825874],[104.8296201,29.3822315]],[[104.8298438,29.3821879],[104.8300248,29.3823083],[104.8300678,29.3822569],[104.8300932,29.382202],[104.8300838,29.3821529],[104.8300195,29.3821143],[104.829943,29.3820734],[104.8298438,29.3821879]]]},"properties":{"osm_id":"relation/11041598","campus":"suse","kind":"other","levels":5,"height_m":17}},{"type":"Feature","geometry":{"type":"Polygon","coordinates":[[[104.8285499,29.3806908],[104.8285796,29.3806553],[104.828669,29.3805484],[104.8287615,29.3805636],[104.828772,29.3805732],[104.8288609,29.3806547],[104.8289412,29.3807283],[104.829015,29.3807359],[104.8290299,29.3806295],[104.8290311,29.3806208],[104.8289855,29.380594],[104.828924,29.3805362],[104.828916,29.3805287],[104.8287468,29.3803696],[104.8289117,29.3802562],[104.829129,29.3804572],[104.8296091,29.3807681],[104.8292819,29.3811514],[104.8285499,29.3806908]],[[104.8289935,29.3808043],[104.8291893,29.380927],[104.8292765,29.38083],[104.829082,29.3806991],[104.8290626,29.3807175],[104.8290488,29.3807996],[104.8289979,29.3807917],[104.8289935,29.3808043]]]},"properties":{"osm_id":"relation/11041599","campus":"suse","kind":"other","levels":3,"height_m":10.2}},{"type":"Feature","geometry":{"type":"Polygon","coordinates":[[[104.8280695,29.3812636],[104.8281661,29.381093],[104.8284209,29.3812051],[104.8284316,29.3811925],[104.828486,29.3811285],[104.8286274,29.3809621],[104.8283699,29.3808055],[104.8284906,29.3806536],[104.8285499,29.3806908],[104.8292819,29.3811514],[104.8289466,29.38153],[104.8288903,29.3814879],[104.8287454,29.3816656],[104.8282868,29.3813524],[104.8280695,29.3812636]],[[104.8285795,29.3811906],[104.8288561,29.381371],[104.8289961,29.381208],[104.8287195,29.3810276],[104.8285795,29.3811906]]]},"properties":{"osm_id":"relation/11041600","name":"美术学院","campus":"suse","kind":"teaching","levels":5,"height_m":20}},{"type":"Feature","geometry":{"type":"Polygon","coordinates":[[[104.8267432,29.3812355],[104.8270811,29.3808347],[104.8272028,29.3809142],[104.8272912,29.3809719],[104.8274816,29.3810962],[104.8276162,29.3811841],[104.8273212,29.3815253],[104.8272783,29.3815429],[104.8272488,29.3815429],[104.8272273,29.3815277],[104.8267432,29.3812355]],[[104.826892,29.3811946],[104.827238,29.381419],[104.8274378,29.3811935],[104.8270865,29.3809679],[104.826892,29.3811946]]]},"properties":{"osm_id":"relation/11041601","campus":"suse","kind":"other","levels":6,"height_m":20.4}},{"type":"Feature","geometry":{"type":"Polygon","coordinates":[[[104.8255897,29.3811826],[104.8259345,29.3807915],[104.826082,29.3808884],[104.8257398,29.3812801],[104.8255897,29.3811826]]]},"properties":{"osm_id":"way/797032776","name":"B区学生街","campus":"suse","kind":"dormitory","levels":6,"height_m":19.8}},{"type":"Feature","geometry":{"type":"Polygon","coordinates":[[[104.8310387,29.384989],[104.831091,29.3849341],[104.8311896,29.3849802],[104.831205,29.3849639],[104.8312868,29.3850235],[104.8312707,29.3850422],[104.8313616,29.3850822],[104.8313448,29.385112],[104.8314243,29.3851602],[104.8314511,29.3851307],[104.8315339,29.3851885],[104.8315229,29.385202],[104.8316462,29.3852566],[104.8315939,29.3853524],[104.8310387,29.384989]]]},"properties":{"osm_id":"way/797032785","name":"A区学生街","campus":"suse","kind":"dormitory","levels":6,"height_m":19.8}},{"type":"Feature","geometry":{"type":"Polygon","coordinates":[[[104.8318591,29.3850711],[104.8316983,29.3849646],[104.8320158,29.3846006],[104.8321766,29.384707],[104.8318591,29.3850711]]]},"properties":{"osm_id":"way/797032786","name":"后勤服务用房","campus":"suse","kind":"other","levels":6,"height_m":20.4}},{"type":"Feature","geometry":{"type":"Polygon","coordinates":[[[104.8316311,29.3850417],[104.8316983,29.3849646],[104.8318591,29.3850711],[104.831792,29.3851482],[104.8316311,29.3850417]]]},"properties":{"osm_id":"way/797032787","campus":"suse","kind":"other","levels":4,"height_m":13.6}},{"type":"Feature","geometry":{"type":"Polygon","coordinates":[[[104.830943,29.3845884],[104.8312981,29.3841793],[104.831764,29.3844864],[104.831409,29.3848954],[104.830943,29.3845884]]]},"properties":{"osm_id":"way/797032788","name":"A区食堂","campus":"suse","kind":"canteen","levels":3,"height_m":13.5}},{"type":"Feature","geometry":{"type":"Polygon","coordinates":[[[104.8308272,29.385251],[104.8310258,29.3850196],[104.8315626,29.3853695],[104.8314391,29.3855135],[104.8309927,29.3852226],[104.8309177,29.3853099],[104.8308272,29.385251]]]},"properties":{"osm_id":"way/797032789","campus":"suse","kind":"other","levels":6,"height_m":20.4}},{"type":"Feature","geometry":{"type":"Polygon","coordinates":[[[104.8307384,29.3853545],[104.8308272,29.385251],[104.8309177,29.3853099],[104.8308289,29.3854134],[104.8307384,29.3853545]]]},"properties":{"osm_id":"way/797032790","campus":"suse","kind":"other","levels":1,"height_m":3.4}},{"type":"Feature","geometry":{"type":"Polygon","coordinates":[[[104.8306156,29.3854975],[104.8307384,29.3853545],[104.8308289,29.3854134],[104.8311871,29.3856469],[104.831276,29.3855432],[104.8313692,29.385604],[104.8311575,29.3858507],[104.8306156,29.3854975]]]},"properties":{"osm_id":"way/797032791","name":"A区学生宿舍楼=2#楼","campus":"suse","kind":"dormitory","levels":6,"height_m":19.8}},{"type":"Feature","geometry":{"type":"Polygon","coordinates":[[[104.8302113,29.3859659],[104.8303221,29.3858268],[104.8308711,29.3861728],[104.8307477,29.3863153],[104.8302113,29.3859659]]]},"properties":{"osm_id":"way/797032793","name":"A区学生宿舍楼=2#楼","campus":"suse","kind":"dormitory","levels":12,"height_m":39.6}},{"type":"Feature","geometry":{"type":"Polygon","coordinates":[[[104.8299855,29.3850154],[104.8301867,29.3847843],[104.8307224,29.3851384],[104.8306033,29.3852752],[104.8301595,29.3849819],[104.8300774,29.3850762],[104.8299855,29.3850154]]]},"properties":{"osm_id":"way/797032794","campus":"suse","kind":"other","levels":4,"height_m":13.6}},{"type":"Feature","geometry":{"type":"Polygon","coordinates":[[[104.82988,29.385094],[104.829962,29.3849999],[104.8299855,29.3850154],[104.8299035,29.3851095],[104.82988,29.385094]]]},"properties":{"osm_id":"way/797032795","campus":"suse","kind":"other","levels":4,"height_m":13.6}},{"type":"Feature","geometry":{"type":"Polygon","coordinates":[[[104.8298946,29.3851173],[104.8299035,29.3851095],[104.8299855,29.3850154],[104.8300774,29.3850762],[104.829984,29.3851759],[104.8298946,29.3851173]]]},"properties":{"osm_id":"way/797032796","campus":"suse","kind":"other","levels":4,"height_m":13.6}},{"type":"Feature","geometry":{"type":"Polygon","coordinates":[[[104.8297752,29.3852558],[104.8298946,29.3851173],[104.829984,29.3851759],[104.8303452,29.3854123],[104.8304382,29.3853045],[104.8305313,29.3853655],[104.830319,29.3856117],[104.8297752,29.3852558]]]},"properties":{"osm_id":"way/797032797","name":"A区学生宿舍楼=2#楼","campus":"suse","kind":"dormitory","levels":6,"height_m":19.8}},{"type":"Feature","geometry":{"type":"Polygon","coordinates":[[[104.8300753,29.3857808],[104.8301374,29.3857077],[104.8303221,29.3858268],[104.8302443,29.3859185],[104.8301175,29.3858367],[104.8301332,29.3858181],[104.8300753,29.3857808]]]},"properties":{"osm_id":"way/797032798","campus":"suse","kind":"other","levels":4,"height_m":13.6}},{"type":"Feature","geometry":{"type":"Polygon","coordinates":[[[104.8294787,29.3856104],[104.8295964,29.3854719],[104.8300753,29.3857808],[104.8301332,29.3858181],[104.8301175,29.3858367],[104.8300155,29.3859567],[104.8294787,29.3856104]]]},"properties":{"osm_id":"way/797032799","name":"A区学生宿舍楼=2#楼","campus":"suse","kind":"dormitory","levels":6,"height_m":19.8}},{"type":"Feature","geometry":{"type":"Polygon","coordinates":[[[104.8289392,29.3850296],[104.8291438,29.3847925],[104.8296753,29.3851407],[104.8295512,29.3852846],[104.829256,29.3850913],[104.8292669,29.3850786],[104.8291831,29.3850237],[104.8291605,29.38505],[104.8290991,29.3850098],[104.8290304,29.3850894],[104.8289392,29.3850296]]]},"properties":{"osm_id":"way/797032800","campus":"suse","kind":"other","levels":6,"height_m":20.4}},{"type":"Feature","geometry":{"type":"Polygon","coordinates":[[[104.8288408,29.3851398],[104.8289392,29.3850296],[104.8290304,29.3850894],[104.8289313,29.3851998],[104.8288408,29.3851398]]]},"properties":{"osm_id":"way/797032801","campus":"suse","kind":"other","levels":4,"height_m":13.6}},{"type":"Feature","geometry":{"type":"Polygon","coordinates":[[[104.828838,29.3851053],[104.8289131,29.385013],[104.8289392,29.3850296],[104.8288581,29.3851205],[104.828838,29.3851053]]]},"properties":{"osm_id":"way/797032802","campus":"suse","kind":"other","levels":4,"height_m":13.6}},{"type":"Feature","geometry":{"type":"Polygon","coordinates":[[[104.8287147,29.3852843],[104.8288408,29.3851398],[104.8289313,29.3851998],[104.8293735,29.3854926],[104.8292474,29.3856371],[104.8287147,29.3852843]]]},"properties":{"osm_id":"way/797032803","name":"A区学生宿舍-1#楼","campus":"suse","kind":"dormitory","levels":12,"height_m":39.6}},{"type":"Feature","geometry":{"type":"Polygon","coordinates":[[[104.8258004,29.3837176],[104.8259224,29.3835762],[104.8263314,29.383859],[104.8262054,29.3839957],[104.8261284,29.3839393],[104.825876,29.3837731],[104.8258004,29.3837176]]]},"properties":{"osm_id":"way/797032805","name":"实训用房","campus":"suse","kind":"factory","levels":1,"height_m":9}},{"type":"Feature","geometry":{"type":"Polygon","coordinates":[[[104.8304392,29.3799571],[104.8304795,29.3799103],[104.8306484,29.3800214],[104.8308951,29.3801836],[104.8310642,29.3802948],[104.8310213,29.3803415],[104.8308533,29.3802306],[104.8306058,29.3800671],[104.8304392,29.3799571]]]},"properties":{"osm_id":"way/797032806","name":"主校门(南门)","campus":"suse","kind":"other","levels":4,"height_m":13.6}},{"type":"Feature","geometry":{"type":"Polygon","coordinates":[[[104.8321424,29.3821353],[104.8324925,29.3817707],[104.8325917,29.3817754],[104.8328063,29.3818198],[104.8329806,29.3818829],[104.8331174,29.3819554],[104.8332556,29.3820454],[104.8333494,29.3821213],[104.8334554,29.3822522],[104.8334956,29.3823831],[104.8334956,29.3825233],[104.8334581,29.3826215],[104.833391,29.3827173],[104.8333186,29.3827734],[104.8331737,29.3828318],[104.8330075,29.3828412],[104.8328894,29.3828178],[104.8327473,29.3827804],[104.8326051,29.3826822],[104.8324844,29.3825981],[104.8323852,29.3825093],[104.8323074,29.3824216],[104.832231,29.3823165],[104.8321746,29.382216],[104.8321424,29.3821353]]]},"properties":{"osm_id":"way/797032809","name":"综合体院馆（含游泳馆）","campus":"suse","kind":"gym","levels":2,"height_m":13}},{"type":"Feature","geometry":{"type":"Polygon","coordinates":[[[104.8273064,29.3828388],[104.8275881,29.3825035],[104.8278496,29.3826717],[104.8277807,29.3827509],[104.827649,29.3829023],[104.8275819,29.3829794],[104.8275599,29.3830048],[104.8273064,29.3828388]]]},"properties":{"osm_id":"way/797032810","name":"图书馆(含综合楼)","campus":"suse","kind":"library","levels":2,"height_m":10}},{"type":"Feature","geometry":{"type":"Polygon","coordinates":[[[104.8276886,29.3830936],[104.8277098,29.3830688],[104.8277783,29.3829886],[104.8279094,29.382835],[104.8280352,29.3826876],[104.8280548,29.3826647],[104.8286878,29.3830772],[104.8286663,29.3831024],[104.828327,29.3835003],[104.8282652,29.3834641],[104.8278714,29.3832068],[104.8276886,29.3830936]]]},"properties":{"osm_id":"way/797032811","name":"图书馆(含综合楼)","campus":"suse","kind":"library","levels":11,"height_m":55}},{"type":"Feature","geometry":{"type":"Polygon","coordinates":[[[104.8280266,29.3830924],[104.8281111,29.3829826],[104.8283216,29.3831099],[104.8282264,29.3832128],[104.8280266,29.3830924]]]},"properties":{"osm_id":"way/797032812","name":"图书馆(含综合楼)","campus":"suse","kind":"library","levels":11,"height_m":55}},{"type":"Feature","geometry":{"type":"Polygon","coordinates":[[[104.8298894,29.3820419],[104.8299524,29.3819682],[104.8300036,29.3820014],[104.829943,29.3820734],[104.8298894,29.3820419]]]},"properties":{"osm_id":"way/797032813","campus":"suse","kind":"other","levels":2,"height_m":6.8}},{"type":"Feature","geometry":{"type":"Polygon","coordinates":[[[104.8302193,29.3843428],[104.8298585,29.3840997],[104.8300691,29.3838532],[104.830108,29.3838794],[104.8299578,29.3840553],[104.8302837,29.3842703],[104.8302193,29.3843428]]]},"properties":{"osm_id":"way/797032819","campus":"suse","kind":"other","levels":2,"height_m":6.8}},{"type":"Feature","geometry":{"type":"Polygon","coordinates":[[[104.8301268,29.3844421],[104.8296627,29.384136],[104.8298023,29.3839692],[104.8300463,29.3836779],[104.8305184,29.3839992],[104.8304325,29.3840986],[104.830108,29.3838794],[104.8300691,29.3838532],[104.8298585,29.3840997],[104.8302193,29.3843428],[104.8301268,29.3844421]]]},"properties":{"osm_id":"way/797032820","name":"2#公共实验楼","campus":"suse","kind":"lab","levels":4,"height_m":16}},{"type":"Feature","geometry":{"type":"Polygon","coordinates":[[[104.8302716,29.3834372],[104.8306525,29.3829978],[104.8311406,29.3833156],[104.8307517,29.3837597],[104.8302716,29.3834372]]]},"properties":{"osm_id":"way/797032821","name":"3#公共教学楼","campus":"suse","kind":"teaching","levels":5,"height_m":20}},{"type":"Feature","geometry":{"type":"Polygon","coordinates":[[[104.8311822,29.3823235],[104.8311822,29.382209],[104.8314987,29.3822136],[104.8314974,29.3819367],[104.8312801,29.3818619],[104.831256,29.3819168],[104.8311608,29.3818876],[104.8311809,29.3818362],[104.8310991,29.3818105],[104.831146,29.381696],[104.831669,29.3818712],[104.8316325,29.3819577],[104.8316221,29.381953],[104.831612,29.3819773],[104.8316288,29.3819767],[104.8316301,29.3823317],[104.8311822,29.3823235]]]},"properties":{"osm_id":"way/797032822","name":"2#公共教学楼","campus":"suse","kind":"teaching","levels":3,"height_m":12}},{"type":"Feature","geometry":{"type":"Polygon","coordinates":[[[104.8299146,29.3817628],[104.8303547,29.3812519],[104.83069,29.3814739],[104.8310092,29.3816328],[104.8308966,29.3818222],[104.8305666,29.3816515],[104.8303226,29.3814903],[104.8301291,29.3817197],[104.8300865,29.3816889],[104.8299808,29.3818062],[104.8299146,29.3817628]]]},"properties":{"osm_id":"way/797032824","campus":"suse","kind":"other","levels":5,"height_m":17}},{"type":"Feature","geometry":{"type":"Polygon","coordinates":[[[104.8297054,29.3820049],[104.8299146,29.3817628],[104.8299808,29.3818062],[104.8297715,29.3820483],[104.8297054,29.3820049]]]},"properties":{"osm_id":"way/797032825","name":"1#公共教学楼","campus":"suse","kind":"teaching","levels":4,"height_m":16}},{"type":"Feature","geometry":{"type":"Polygon","coordinates":[[[104.8284276,29.3812157],[104.8284417,29.3811993],[104.8284316,29.3811925],[104.828486,29.3811285],[104.8285795,29.3811906],[104.8288272,29.38135],[104.8287548,29.3814307],[104.8284276,29.3812157]]]},"properties":{"osm_id":"way/797032829","campus":"suse","kind":"other","levels":3,"height_m":10.2}},{"type":"Feature","geometry":{"type":"Polygon","coordinates":[[[104.8272028,29.3809142],[104.8274041,29.3806812],[104.8274908,29.3807389],[104.8272912,29.3809719],[104.8272028,29.3809142]]]},"properties":{"osm_id":"way/797032831","campus":"suse","kind":"other","levels":2,"height_m":6.8}},{"type":"Feature","geometry":{"type":"Polygon","coordinates":[[[104.8270811,29.3808347],[104.827289,29.3806045],[104.8274041,29.3806812],[104.8272028,29.3809142],[104.8270811,29.3808347]]]},"properties":{"osm_id":"way/797032832","campus":"suse","kind":"other","levels":2,"height_m":6.8}},{"type":"Feature","geometry":{"type":"Polygon","coordinates":[[[104.827289,29.3806045],[104.8274124,29.3804561],[104.8278898,29.3807891],[104.8278965,29.38083],[104.8278818,29.3808721],[104.8276162,29.3811841],[104.8274816,29.3810962],[104.8276819,29.3808662],[104.8274908,29.3807389],[104.8274041,29.3806812],[104.827289,29.3806045]]]},"properties":{"osm_id":"way/797032833","name":"音乐学院","campus":"suse","kind":"teaching","levels":5,"height_m":20}},{"type":"Feature","geometry":{"type":"Polygon","coordinates":[[[104.8282703,29.3804715],[104.828209,29.3802854],[104.8282157,29.3801893],[104.8282278,29.3801873],[104.8282827,29.3801698],[104.828335,29.3801849],[104.8283847,29.3802083],[104.8284504,29.3802095],[104.8285,29.3801966],[104.8285456,29.3801698],[104.8285764,29.3801218],[104.8285885,29.3800704],[104.8285885,29.3800307],[104.8285697,29.3799945],[104.8285456,29.3799652],[104.8285174,29.3799442],[104.8284625,29.3799267],[104.8284289,29.3799243],[104.8283914,29.3799278],[104.8283645,29.3799372],[104.8283337,29.3799547],[104.8283176,29.3799711],[104.8283069,29.3799933],[104.8282827,29.3800213],[104.8282532,29.3800412],[104.8282103,29.3800611],[104.8281728,29.3800576],[104.8280212,29.3800061],[104.8279877,29.379894],[104.828437,29.3797748],[104.8285013,29.3797677],[104.8288125,29.3801464],[104.8285174,29.3803287],[104.8285496,29.3804152],[104.8285431,29.3804165],[104.8282703,29.3804715]]]},"properties":{"osm_id":"way/797032837","name":"中国彩灯艺术馆","campus":"suse","kind":"hall","levels":3,"height_m":13.5}},{"type":"Feature","geometry":{"type":"Polygon","coordinates":[[[104.8281178,29.3790409],[104.8284209,29.3786868],[104.8289627,29.379049],[104.8290244,29.3792267],[104.8285778,29.3793447],[104.8281178,29.3790409]]]},"properties":{"osm_id":"way/797032838","name":"商业区","campus":"suse","kind":"other","levels":4,"height_m":13.6}},{"type":"Feature","geometry":{"type":"Polygon","coordinates":[[[104.8264615,29.3798086],[104.8266714,29.3795586],[104.8267204,29.3795884],[104.8267371,29.3796071],[104.8267445,29.3796252],[104.8267371,29.3796462],[104.826546,29.379863],[104.8264615,29.3798086]]]},"properties":{"osm_id":"way/797032842","campus":"suse","kind":"other","levels":4,"height_m":13.6}},{"type":"Feature","geometry":{"type":"Polygon","coordinates":[[[104.8260498,29.3795375],[104.8260522,29.3795317],[104.8260542,29.3795261],[104.8262865,29.379305],[104.8266714,29.3795586],[104.8264615,29.3798086],[104.8260498,29.3795375]]]},"properties":{"osm_id":"way/797032843","name":"风雨操场","campus":"suse","kind":"gym","levels":2,"height_m":13}},{"type":"Feature","geometry":{"type":"Polygon","coordinates":[[[104.8253877,29.3809646],[104.825486,29.3808576],[104.8255832,29.3809226],[104.8254906,29.3810316],[104.8253877,29.3809646]]]},"properties":{"osm_id":"way/797032846","campus":"suse","kind":"other","levels":1,"height_m":3.4}},{"type":"Feature","geometry":{"type":"Polygon","coordinates":[[[104.8254073,29.3801748],[104.8256568,29.3798874],[104.8261839,29.3802347],[104.8260594,29.3803782],[104.8256292,29.3800947],[104.8255042,29.3802387],[104.8254073,29.3801748]]]},"properties":{"osm_id":"way/797032848","campus":"suse","kind":"other","levels":12,"height_m":40.8}},{"type":"Feature","geometry":{"type":"Polygon","coordinates":[[[104.825486,29.3808576],[104.8256116,29.3807151],[104.8251863,29.3804304],[104.8253124,29.3802873],[104.825835,29.380637],[104.8255832,29.3809226],[104.825486,29.3808576]]]},"properties":{"osm_id":"way/797032849","name":"B区学生宿舍-1号楼","campus":"suse","kind":"dormitory","levels":12,"height_m":39.6}},{"type":"Feature","geometry":{"type":"Polygon","coordinates":[[[104.8248388,29.38083],[104.8249622,29.3806874],[104.8253877,29.3809646],[104.8254906,29.3810316],[104.8253658,29.3811777],[104.8248388,29.38083]]]},"properties":{"osm_id":"way/797032850","campus":"suse","kind":"other","levels":12,"height_m":40.8}},{"type":"Feature","geometry":{"type":"Polygon","coordinates":[[[104.8271186,29.3803764],[104.8266884,29.380091],[104.8265912,29.3802023],[104.8264919,29.3801364],[104.8265493,29.3800708],[104.8267059,29.3798914],[104.8272355,29.3802426],[104.8271186,29.3803764]]]},"properties":{"osm_id":"way/797032851","campus":"suse","kind":"other","levels":7,"height_m":23.8}},{"type":"Feature","geometry":{"type":"Polygon","coordinates":[[[104.8261012,29.3805838],[104.8262878,29.3803713],[104.8263876,29.3804378],[104.826201,29.3806503],[104.8261012,29.3805838]]]},"properties":{"osm_id":"way/797032852","campus":"suse","kind":"other","levels":1,"height_m":3.4}},{"type":"Feature","geometry":{"type":"Polygon","coordinates":[[[104.8323912,29.3843743],[104.8323879,29.3841815],[104.8323912,29.3834786],[104.8323946,29.383429],[104.8324117,29.3833539],[104.8324301,29.3833031],[104.8324465,29.3832578],[104.8324663,29.3832654],[104.8324858,29.3832315],[104.8325099,29.3831923],[104.8325501,29.3831491],[104.8326205,29.3830866],[104.83264,29.3831047],[104.8328586,29.3830065],[104.832864,29.383034],[104.8328096,29.3830468],[104.8327547,29.383069],[104.8326916,29.3831],[104.8326474,29.3831275],[104.8325924,29.3831736],[104.8325454,29.3832321],[104.832522,29.3832677],[104.8324985,29.383308],[104.8324757,29.3833717],[104.8324636,29.3834149],[104.8324576,29.3835014],[104.8324549,29.3843743],[104.8323912,29.3843743]]]},"properties":{"osm_id":"way/797032887","campus":"suse","kind":"other","levels":4,"height_m":13.6}},{"type":"Feature","geometry":{"type":"Polygon","coordinates":[[[104.8264694,29.3791782],[104.827383,29.3781279],[104.8274094,29.3781454],[104.8264958,29.3791956],[104.8264694,29.3791782]]]},"properties":{"osm_id":"way/797032893","campus":"suse","kind":"other","levels":4,"height_m":13.6}},{"type":"Feature","geometry":{"type":"Polygon","coordinates":[[[104.8269536,29.3803718],[104.8270567,29.3804399],[104.826814,29.380719],[104.8263876,29.3804378],[104.8262878,29.3803713],[104.8262863,29.3803706],[104.8264055,29.3802336],[104.8268301,29.3805139],[104.8269536,29.3803718]]]},"properties":{"osm_id":"way/797032905","name":"B区学生宿舍-2号楼","campus":"suse","kind":"dormitory","levels":6,"height_m":19.8}},{"type":"Feature","geometry":{"type":"Polygon","coordinates":[[[104.823593,29.3817078],[104.8239035,29.3814311],[104.824869,29.3822539],[104.8248335,29.3822856],[104.8248512,29.3823007],[104.8248403,29.3823104],[104.8248921,29.3823545],[104.824628,29.3825898],[104.823593,29.3817078]]]},"properties":{"osm_id":"way/797032906","name":"室内网球场","campus":"suse","kind":"other","levels":4,"height_m":13.6}},{"type":"Feature","geometry":{"type":"Polygon","coordinates":[[[104.8259761,29.3807258],[104.8261012,29.3805838],[104.826201,29.3806503],[104.8266372,29.3809331],[104.8265148,29.381076],[104.8259761,29.3807258]]]},"properties":{"osm_id":"way/797032907","campus":"suse","kind":"other","levels":7,"height_m":23.8}},{"type":"Feature","geometry":{"type":"Polygon","coordinates":[[[104.825663,29.3819686],[104.8251836,29.381657],[104.8255897,29.3811826],[104.8257398,29.3812801],[104.8258693,29.3813643],[104.8259985,29.3814482],[104.8260691,29.3814942],[104.825663,29.3819686]]]},"properties":{"osm_id":"way/797032910","name":"B区食堂","campus":"suse","kind":"canteen","levels":2,"height_m":9}},{"type":"Feature","geometry":{"type":"Polygon","coordinates":[[[104.825394,29.3834769],[104.825453,29.3834138],[104.8255903,29.3834639],[104.8255358,29.383527],[104.8254733,29.3834892],[104.8254481,29.3835155],[104.825394,29.3834769]]]},"properties":{"osm_id":"way/892517357","name":"危化品用房","campus":"suse","kind":"other","levels":4,"height_m":13.6}}]}