{"type":"FeatureCollection","features":[{"type":"Feature","geometry":{"type":"Polygon","coordinates":[[[104.8237163,29.3796567],[104.8238182,29.3796252],[104.8238987,29.3795551],[104.8239389,29.3794686],[104.8239818,29.3793611],[104.824018,29.379312],[104.8240878,29.3792606],[104.8241602,29.3792021],[104.8242071,29.379118],[104.8242675,29.3790187],[104.8243023,29.3789649],[104.8242767,29.378896],[104.8243025,29.3789163],[104.8244054,29.3788202],[104.8244269,29.378837],[104.824495,29.3787703],[104.824713,29.378939],[104.8244382,29.3792132],[104.824253,29.3794261],[104.8240537,29.379632],[104.8238392,29.3798368],[104.823688,29.3797226],[104.8237029,29.3796918],[104.8237163,29.3796567]]]},"properties":{"kind":"grass"}},{"type":"Feature","geometry":{"type":"Polygon","coordinates":[[[104.8254215,29.3782129],[104.8254034,29.37821],[104.8254295,29.3780294],[104.8254792,29.378035],[104.8255017,29.377887],[104.8257303,29.377758],[104.8257377,29.377767],[104.8258198,29.37772],[104.8258131,29.3777112],[104.8259962,29.3776169],[104.8254215,29.3782129]]]},"properties":{"kind":"grass"}},{"type":"Feature","geometry":{"type":"Polygon","coordinates":[[[104.8246208,29.3786522],[104.8247082,29.3785677],[104.8247174,29.3785781],[104.8247489,29.37855],[104.8249307,29.3786155],[104.8251472,29.378404],[104.8251948,29.3784423],[104.8248284,29.3788133],[104.8246208,29.3786522]]]},"properties":{"kind":"grass"}},{"type":"Feature","geometry":{"type":"Polygon","coordinates":[[[104.8248896,29.3788641],[104.8248284,29.3788133],[104.8251948,29.3784423],[104.8254215,29.3782129],[104.8255455,29.3780873],[104.826086,29.3775099],[104.8259519,29.3769502],[104.8257613,29.3768411],[104.8258632,29.3767224],[104.8260659,29.3768613],[104.8262778,29.3770507],[104.826546,29.3772295],[104.8255871,29.3782544],[104.8249384,29.3789058],[104.8249081,29.3788828],[104.825006,29.3787908],[104.8249836,29.3787729],[104.8248896,29.3788641]]]},"properties":{"kind":"grass"}},{"type":"Feature","geometry":{"type":"Polygon","coordinates":[[[104.8231553,29.3779135],[104.823098,29.3778667],[104.8227413,29.3775754],[104.8235044,29.3768999],[104.8235661,29.3768532],[104.8236439,29.3768088],[104.8237324,29.376776],[104.8237726,29.3767743],[104.8238316,29.3767749],[104.824529,29.3772236],[104.8243119,29.3772321],[104.8239711,29.3772454],[104.8238705,29.3772493],[104.8237767,29.3773365],[104.8231553,29.3779135]]]},"properties":{"kind":"grass"}},{"type":"Feature","geometry":{"type":"Polygon","coordinates":[[[104.8249384,29.3789058],[104.8255871,29.3782544],[104.8265409,29.377229],[104.826546,29.3772295],[104.8266864,29.3773253],[104.8266972,29.3776906],[104.8260954,29.3783584],[104.8253517,29.3790754],[104.8253189,29.3790888],[104.8252954,29.3790888],[104.8252666,29.3790853],[104.8252418,29.3790707],[104.8252223,29.3790555],[104.8251928,29.3790479],[104.8251626,29.3790409],[104.8251351,29.3790374],[104.8251097,29.379035],[104.8250889,29.3790201],[104.8249384,29.3789058]]]},"properties":{"kind":"wood"}},{"type":"Feature","geometry":{"type":"Polygon","coordinates":[[[104.8217867,29.3804791],[104.8225874,29.3810877],[104.8241111,29.3796798],[104.8247866,29.3790583],[104.8248193,29.3790254],[104.8249645,29.3791402],[104.8249796,29.3791537],[104.8249866,29.37917],[104.8249916,29.3791951],[104.824997,29.3792121],[104.8250175,29.3792507],[104.8250369,29.3792711],[104.825055,29.3792883],[104.8250644,29.3793155],[104.8250671,29.3793377],[104.825058,29.3793662],[104.8228902,29.3813231],[104.8225911,29.3813103],[104.8217462,29.3806307],[104.8217335,29.380605],[104.8217301,29.3805641],[104.8217476,29.380532],[104.8217867,29.3804791]]]},"properties":{"kind":"wood"}},{"type":"Feature","geometry":{"type":"Polygon","coordinates":[[[104.8250551,29.379054],[104.824877,29.3789134],[104.8249081,29.3788828],[104.8249384,29.3789058],[104.8250889,29.3790201],[104.8250707,29.3790384],[104.8250551,29.379054]]]},"properties":{"kind":"park"}},{"type":"Feature","geometry":{"type":"Polygon","coordinates":[[[104.8249645,29.3791402],[104.8248193,29.3790254],[104.8247864,29.3789996],[104.8248175,29.378969],[104.8249984,29.3791063],[104.8249819,29.3791228],[104.8249645,29.3791402]]]},"properties":{"kind":"park"}},{"type":"Feature","geometry":{"type":"Polygon","coordinates":[[[104.8245799,29.3786542],[104.8245985,29.378636],[104.824812,29.3787997],[104.8247909,29.3788191],[104.8245799,29.3786542]]]},"properties":{"kind":"grass"}},{"type":"Feature","geometry":{"type":"Polygon","coordinates":[[[104.8245992,29.3786355],[104.8246867,29.378551],[104.8247082,29.3785677],[104.8246208,29.3786522],[104.8245992,29.3786355]]]},"properties":{"kind":"grass"}},{"type":"Feature","geometry":{"type":"Polygon","coordinates":[[[104.8244734,29.3787536],[104.824492,29.3787354],[104.8247025,29.3788998],[104.8246856,29.3789155],[104.8244734,29.3787536]]]},"properties":{"kind":"grass"}},{"type":"Feature","geometry":{"type":"Polygon","coordinates":[[[104.8244054,29.3788202],[104.8244734,29.3787536],[104.824495,29.3787703],[104.8244269,29.378837],[104.8244054,29.3788202]]]},"properties":{"kind":"grass"}},{"type":"Feature","geometry":{"type":"Polygon","coordinates":[[[104.8221995,29.3801435],[104.822453,29.3798998],[104.8226213,29.3798279],[104.8226655,29.3798116],[104.8227017,29.3798005],[104.8227353,29.3797999],[104.8227634,29.3798046],[104.8227929,29.3798157],[104.8228211,29.3798402],[104.8232878,29.3802042],[104.8233042,29.3802162],[104.8233321,29.3802293],[104.8233471,29.3802343],[104.8233736,29.3802416],[104.8234048,29.3802442],[104.823433,29.3802434],[104.8234699,29.3802375],[104.8234953,29.3802285],[104.8235155,29.38022],[104.8235339,29.3802095],[104.8235443,29.3802004],[104.8235531,29.3802022],[104.8233591,29.3803802],[104.8227071,29.3798718],[104.8225033,29.3799565],[104.8222612,29.380192],[104.8221995,29.3801435]]]},"properties":{"kind":"grass"}},{"type":"Feature","geometry":{"type":"Polygon","coordinates":[[[104.8219373,29.3794797],[104.8219955,29.3794225],[104.8224661,29.3797968],[104.8230135,29.3795714],[104.823533,29.3799991],[104.8236026,29.3800564],[104.8234913,29.3801566],[104.8234735,29.3801668],[104.8234494,29.3801765],[104.8234266,29.38018],[104.8234025,29.3801806],[104.8233823,29.3801773],[104.8233606,29.3801706],[104.8233441,29.3801624],[104.8228312,29.3797607],[104.8227889,29.3797438],[104.8227339,29.3797362],[104.822689,29.3797379],[104.8226548,29.3797461],[104.8224768,29.379818],[104.8224553,29.3798276],[104.8224248,29.3798314],[104.8223933,29.3798311],[104.822347,29.3798145],[104.8219373,29.3794797]]]},"properties":{"kind":"grass"}},{"type":"Feature","geometry":{"type":"Polygon","coordinates":[[[104.8227066,29.3795654],[104.8226749,29.3794908],[104.8226347,29.3794861],[104.8226099,29.3794897],[104.8225757,29.3794955],[104.8223779,29.3793529],[104.8223705,29.3793389],[104.8223671,29.3793202],[104.8223732,29.3793085],[104.8226414,29.379049],[104.8227359,29.3790397],[104.82275,29.3790379],[104.8227581,29.3790315],[104.8227621,29.3789713],[104.8227648,29.3789555],[104.8227775,29.3789427],[104.8229485,29.3789365],[104.8229522,29.3790508],[104.8227042,29.3790635],[104.8227262,29.3793887],[104.8229742,29.379376],[104.8229785,29.3794543],[104.8227066,29.3795654]]]},"properties":{"kind":"grass"}},{"type":"Feature","geometry":{"type":"Polygon","coordinates":[[[104.8250952,29.3791797],[104.8250743,29.379162],[104.8250684,29.3791534],[104.8250654,29.3791417],[104.8250674,29.3791291],[104.8250706,29.3791225],[104.82508,29.3791125],[104.825088,29.379109],[104.8250996,29.3791069],[104.8251112,29.3791066],[104.8251175,29.3791081],[104.8251236,29.3791103],[104.8251692,29.3791458],[104.8251752,29.3791516],[104.8251791,29.3791592],[104.8251809,29.3791656],[104.8251812,29.3791732],[104.8251797,29.3791807],[104.825175,29.3791894],[104.8251615,29.3792005],[104.8251527,29.3792035],[104.825144,29.3792042],[104.8251362,29.3792036],[104.8251279,29.3792023],[104.8251214,29.3791995],[104.825115,29.3791953],[104.8251078,29.3791893],[104.8250952,29.3791797]]]},"properties":{"kind":"park"}},{"type":"Feature","geometry":{"type":"Polygon","coordinates":[[[104.8247866,29.3790583],[104.8247536,29.3790301],[104.8247864,29.3789996],[104.8248193,29.3790254],[104.8247866,29.3790583]]]},"properties":{"kind":"grass"}},{"type":"Feature","geometry":{"type":"Polygon","coordinates":[[[104.8241111,29.3796798],[104.8243674,29.3794016],[104.8247313,29.3790122],[104.8247866,29.3790583],[104.8241111,29.3796798]]]},"properties":{"kind":"grass"}},{"type":"Feature","geometry":{"type":"Polygon","coordinates":[[[104.8236026,29.3800564],[104.823533,29.3799991],[104.8235397,29.3799933],[104.8237153,29.3798252],[104.8237363,29.3798405],[104.823783,29.3797973],[104.8238392,29.3798368],[104.8236026,29.3800564]]]},"properties":{"kind":"grass"}},{"type":"Feature","geometry":{"type":"Polygon","coordinates":[[[104.831855,29.3818475],[104.8318648,29.3822931],[104.8318501,29.3824275],[104.8318031,29.3825829],[104.8317408,29.3827097],[104.8316623,29.3828201],[104.8312064,29.3833553],[104.8306525,29.3829978],[104.8308656,29.3827496],[104.8308898,29.3827798],[104.8309529,29.3828476],[104.8310622,29.3829049],[104.8311507,29.3829247],[104.8312332,29.3829352],[104.8313338,29.3829247],[104.8314209,29.3828885],[104.8315001,29.3828359],[104.8316481,29.3826904],[104.8317066,29.3826151],[104.8317575,29.3824783],[104.8317629,29.3824211],[104.8317696,29.3821348],[104.8317911,29.3819326],[104.831787,29.3818771],[104.8317869,29.3818366],[104.831855,29.3818475]]]},"properties":{"kind":"grass"}},{"type":"Feature","geometry":{"type":"Polygon","coordinates":[[[104.8252492,29.3831731],[104.8251982,29.3832233],[104.825453,29.3834138],[104.825394,29.3834769],[104.8250601,29.3832163],[104.8252264,29.383055],[104.8252934,29.3830854],[104.8255308,29.3831392],[104.8258929,29.3832069],[104.8257025,29.383429],[104.8256569,29.3834477],[104.8256019,29.3834243],[104.8252492,29.3831731]]]},"properties":{"kind":"grass"}},{"type":"Feature","geometry":{"type":"Polygon","coordinates":[[[104.823947,29.3814096],[104.8240904,29.3812963],[104.8241052,29.3813127],[104.8241562,29.3813465],[104.8242071,29.3813699],[104.8243171,29.3813676],[104.8243748,29.3813407],[104.824423,29.3813255],[104.8244713,29.3813454],[104.8245116,29.3813874],[104.8245746,29.3814646],[104.8246497,29.3815896],[104.8247623,29.3817918],[104.8248187,29.381946],[104.8248549,29.3820512],[104.8248924,29.38223],[104.823947,29.3814096]]]},"properties":{"kind":"grass"}},{"type":"Feature","geometry":{"type":"Polygon","coordinates":[[[104.8300008,29.3840518],[104.8301117,29.3839246],[104.830311,29.3840565],[104.8302002,29.3841837],[104.8300008,29.3840518]]]},"properties":{"kind":"park"}},{"type":"Feature","geometry":{"type":"Polygon","coordinates":[[[104.8267237,29.3798718],[104.826774,29.3798122],[104.8273024,29.3801592],[104.8272501,29.3802142],[104.8267237,29.3798718]]]},"properties":{"kind":"grass"}},{"type":"Feature","geometry":{"type":"Polygon","coordinates":[[[104.8285731,29.380303],[104.8288125,29.3801464],[104.828838,29.3801791],[104.8286683,29.3803047],[104.8286428,29.3803164],[104.8286073,29.3803152],[104.8285731,29.380303]]]},"properties":{"kind":"grass"}},{"type":"Feature","geometry":{"type":"Polygon","coordinates":[[[104.8282703,29.3804715],[104.8285431,29.3804165],[104.828551,29.3804397],[104.8285268,29.3804771],[104.8283954,29.3805554],[104.8283458,29.3805682],[104.8283163,29.3805577],[104.8282881,29.380532],[104.8282703,29.3804715]]]},"properties":{"kind":"grass"}},{"type":"Feature","geometry":{"type":"Polygon","coordinates":[[[104.8284557,29.3805823],[104.8285798,29.3805016],[104.8286911,29.3803684],[104.8287132,29.3803579],[104.828734,29.3803596],[104.8287468,29.3803696],[104.828916,29.3805287],[104.828924,29.3805362],[104.8289855,29.380594],[104.8290311,29.3806208],[104.8290299,29.3806295],[104.829015,29.3807359],[104.8289412,29.3807283],[104.8288609,29.3806547],[104.828772,29.3805732],[104.8287615,29.3805636],[104.828669,29.3805484],[104.8285796,29.3806553],[104.8284557,29.3805823]]]},"properties":{"kind":"grass"}},{"type":"Feature","geometry":{"type":"Polygon","coordinates":[[[104.8289459,29.3827645],[104.8289974,29.3827049],[104.8290304,29.3826717],[104.829479,29.3829744],[104.8295461,29.3829989],[104.8296332,29.3830071],[104.8296681,29.3830071],[104.8296956,29.383013],[104.829715,29.3830299],[104.8297311,29.3830533],[104.8297653,29.3831012],[104.8298082,29.3831374],[104.8298626,29.3831731],[104.8299471,29.3831999],[104.8300007,29.3832175],[104.8301107,29.3831988],[104.8301817,29.3831684],[104.8302174,29.3831339],[104.8302649,29.3830726],[104.8302837,29.3830258],[104.8302823,29.3829896],[104.8302662,29.382923],[104.8302716,29.3828762],[104.8302837,29.3828388],[104.8302894,29.3828345],[104.8303615,29.3827798],[104.8304915,29.3827459],[104.830568,29.3827027],[104.8306404,29.3826723],[104.8307115,29.3826595],[104.8307785,29.3826746],[104.8308215,29.3827103],[104.8301992,29.3834231],[104.8300275,29.3833296],[104.8299532,29.3834223],[104.8289459,29.3827645]]]},"properties":{"kind":"grass"}},{"type":"Feature","geometry":{"type":"Polygon","coordinates":[[[104.8317895,29.3846018],[104.8318724,29.3845084],[104.8319516,29.3845617],[104.8318686,29.3846552],[104.8317895,29.3846018]]]},"properties":{"kind":"park"}},{"type":"Feature","geometry":{"type":"Polygon","coordinates":[[[104.8316257,29.3847895],[104.8317421,29.3846552],[104.831824,29.3847091],[104.8317076,29.3848434],[104.8316257,29.3847895]]]},"properties":{"kind":"park"}},{"type":"Feature","geometry":{"type":"Polygon","coordinates":[[[104.8310293,29.3821739],[104.8310119,29.3821143],[104.8310025,29.3820173],[104.8309931,29.3819437],[104.8310119,29.3818783],[104.8311545,29.3819228],[104.8312774,29.3819612],[104.8313043,29.3819121],[104.8314612,29.3819694],[104.8314585,29.3821739],[104.8312318,29.3821739],[104.8310293,29.3821739]]]},"properties":{"kind":"grass"}},{"type":"Feature","geometry":{"type":"Polygon","coordinates":[[[104.8309348,29.3826782],[104.8309918,29.3826028],[104.8310374,29.3824912],[104.8310521,29.3824263],[104.8310494,29.3823486],[104.8310273,29.3822084],[104.8311822,29.382209],[104.8311822,29.3823235],[104.8316898,29.3823346],[104.8316845,29.3824322],[104.8316791,29.38249],[104.8316603,29.3825397],[104.8316342,29.3825899],[104.8315778,29.38266],[104.8315021,29.3827559],[104.8314545,29.382802],[104.8313995,29.38284],[104.8313572,29.3828587],[104.8312942,29.3828733],[104.8312445,29.3828779],[104.8311815,29.3828651],[104.8310924,29.3828365],[104.8310394,29.3828049],[104.8309951,29.3827635],[104.8309643,29.3827261],[104.8309348,29.3826782]]]},"properties":{"kind":"grass"}},{"type":"Feature","geometry":{"type":"Polygon","coordinates":[[[104.8301858,29.3817006],[104.8303252,29.3815534],[104.830513,29.3816679],[104.8305947,29.3817113],[104.830623,29.3817263],[104.8307078,29.3817684],[104.8309408,29.3818841],[104.8309368,29.3819121],[104.8309287,29.382001],[104.8309475,29.3821131],[104.830969,29.3822242],[104.8306242,29.3819937],[104.8303761,29.3818278],[104.8301858,29.3817006]]]},"properties":{"kind":"grass"}},{"type":"Feature","geometry":{"type":"Polygon","coordinates":[[[104.8290693,29.3826238],[104.8290887,29.3825993],[104.8293109,29.3823422],[104.8294804,29.382146],[104.8301648,29.3825874],[104.8306299,29.382047],[104.8309717,29.3822627],[104.8309784,29.3823445],[104.8309824,29.3824298],[104.8309569,29.3825315],[104.8308778,29.3826413],[104.8307826,29.3826086],[104.8306766,29.3825911],[104.8306122,29.3826028],[104.8305345,29.382632],[104.8304299,29.3826787],[104.8303226,29.3827126],[104.8301858,29.3827453],[104.8301589,29.382757],[104.8301187,29.3827792],[104.8300825,29.3827792],[104.8300396,29.3827617],[104.8300034,29.3827547],[104.8299591,29.38275],[104.8299055,29.3827453],[104.8298626,29.3827477],[104.8298357,29.3827559],[104.8297955,29.3827804],[104.82977,29.3828049],[104.8297352,29.38284],[104.8296869,29.3828716],[104.8296346,29.3828938],[104.8295984,29.3828938],[104.8295568,29.3828809],[104.8294871,29.3828645],[104.829428,29.3828494],[104.8293731,29.3828143],[104.8292993,29.3827687],[104.8290693,29.3826238]]]},"properties":{"kind":"grass"}},{"type":"Feature","geometry":{"type":"Polygon","coordinates":[[[104.8283071,29.3838731],[104.8290886,29.3829732],[104.8292762,29.3830969],[104.8284947,29.3839968],[104.8283071,29.3838731]]]},"properties":{"kind":"grass"}},{"type":"Feature","geometry":{"type":"Polygon","coordinates":[[[104.8267592,29.3803935],[104.8268578,29.3802749],[104.8268692,29.3802743],[104.8269302,29.3803106],[104.8269329,29.3803199],[104.8269269,29.3803316],[104.826825,29.3804496],[104.8268082,29.3804537],[104.8267532,29.3804163],[104.8267512,29.3804029],[104.8267592,29.3803935]]]},"properties":{"kind":"park"}},{"type":"Feature","geometry":{"type":"Polygon","coordinates":[[[104.8265634,29.3806267],[104.8265691,29.3806249],[104.8265772,29.3806255],[104.8267566,29.3807441],[104.826768,29.3807511],[104.8267613,29.3807634],[104.826656,29.3808855],[104.8266439,29.3808896],[104.8264582,29.3807687],[104.8264528,29.3807599],[104.8264669,29.3807412],[104.8265634,29.3806267]]]},"properties":{"kind":"grass"}},{"type":"Feature","geometry":{"type":"Polygon","coordinates":[[[104.8260619,29.3819343],[104.8260582,29.3819215],[104.8260726,29.3818853],[104.8265581,29.3813033],[104.8265795,29.3813232],[104.8274419,29.3818888],[104.8277708,29.3820977],[104.8277611,29.3821353],[104.8277289,29.3821751],[104.8276672,29.382216],[104.8276041,29.382237],[104.8275505,29.3822429],[104.8274754,29.3822312],[104.8274177,29.3822078],[104.8273721,29.3821727],[104.8273359,29.3821342],[104.8273198,29.3821015],[104.8273158,29.3820629],[104.8273078,29.3820267],[104.8272923,29.3819922],[104.8272675,29.3819653],[104.82724,29.3819495],[104.8272052,29.3819349],[104.827177,29.3819297],[104.8271435,29.3819303],[104.8271099,29.3819355],[104.8270818,29.3819449],[104.827059,29.3819548],[104.8270416,29.381977],[104.8270033,29.3820144],[104.8269356,29.3820892],[104.8269034,29.382105],[104.8268605,29.3821126],[104.8268223,29.3821038],[104.8267908,29.3820968],[104.8267572,29.382095],[104.8267163,29.3821032],[104.8266801,29.3821219],[104.826658,29.3821412],[104.8266359,29.3821616],[104.8266184,29.3821949],[104.8266144,29.3822329],[104.8266211,29.3822779],[104.8266627,29.3823317],[104.8266976,29.3823796],[104.8267271,29.3824263],[104.8267311,29.3824602],[104.826715,29.3824941],[104.8266761,29.3825081],[104.8266406,29.3825075],[104.8265909,29.3825134],[104.8265655,29.382528],[104.8265246,29.3825853],[104.8265299,29.382632],[104.82655,29.3826752],[104.8265943,29.382722],[104.8266144,29.3827337],[104.8266513,29.3827418],[104.8266754,29.3827535],[104.8266949,29.3827693],[104.8267103,29.3827927],[104.8267546,29.3828202],[104.8267161,29.3828638],[104.8265085,29.3827418],[104.8263127,29.3825876],[104.8262027,29.382514],[104.8261209,29.3824415],[104.8260672,29.3823726],[104.8261383,29.3822873],[104.8261692,29.3821611],[104.8261558,29.3820594],[104.8261169,29.3819904],[104.8260619,29.3819343]]]},"properties":{"kind":"grass"}},{"type":"Feature","geometry":{"type":"Polygon","coordinates":[[[104.8303668,29.3846314],[104.8303547,29.3845438],[104.8309274,29.3839069],[104.8309596,29.3838894],[104.831036,29.3838847],[104.8310883,29.3839081],[104.8312962,29.3840471],[104.8308563,29.3845531],[104.8311205,29.3847284],[104.8308966,29.3849797],[104.8303668,29.3846314]]]},"properties":{"kind":"grass"}},{"type":"Feature","geometry":{"type":"Polygon","coordinates":[[[104.8291431,29.3844614],[104.8293556,29.3842107],[104.8294267,29.3842598],[104.8294803,29.3842972],[104.8294736,29.3843428],[104.8293382,29.3845122],[104.8293194,29.3845274],[104.8292899,29.3845356],[104.829251,29.3845286],[104.8291431,29.3844614]]]},"properties":{"kind":"grass"}},{"type":"Feature","geometry":{"type":"Polygon","coordinates":[[[104.8293482,29.384105],[104.8294079,29.3840331],[104.8297649,29.3842668],[104.8299854,29.3844112],[104.830163,29.3845274],[104.8301281,29.3845707],[104.8300289,29.3846431],[104.8298947,29.3846969],[104.8297714,29.3847167],[104.8296426,29.3847062],[104.8295367,29.3846828],[104.8294535,29.384649],[104.8294106,29.3846221],[104.8294052,29.3845882],[104.829416,29.384552],[104.8294377,29.3845283],[104.8295447,29.3844117],[104.8295836,29.3843428],[104.829585,29.3842832],[104.8295367,29.3842306],[104.829523,29.3842215],[104.8294954,29.3842031],[104.8293482,29.384105]]]},"properties":{"kind":"grass"}},{"type":"Feature","geometry":{"type":"Polygon","coordinates":[[[104.8280444,29.3809472],[104.8280507,29.3809095],[104.8280588,29.3808487],[104.8280682,29.3808031],[104.828099,29.3807716],[104.8281379,29.380747],[104.8282224,29.3807026],[104.828319,29.3808101],[104.8285684,29.3809702],[104.8284034,29.3811619],[104.8280994,29.3810192],[104.8280937,29.3809927],[104.8280789,29.3809691],[104.8280444,29.3809472]]]},"properties":{"kind":"grass"}},{"type":"Feature","geometry":{"type":"Polygon","coordinates":[[[104.8273882,29.3817333],[104.8277428,29.3813223],[104.8279428,29.3810909],[104.8279495,29.3810953],[104.8279686,29.3811038],[104.8279984,29.381107],[104.8280172,29.3811065],[104.8280397,29.3811014],[104.8280658,29.3810868],[104.8280883,29.381062],[104.8281661,29.381093],[104.8280695,29.3812636],[104.8282868,29.3813524],[104.8288751,29.3817422],[104.8287111,29.3819321],[104.8284813,29.3821979],[104.8283605,29.3821166],[104.828331,29.3820828],[104.8283042,29.3820313],[104.8283069,29.3819624],[104.8282881,29.3818701],[104.8282412,29.3818128],[104.8282009,29.3817696],[104.8281312,29.3817322],[104.8280212,29.3817076],[104.8279086,29.381717],[104.8278013,29.3817731],[104.8277289,29.3818701],[104.8277235,29.3819589],[104.8275234,29.3818242],[104.8273882,29.3817333]]]},"properties":{"kind":"grass","name":"艺园"}},{"type":"Feature","geometry":{"type":"Polygon","coordinates":[[[104.8312789,29.3816193],[104.8312893,29.3816024],[104.8313123,29.3815652],[104.8313249,29.3815448],[104.8313512,29.3815697],[104.8314115,29.3816001],[104.8314732,29.3816159],[104.8315168,29.3816191],[104.8315537,29.3816182],[104.8315926,29.3816288],[104.8316281,29.3816591],[104.8316717,29.3817006],[104.8316863,29.381735],[104.8316543,29.3817298],[104.8315309,29.3817006],[104.8313995,29.3816667],[104.8312789,29.3816193]]]},"properties":{"kind":"grass"}},{"type":"Feature","geometry":{"type":"Polygon","coordinates":[[[104.8304091,29.3811344],[104.8305452,29.3809831],[104.8305779,29.380931],[104.830623,29.3808592],[104.8306981,29.3807447],[104.8307732,29.3806092],[104.8307866,29.3805764],[104.8308858,29.3806349],[104.8314249,29.3809551],[104.8316596,29.381135],[104.8317508,29.3812122],[104.8318085,29.3812858],[104.8318116,29.3812971],[104.8318501,29.3814377],[104.8317723,29.3814389],[104.8317324,29.3814318],[104.8316858,29.3814044],[104.8316576,29.3813763],[104.8316345,29.3813629],[104.8315792,29.3813424],[104.8315389,29.3813267],[104.8314994,29.3812998],[104.8314786,29.3812735],[104.8314591,29.381239],[104.8314471,29.3811876],[104.8314531,29.3811502],[104.8314491,29.3811005],[104.831427,29.3810655],[104.8313914,29.3810427],[104.8313525,29.3810334],[104.8313069,29.3810316],[104.831266,29.3810491],[104.8312338,29.3810643],[104.8312017,29.3810661],[104.8311742,29.3810553],[104.8311574,29.381043],[104.8311125,29.3810117],[104.831081,29.3810006],[104.8310494,29.3810018],[104.8310287,29.3810071],[104.8310065,29.3810246],[104.8309851,29.3810521],[104.8309549,29.3810725],[104.8309308,29.3810854],[104.8308785,29.3811041],[104.8308375,29.3811303],[104.8308161,29.3811561],[104.8307899,29.3811911],[104.8307879,29.3812361],[104.8307893,29.3812659],[104.8308241,29.3813313],[104.8308778,29.3813711],[104.8309214,29.3813939],[104.8310012,29.3814155],[104.8310329,29.3814177],[104.8310209,29.3814355],[104.8309941,29.3814749],[104.8309825,29.381492],[104.8308845,29.3814447],[104.8307839,29.3813828],[104.8307236,29.3813489],[104.8304091,29.3811344]]]},"properties":{"kind":"grass"}},{"type":"Feature","geometry":{"type":"Polygon","coordinates":[[[104.8266625,29.3830283],[104.8266411,29.3830139],[104.8266772,29.382973],[104.8271777,29.3833016],[104.8271817,29.3833624],[104.8272219,29.3834442],[104.8272823,29.3834944],[104.8274097,29.3835388],[104.8274633,29.3835821],[104.8274969,29.3836545],[104.8275357,29.3837048],[104.8275813,29.383755],[104.8276712,29.383783],[104.8276953,29.3838017],[104.8276886,29.3838275],[104.8276216,29.3838415],[104.8275559,29.3838695],[104.8274794,29.3839244],[104.8274499,29.3839922],[104.8274258,29.3840214],[104.8273802,29.3840284],[104.8273158,29.3840518],[104.8272823,29.3840939],[104.8272608,29.3841395],[104.8272555,29.3842002],[104.8272595,29.3842411],[104.8272072,29.3842949],[104.8271804,29.3843451],[104.8270382,29.3845169],[104.8270181,29.3845882],[104.8270194,29.3846256],[104.8268746,29.3845216],[104.8269255,29.3844456],[104.8269778,29.3843416],[104.8269953,29.3842493],[104.8270141,29.3841395],[104.827002,29.384067],[104.8269805,29.3839689],[104.8269524,29.3838871],[104.8268786,29.3837538],[104.8268276,29.3836662],[104.8267163,29.3834932],[104.8265257,29.3831832],[104.8266625,29.3830283]]]},"properties":{"kind":"wood","name":"名师林"}},{"type":"Feature","geometry":{"type":"Polygon","coordinates":[[[104.8262013,29.3840951],[104.8264504,29.3838163],[104.8265165,29.383748],[104.8266453,29.3839689],[104.8266801,29.3840647],[104.8266868,29.384178],[104.8266721,29.384247],[104.8266493,29.3843066],[104.8266144,29.3843568],[104.8265355,29.3843068],[104.8262013,29.3840951]]]},"properties":{"kind":"grass"}},{"type":"Feature","geometry":{"type":"Polygon","coordinates":[[[104.825284,29.3820115],[104.8252163,29.3820068],[104.8251774,29.3820191],[104.8250574,29.3817205],[104.8249809,29.381551],[104.8249622,29.381509],[104.8249783,29.3814833],[104.8250011,29.3814342],[104.8250131,29.3813933],[104.8249863,29.381301],[104.8249394,29.3812694],[104.824871,29.3812519],[104.82482,29.3812308],[104.8247798,29.3812086],[104.8247462,29.3811724],[104.8247302,29.3811175],[104.8247074,29.3810357],[104.824706,29.3809305],[104.8247167,29.3808475],[104.8247784,29.3808884],[104.825286,29.3812285],[104.8253048,29.3812536],[104.8253162,29.3812811],[104.8252934,29.381336],[104.8251124,29.381537],[104.8250775,29.3815721],[104.8250628,29.381627],[104.8250788,29.3816656],[104.8251352,29.3817065],[104.8252907,29.381807],[104.8255791,29.3819974],[104.8256046,29.3820267],[104.8256193,29.3820711],[104.8255938,29.3821015],[104.8255657,29.382105],[104.8255174,29.3820851],[104.8254772,29.3820606],[104.8253605,29.3820232],[104.825284,29.3820115]]]},"properties":{"kind":"grass"}},{"type":"Feature","geometry":{"type":"Polygon","coordinates":[[[104.8261838,29.3828731],[104.8260914,29.3828572],[104.8260585,29.3828473],[104.8259948,29.3828307],[104.8259372,29.3828178],[104.8258594,29.3828108],[104.8257947,29.3828093],[104.8257481,29.3828143],[104.8256924,29.3828204],[104.8256364,29.3828198],[104.8255683,29.3828079],[104.8255341,29.3827944],[104.8254839,29.3827711],[104.8254409,29.3827448],[104.8254061,29.3827126],[104.8253746,29.3826799],[104.825347,29.3826358],[104.8253531,29.3826337],[104.8253712,29.3826185],[104.8253813,29.3825984],[104.8253818,29.3825765],[104.8253775,29.3825671],[104.8253725,29.382556],[104.8253551,29.3825402],[104.825332,29.3825315],[104.8253175,29.3825312],[104.8253169,29.3824748],[104.8253189,29.3824094],[104.8253211,29.3823578],[104.8253202,29.3822873],[104.8252988,29.3820804],[104.8253565,29.3820804],[104.8254222,29.3820968],[104.8254852,29.3821353],[104.8255563,29.3821692],[104.8256931,29.382209],[104.8257548,29.3822195],[104.8258191,29.382244],[104.8258634,29.3822779],[104.8258862,29.3823188],[104.8259197,29.3823924],[104.8259452,29.3824392],[104.8259962,29.3825046],[104.8260511,29.382563],[104.8262402,29.3826869],[104.8262791,29.3827173],[104.8262791,29.3827442],[104.8262671,29.3827757],[104.8261838,29.3828731]]]},"properties":{"kind":"wood","name":"彩灯林"}},{"type":"Feature","geometry":{"type":"Polygon","coordinates":[[[104.8319922,29.3814412],[104.8319882,29.3813676],[104.8319507,29.3812601],[104.8319064,29.3811853],[104.831838,29.3811023],[104.8317777,29.3810567],[104.8317428,29.3810322],[104.8317213,29.38101],[104.8317227,29.3809866],[104.8318008,29.3808981],[104.831836,29.3808581],[104.8318801,29.3808173],[104.8329484,29.381516],[104.8330396,29.3816305],[104.8329189,29.3815464],[104.8327956,29.3814903],[104.8326829,29.3814622],[104.8325703,29.3814435],[104.8319922,29.3814412]]]},"properties":{"kind":"grass"}},{"type":"Feature","geometry":{"type":"Polygon","coordinates":[[[104.8313934,29.3804991],[104.8314635,29.3804186],[104.8330504,29.3814576],[104.8331469,29.3815814],[104.8339164,29.3820969],[104.8339623,29.3823235],[104.8338691,29.3824396],[104.8338014,29.3821377],[104.8330396,29.3816305],[104.8329484,29.381516],[104.8318801,29.3808173],[104.8313934,29.3804991]]]},"properties":{"kind":"wood"}},{"type":"Feature","geometry":{"type":"Polygon","coordinates":[[[104.8308533,29.3802306],[104.8310213,29.3803415],[104.8310642,29.3802948],[104.8308951,29.3801836],[104.83091,29.3801662],[104.8309395,29.3801499],[104.8309717,29.3801394],[104.8310188,29.3801274],[104.8314635,29.3804186],[104.8313934,29.3804991],[104.8313231,29.3805799],[104.8312506,29.3806687],[104.8312224,29.3806793],[104.8311996,29.3806758],[104.8308188,29.3804315],[104.830796,29.3804105],[104.8307772,29.3803661],[104.8307879,29.3803158],[104.830808,29.3802819],[104.8308533,29.3802306]]]},"properties":{"kind":"grass"}},{"type":"Feature","geometry":{"type":"Polygon","coordinates":[[[104.8300898,29.3797696],[104.8301429,29.3797923],[104.8301972,29.3796976],[104.8303574,29.3798016],[104.8304178,29.3797321],[104.830674,29.3799017],[104.8306753,29.3799337],[104.8306739,29.3799746],[104.8306484,29.3800214],[104.8304795,29.3799103],[104.8304392,29.3799571],[104.8306058,29.3800671],[104.8305452,29.3801347],[104.8305063,29.3801639],[104.8304594,29.3801651],[104.8304097,29.3801569],[104.8300342,29.3799091],[104.8300128,29.3798922],[104.8300148,29.3798647],[104.8300248,29.3798455],[104.8300898,29.3797696]]]},"properties":{"kind":"grass"}},{"type":"Feature","geometry":{"type":"Polygon","coordinates":[[[104.8291638,29.3794242],[104.8291209,29.3792863],[104.8291236,29.3792699],[104.8291491,29.3792372],[104.8291598,29.3792091],[104.8291558,29.3791729],[104.8291062,29.3790233],[104.8290472,29.3790385],[104.8290358,29.3790058],[104.8289587,29.3789602],[104.8289654,29.3789474],[104.8291102,29.3789918],[104.8296799,29.3793617],[104.8295595,29.3795177],[104.8295233,29.3795469],[104.8294924,29.3795551],[104.8294602,29.3795293],[104.8293865,29.3794884],[104.8293342,29.3794627],[104.829243,29.3794382],[104.8291638,29.3794242]]]},"properties":{"kind":"grass"}},{"type":"Feature","geometry":{"type":"Polygon","coordinates":[[[104.8287521,29.3794931],[104.8287106,29.3793634],[104.8290405,29.3792816],[104.8290807,29.3794253],[104.8289935,29.3794335],[104.8288634,29.3794627],[104.8287521,29.3794931]]]},"properties":{"kind":"grass"}},{"type":"Feature","geometry":{"type":"Polygon","coordinates":[[[104.8298388,29.3807056],[104.8299021,29.3806332],[104.8299495,29.380579],[104.8299558,29.3805718],[104.830045,29.3804888],[104.8301022,29.3804417],[104.8302013,29.3803602],[104.8302558,29.3803154],[104.8302823,29.3802936],[104.8306981,29.3805624],[104.8306778,29.3805946],[104.8306433,29.3806496],[104.8306364,29.3806606],[104.8305735,29.3807585],[104.8305613,29.3807774],[104.8305391,29.3808151],[104.830505,29.3808733],[104.8304717,29.3809227],[104.8304594,29.380941],[104.8304309,29.3809736],[104.8303655,29.3810485],[104.8298388,29.3807056]]]},"properties":{"kind":"grass"}},{"type":"Feature","geometry":{"type":"Polygon","coordinates":[[[104.828479,29.3823401],[104.8285509,29.3822583],[104.8288386,29.3819231],[104.8289745,29.3817667],[104.8290119,29.3817912],[104.8293934,29.3820394],[104.8294295,29.3820631],[104.8293707,29.3821309],[104.8291951,29.3823343],[104.8291266,29.3824137],[104.8289328,29.3826379],[104.828479,29.3823401]]]},"properties":{"kind":"grass"}},{"type":"Feature","geometry":{"type":"Polygon","coordinates":[[[104.8290939,29.3816334],[104.8291199,29.3816081],[104.8294368,29.3812366],[104.8295072,29.3811541],[104.8296794,29.3809522],[104.8297636,29.3808585],[104.8302111,29.3811545],[104.8300521,29.381341],[104.8297599,29.3816749],[104.8296866,29.3817587],[104.8295408,29.3819302],[104.829507,29.381908],[104.829345,29.3818002],[104.8291286,29.3816562],[104.8290939,29.3816334]]]},"properties":{"kind":"grass"}},{"type":"Feature","geometry":{"type":"Polygon","coordinates":[[[104.8286542,29.3796655],[104.8286388,29.3796369],[104.8287628,29.3796128],[104.8289707,29.3795726],[104.8290552,29.3795586],[104.8291504,29.3795539],[104.8292577,29.3795819],[104.8293275,29.3796076],[104.8293735,29.3796327],[104.8294133,29.3796544],[104.8295874,29.3797541],[104.8296051,29.3797642],[104.829884,29.3799442],[104.830234,29.3802177],[104.8302085,29.3802387],[104.8301466,29.3802899],[104.8299497,29.3804526],[104.8298693,29.3805344],[104.8297569,29.380654],[104.8297298,29.3806828],[104.8296642,29.380639],[104.8295809,29.3805834],[104.8293905,29.3804677],[104.8291464,29.3802761],[104.8290797,29.3802123],[104.8289788,29.380116],[104.8288125,29.3799068],[104.8286542,29.3796655]]]},"properties":{"kind":"grass","name":"地域文化展示苑"}},{"type":"Feature","geometry":{"type":"Polygon","coordinates":[[[104.8274437,29.377831],[104.8280936,29.3782883],[104.8283055,29.3783958],[104.8290244,29.3788679],[104.8291719,29.3789182],[104.8304178,29.3797321],[104.8303574,29.3798016],[104.8301972,29.3796976],[104.8296799,29.3793617],[104.8291102,29.3789918],[104.8289654,29.3789474],[104.8283002,29.3785033],[104.8280118,29.3783303],[104.8274928,29.3779903],[104.8274437,29.377831]]]},"properties":{"kind":"wood"}},{"type":"Feature","geometry":{"type":"Polygon","coordinates":[[[104.8274928,29.3779903],[104.8268625,29.3786622],[104.8267271,29.3787464],[104.8262215,29.3792419],[104.8253015,29.3801113],[104.8249749,29.38039],[104.8250265,29.3802971],[104.8251848,29.3801125],[104.8256555,29.3796415],[104.825795,29.3794873],[104.8259304,29.3793412],[104.8260123,29.3792676],[104.8260471,29.3792173],[104.8260471,29.3791834],[104.8260431,29.3791601],[104.8260069,29.3791414],[104.8259734,29.3791355],[104.8259519,29.3791402],[104.8259338,29.3791469],[104.8256665,29.3794159],[104.8256287,29.3794417],[104.8255965,29.3794791],[104.8254852,29.3795854],[104.8253712,29.3797339],[104.8250194,29.3801403],[104.824883,29.3803053],[104.8246939,29.3805005],[104.8246162,29.3805869],[104.8245786,29.3806372],[104.824415,29.3807646],[104.8243573,29.380816],[104.8242661,29.3809107],[104.8241857,29.3810182],[104.8241454,29.3811303],[104.82333,29.3818268],[104.8231557,29.3818222],[104.8231457,29.3815431],[104.8264977,29.3784939],[104.8266144,29.3784308],[104.8271602,29.3778676],[104.8274437,29.377831],[104.8274928,29.3779903]]]},"properties":{"kind":"wood"}},{"type":"Feature","geometry":{"type":"Polygon","coordinates":[[[104.8280444,29.3789325],[104.8283042,29.3786301],[104.8283143,29.3786254],[104.8283283,29.378626],[104.8283652,29.3786505],[104.8283679,29.3786587],[104.8283578,29.3786757],[104.8280769,29.3789988],[104.8280574,29.379],[104.8280286,29.3789818],[104.8280206,29.3789696],[104.8280253,29.3789538],[104.8280444,29.3789325]]]},"properties":{"kind":"grass"}},{"type":"Feature","geometry":{"type":"Polygon","coordinates":[[[104.8318556,29.3817605],[104.831781,29.3817501],[104.831771,29.3815534],[104.8317864,29.3815218],[104.8318152,29.3815148],[104.8318514,29.3815137],[104.8318556,29.3817605]]]},"properties":{"kind":"grass"}},{"type":"Feature","geometry":{"type":"Polygon","coordinates":[[[104.8226874,29.3822467],[104.8228745,29.3820818],[104.8242716,29.3832197],[104.8255288,29.384162],[104.8266504,29.3848839],[104.8272639,29.3852408],[104.8281531,29.385717],[104.8294667,29.3864212],[104.8295882,29.3865196],[104.8299377,29.3866885],[104.8300925,29.3867173],[104.8346459,29.3888775],[104.83450151127451,29.3892835],[104.82686972951953,29.3892835],[104.8268592,29.3892658],[104.8268478,29.3887933],[104.826156,29.3874213],[104.8257965,29.386795],[104.8259682,29.3866034],[104.8259038,29.3862014],[104.825362,29.3860845],[104.8249543,29.3854114],[104.8243052,29.384341],[104.8226874,29.3822467]]]},"properties":{"kind":"park","name":"李白河公园"}},{"type":"Feature","geometry":{"type":"Polygon","coordinates":[[[104.8340727,29.3849337],[104.8340931,29.3849557],[104.8341005,29.3849767],[104.8341038,29.3850054],[104.8341075,29.3850264],[104.8341189,29.3850457],[104.8341333,29.3850612],[104.8341521,29.3850726],[104.8341749,29.3850816],[104.8341997,29.3850845],[104.8342279,29.3850851],[104.834246,29.385093],[104.83426,29.3851038],[104.8342688,29.3851225],[104.8342671,29.3851415],[104.834257,29.385157],[104.8342476,29.3851649],[104.8342292,29.3851722],[104.8342315,29.3851555],[104.8342285,29.3851386],[104.8342175,29.3851222],[104.8342014,29.38511],[104.8341836,29.3851041],[104.8341611,29.3851027],[104.8341417,29.3851082],[104.8341269,29.385117],[104.8336968,29.3848377],[104.8336565,29.3848207],[104.8336136,29.3848166],[104.8335828,29.3848242],[104.8335613,29.3848307],[104.8333957,29.3849002],[104.8333716,29.3849142],[104.8333622,29.384923],[104.833281,29.3849464],[104.833216,29.3849598],[104.8333552,29.3847966],[104.8337541,29.3846276],[104.83381,29.3847113],[104.8338971,29.3847933],[104.8339963,29.3848843],[104.8340727,29.3849337]]]},"properties":{"kind":"grass"}},{"type":"Feature","geometry":{"type":"Polygon","coordinates":[[[104.8351907,29.3858936],[104.8350526,29.3859034],[104.8350446,29.3858251],[104.8350369,29.3857778],[104.8350241,29.385743],[104.8350034,29.3857091],[104.8349762,29.3856767],[104.83495,29.3856522],[104.8349108,29.3856244],[104.8345206,29.38537],[104.8345263,29.3853448],[104.8345192,29.3853232],[104.8345011,29.3853036],[104.8344763,29.3852937],[104.8344512,29.3852949],[104.8344307,29.3853007],[104.8344334,29.3852849],[104.8344414,29.38527],[104.8344595,29.3852578],[104.8344803,29.3852549],[104.8345021,29.3852592],[104.8345182,29.38527],[104.8345263,29.3852814],[104.8345323,29.3853004],[104.8345407,29.3853159],[104.8345504,29.3853294],[104.8345651,29.3853413],[104.8345826,29.3853513],[104.834603,29.385358],[104.8346252,29.3853612],[104.834652,29.3853594],[104.8346798,29.3853521],[104.8347026,29.385351],[104.8347233,29.3853545],[104.8350051,29.3855367],[104.8350906,29.3856113],[104.8351476,29.3856882],[104.8351817,29.3858011],[104.8351907,29.3858936]]]},"properties":{"kind":"grass"}},{"type":"Feature","geometry":{"type":"Polygon","coordinates":[[[104.8329652,29.3877173],[104.8320781,29.3872951],[104.8319594,29.3871976],[104.830667,29.3865835],[104.8307319,29.3865147],[104.8320262,29.3871243],[104.8321339,29.3872195],[104.8330265,29.3876433],[104.832982,29.3877149],[104.8329652,29.3877173]]]},"properties":{"kind":"grass"}},{"type":"Feature","geometry":{"type":"Polygon","coordinates":[[[104.8330651,29.3869428],[104.8340475,29.3857936],[104.8342674,29.3859361],[104.834315,29.3858794],[104.8344713,29.3859811],[104.8345551,29.3868026],[104.8340374,29.3874056],[104.8330651,29.3869428]]]},"properties":{"kind":"grass"}},{"type":"Feature","geometry":{"type":"Polygon","coordinates":[[[104.8325353,29.3857666],[104.832607,29.3858155],[104.8320397,29.3864809],[104.8320303,29.3864882],[104.8320196,29.3864915],[104.8319825,29.3864968],[104.831969,29.3865009],[104.831961,29.3865054],[104.8319549,29.3865139],[104.8318875,29.3866225],[104.8318484,29.386682],[104.8318104,29.3867434],[104.8318487,29.3867614],[104.8318413,29.3867734],[104.8318869,29.3867949],[104.8318801,29.3868059],[104.8318524,29.3867929],[104.8318395,29.3868138],[104.8318274,29.3868082],[104.8318046,29.386845],[104.8318346,29.3868591],[104.8318266,29.3868719],[104.8318143,29.3868914],[104.8315094,29.3867465],[104.8316734,29.3865601],[104.8317671,29.3865454],[104.8317505,29.3864774],[104.8319507,29.3864441],[104.8320997,29.3862735],[104.8321446,29.3862213],[104.8325353,29.3857666]]]},"properties":{"kind":"grass"}},{"type":"Feature","geometry":{"type":"Polygon","coordinates":[[[104.8333622,29.384923],[104.8327363,29.3856653],[104.8326617,29.3856174],[104.8328491,29.3853948],[104.8328932,29.3853437],[104.8330984,29.3851021],[104.833216,29.3849598],[104.833281,29.3849464],[104.8333622,29.384923]]]},"properties":{"kind":"grass"}}]}