{"type":"FeatureCollection","features":[{"type":"Feature","geometry":{"type":"Polygon","coordinates":[[[104.8241726,29.3788137],[104.824617,29.3783926],[104.8247453,29.3784961],[104.8247197,29.3785202],[104.8246883,29.3785499],[104.824492,29.3787354],[104.8244734,29.3787536],[104.8244054,29.3788202],[104.8243025,29.3789163],[104.8242767,29.378896],[104.8241726,29.3788137]]]},"properties":{"kind":"multi"}},{"type":"Feature","geometry":{"type":"Polygon","coordinates":[[[104.8319565,29.3829131],[104.8319609,29.382701],[104.8321338,29.3827038],[104.8321323,29.3827786],[104.8322133,29.3827799],[104.8322104,29.3829171],[104.8319565,29.3829131]]]},"properties":{"kind":"multi"}},{"type":"Feature","geometry":{"type":"Polygon","coordinates":[[[104.8235322,29.3819194],[104.823612,29.3818488],[104.8237877,29.3819995],[104.8237079,29.3820702],[104.8235322,29.3819194]]]},"properties":{"kind":"tennis","name":"室外网球场"}},{"type":"Feature","geometry":{"type":"Polygon","coordinates":[[[104.8241196,29.3824319],[104.8241994,29.3823612],[104.8243751,29.3825119],[104.8242953,29.3825826],[104.8241196,29.3824319]]]},"properties":{"kind":"tennis","name":"室外网球场"}},{"type":"Feature","geometry":{"type":"Polygon","coordinates":[[[104.8238286,29.3821774],[104.8239084,29.3821067],[104.8240841,29.3822575],[104.8240043,29.3823281],[104.8238286,29.3821774]]]},"properties":{"kind":"tennis","name":"室外网球场"}},{"type":"Feature","geometry":{"type":"Polygon","coordinates":[[[104.8304486,29.3857743],[104.8305519,29.3856586],[104.8308322,29.3858432],[104.8307262,29.3859589],[104.8304486,29.3857743]]]},"properties":{"kind":"multi"}},{"type":"Feature","geometry":{"type":"Polygon","coordinates":[[[104.8274697,29.3795606],[104.8278137,29.3791612],[104.8280222,29.3792976],[104.8281004,29.3793487],[104.8277563,29.3797481],[104.8274697,29.3795606]]]},"properties":{"kind":"basketball","name":"篮球场"}},{"type":"Feature","geometry":{"type":"Polygon","coordinates":[[[104.8271092,29.3798574],[104.8272552,29.3796845],[104.8275785,29.3798925],[104.8274362,29.3800671],[104.8271092,29.3798574]]]},"properties":{"kind":"multi","name":"排球场"}},{"type":"Feature","geometry":{"type":"Polygon","coordinates":[[[104.8255798,29.3804286],[104.8256823,29.3803105],[104.825927,29.3804718],[104.8258245,29.3805899],[104.8255798,29.3804286]]]},"properties":{"kind":"multi"}},{"type":"Feature","geometry":{"type":"Polygon","coordinates":[[[104.8249766,29.3806725],[104.8250792,29.3805545],[104.8253239,29.3807158],[104.8252213,29.3808339],[104.8249766,29.3806725]]]},"properties":{"kind":"multi"}},{"type":"Feature","geometry":{"type":"Polygon","coordinates":[[[104.8316128,29.3833379],[104.8316147,29.3831176],[104.8318497,29.3831192],[104.8318478,29.3833395],[104.8316128,29.3833379]]]},"properties":{"kind":"multi"}},{"type":"Feature","geometry":{"type":"Polygon","coordinates":[[[104.831609,29.3837608],[104.8316097,29.3833617],[104.831848,29.3833621],[104.8318472,29.3837612],[104.831609,29.3837608]]]},"properties":{"kind":"tennis"}},{"type":"Feature","geometry":{"type":"Polygon","coordinates":[[[104.8318609,29.3831855],[104.8318634,29.3829246],[104.8322101,29.3829263],[104.8322083,29.3831866],[104.8318609,29.3831855]]]},"properties":{"kind":"basketball"}},{"type":"Feature","geometry":{"type":"Polygon","coordinates":[[[104.8318556,29.3834753],[104.8318567,29.3831992],[104.832204,29.3832003],[104.8322029,29.3834764],[104.8318556,29.3834753]]]},"properties":{"kind":"basketball"}},{"type":"Feature","geometry":{"type":"Polygon","coordinates":[[[104.8318549,29.3837624],[104.831856,29.3834863],[104.8322034,29.3834873],[104.8322022,29.3837634],[104.8318549,29.3837624]]]},"properties":{"kind":"basketball"}},{"type":"Feature","geometry":{"type":"Polygon","coordinates":[[[104.8318542,29.3841665],[104.8318553,29.3839547],[104.8322177,29.3839561],[104.8322167,29.3841679],[104.8318542,29.3841665]]]},"properties":{"kind":"tennis"}},{"type":"Feature","geometry":{"type":"Polygon","coordinates":[[[104.8327359,29.3844152],[104.8327419,29.3843907],[104.8329116,29.3843942],[104.8329116,29.3844135],[104.8329055,29.384445],[104.8328921,29.3844719],[104.832874,29.3844994],[104.8328626,29.3845064],[104.8327359,29.3844152]]]},"properties":{"kind":"multi"}},{"type":"Feature","geometry":{"type":"Polygon","coordinates":[[[104.8330812,29.3843963],[104.8332495,29.384395],[104.8332509,29.3843959],[104.8332509,29.3843987],[104.8332525,29.3844055],[104.8332551,29.384411],[104.8332596,29.3844141],[104.8332589,29.3844164],[104.8331292,29.3845114],[104.8331161,29.3844991],[104.833103,29.3844769],[104.8330899,29.3844523],[104.8330832,29.3844246],[104.8330812,29.3843963]]]},"properties":{"kind":"multi"}},{"type":"Feature","geometry":{"type":"Polygon","coordinates":[[[104.832647,29.3843424],[104.8326504,29.383395],[104.8333525,29.3833969],[104.833349,29.3843444],[104.832647,29.3843424]]]},"properties":{"kind":"soccer"}},{"type":"Feature","geometry":{"type":"Polygon","coordinates":[[[104.8267606,29.3791346],[104.8270861,29.3787584],[104.8274157,29.3783774],[104.8275303,29.3784532],[104.8276224,29.3785142],[104.8277711,29.3786126],[104.8278624,29.3786731],[104.827978,29.3787496],[104.8276504,29.3791287],[104.8273235,29.3795068],[104.82721,29.3794318],[104.8271149,29.3793689],[104.827099,29.3793584],[104.8269638,29.379269],[104.8268764,29.3792112],[104.8267606,29.3791346]]]},"properties":{"kind":"soccer","name":"室外运动场"}},{"type":"Feature","geometry":{"type":"Polygon","coordinates":[[[104.8273639,29.3797411],[104.8274885,29.3795971],[104.8277063,29.3797402],[104.8275817,29.3798842],[104.8273639,29.3797411]]]},"properties":{"kind":"volleyball","name":"排球场"}}]}