{"type":"FeatureCollection","features":[{"type":"Feature","geometry":{"type":"Point","coordinates":[104.8294093,29.3847086]},"properties":{"name":"川轻化A区","kind":"bus","campus":"suse"}},{"type":"Feature","geometry":{"type":"Point","coordinates":[104.8265614,29.3782019]},"properties":{"name":"江姐村","kind":"bus","campus":"suse"}},{"type":"Feature","geometry":{"type":"Point","coordinates":[104.8263621,29.3781935]},"properties":{"name":"江姐村","kind":"bus","campus":"suse"}},{"type":"Feature","geometry":{"type":"Point","coordinates":[104.8278552,29.3779641]},"properties":{"name":"川轻化李白河站","kind":"bus","campus":"suse"}},{"type":"Feature","geometry":{"type":"Point","coordinates":[104.8281741,29.378009]},"properties":{"name":"川轻化李白河站","kind":"bus","campus":"suse"}},{"type":"Feature","geometry":{"type":"Point","coordinates":[104.8271396,29.3805473]},"properties":{"name":"川轻化B区","kind":"bus","campus":"suse"}}]}