{"type":"FeatureCollection","features":[{"type":"Feature","geometry":{"type":"LineString","coordinates":[[104.828704,29.3757383],[104.828118,29.3764831],[104.8277226,29.3769197],[104.8275571,29.3771024],[104.8272662,29.3774237],[104.8271758,29.3775235],[104.8269421,29.3777815],[104.8265614,29.3782019],[104.8261349,29.3786729],[104.8253772,29.3793804],[104.8235159,29.3810816],[104.8230479,29.3814877],[104.8228506,29.3816589],[104.8227631,29.3817409],[104.8225869,29.3818985],[104.8224465,29.382024]]},"properties":{"cls":"major","highway":"trunk","name":"东环路"}},{"type":"Feature","geometry":{"type":"LineString","coordinates":[[104.8228506,29.3816589],[104.8230567,29.3818406],[104.8243962,29.3830214],[104.8256838,29.383999],[104.8261904,29.3843415],[104.8267825,29.3847163],[104.8272205,29.3849709],[104.8273934,29.3850705],[104.8282771,29.3855435],[104.8294676,29.3861774],[104.8306145,29.3867167]]},"properties":{"cls":"major","highway":"secondary","name":"邓萍路"}},{"type":"Feature","geometry":{"type":"LineString","coordinates":[[104.8233683,29.3793605],[104.8234389,29.3793576]]},"properties":{"cls":"minor","highway":"service"}},{"type":"Feature","geometry":{"type":"LineString","coordinates":[[104.8233788,29.3785366],[104.8234371,29.3785791]]},"properties":{"cls":"minor","highway":"service"}},{"type":"Feature","geometry":{"type":"LineString","coordinates":[[104.8242767,29.378896],[104.8242487,29.3789649],[104.8242044,29.3790479],[104.8241535,29.3791238],[104.8240797,29.3792103],[104.8239872,29.3792874],[104.8239362,29.379333],[104.8238879,29.3794686],[104.8238343,29.3795667],[104.8237377,29.3796158],[104.8236471,29.3796462]]},"properties":{"cls":"path","highway":"footway"}},{"type":"Feature","geometry":{"type":"LineString","coordinates":[[104.8230363,29.3779216],[104.8231852,29.3778021],[104.8232335,29.3777133],[104.8232469,29.3776151],[104.8232603,29.377531],[104.8235017,29.3774188],[104.8235285,29.3774188],[104.8235567,29.3774188],[104.8236063,29.3774445],[104.8236255,29.3774588]]},"properties":{"cls":"path","highway":"footway"}},{"type":"Feature","geometry":{"type":"LineString","coordinates":[[104.8218553,29.376989],[104.8220801,29.3771705],[104.8222248,29.3772835],[104.822284,29.37733],[104.8226273,29.3776009],[104.8230363,29.3779216],[104.8230963,29.3779711]]},"properties":{"cls":"minor","highway":"service"}},{"type":"Feature","geometry":{"type":"LineString","coordinates":[[104.8249957,29.3791343],[104.8250429,29.3790908],[104.8250884,29.3790481],[104.8253123,29.3792047]]},"properties":{"cls":"minor","highway":"service"}},{"type":"Feature","geometry":{"type":"LineString","coordinates":[[104.8249957,29.3791343],[104.8252076,29.3793073]]},"properties":{"cls":"minor","highway":"service"}},{"type":"Feature","geometry":{"type":"LineString","coordinates":[[104.8247197,29.3785202],[104.8249297,29.3785882],[104.8251637,29.3783679]]},"properties":{"cls":"minor","highway":"service"}},{"type":"Feature","geometry":{"type":"LineString","coordinates":[[104.824797,29.3789003],[104.8247386,29.3789569],[104.8240729,29.379667],[104.8238544,29.3798706],[104.8236452,29.3800646],[104.8235406,29.3801581],[104.8234923,29.3801931],[104.8234608,29.3802069],[104.8234269,29.3802136],[104.8233968,29.380213],[104.823343,29.3802014],[104.8233046,29.3801773],[104.8228177,29.3797958],[104.8227842,29.3797759],[104.8227574,29.3797701],[104.8227205,29.3797672],[104.8226903,29.3797695],[104.8226602,29.3797765],[104.8223815,29.3798903],[104.8222766,29.379946],[104.8216047,29.3806093]]},"properties":{"cls":"minor","highway":"service"}},{"type":"Feature","geometry":{"type":"LineString","coordinates":[[104.8236888,29.3796789],[104.8236471,29.3796462],[104.8234048,29.3794557],[104.8233921,29.3794405],[104.8233823,29.3794253],[104.823375,29.3794078],[104.8233703,29.379385],[104.8233683,29.3793605],[104.8233676,29.3793511],[104.8233468,29.3789807],[104.8233448,29.3789605],[104.8233413,29.3789487],[104.8233368,29.3789371],[104.8233317,29.3789241],[104.8233237,29.3789119],[104.8233166,29.3789025],[104.8233109,29.3788922],[104.8233052,29.3788805],[104.8233019,29.3788656],[104.8232995,29.3788539],[104.8232885,29.3786713],[104.8232898,29.378652],[104.8232942,29.3786353],[104.8233019,29.3786166],[104.8233163,29.3785974],[104.8233331,29.3785807],[104.8233788,29.3785366],[104.8236174,29.3783055],[104.8237324,29.3781942],[104.8242044,29.377739],[104.8242326,29.377718],[104.8242621,29.3777086],[104.824297,29.3777028],[104.824536,29.3776934],[104.8245682,29.3776855],[104.824592,29.3776771],[104.8246091,29.3776671],[104.8246359,29.3776458],[104.8246453,29.3776332],[104.8249689,29.3770828],[104.8249923,29.3770483],[104.8250172,29.377025],[104.8250473,29.377008],[104.8250795,29.3769981],[104.8251164,29.3769981],[104.8251459,29.3770016],[104.8251801,29.3770156],[104.8254009,29.3771608],[104.8255,29.377226],[104.8255187,29.3772511],[104.8255301,29.3772739],[104.825565,29.3774083],[104.825569,29.3774427],[104.8255623,29.3774749],[104.8255422,29.3775041],[104.8255268,29.3775275],[104.8254946,29.3775468],[104.8251476,29.3777434],[104.8251301,29.3777589],[104.8251164,29.3777729],[104.8251063,29.377789],[104.8251003,29.3778062],[104.8250939,29.3778331],[104.8250426,29.3781994],[104.8250426,29.3782275],[104.825048,29.3782532],[104.8250601,29.3782783],[104.8250695,29.3782923],[104.8251637,29.3783679],[104.8251962,29.378394]]},"properties":{"cls":"minor","highway":"service"}},{"type":"Feature","geometry":{"type":"LineString","coordinates":[[104.8250429,29.3790908],[104.8248492,29.3789406],[104.824797,29.3789003]]},"properties":{"cls":"minor","highway":"service"}},{"type":"Feature","geometry":{"type":"LineString","coordinates":[[104.8285832,29.3805285],[104.8287971,29.3804251],[104.828772,29.3805732],[104.828924,29.3805362],[104.8288609,29.3806547],[104.8290299,29.3806295]]},"properties":{"cls":"path","highway":"footway"}},{"type":"Feature","geometry":{"type":"LineString","coordinates":[[104.8289974,29.3827049],[104.8294106,29.3829779],[104.8295099,29.3830328],[104.8295581,29.3830539],[104.8296292,29.3830562],[104.8296694,29.383062],[104.8297137,29.3831135],[104.8297553,29.3831649],[104.8297982,29.3831988],[104.8298626,29.3832362],[104.8299551,29.3832549],[104.8300181,29.3832584],[104.8301134,29.3832362],[104.8301885,29.3831988],[104.8302582,29.3831298],[104.8302904,29.3830737],[104.8303132,29.3829931],[104.8303239,29.382923],[104.8303326,29.3828809],[104.830344,29.3828511],[104.830391,29.382819],[104.8304647,29.3827898],[104.8305278,29.3827676],[104.8305693,29.3827418],[104.8306042,29.382722]]},"properties":{"cls":"path","highway":"footway"}},{"type":"Feature","geometry":{"type":"LineString","coordinates":[[104.8301842,29.3827147],[104.8302894,29.3828345],[104.8305813,29.3830333]]},"properties":{"cls":"path","highway":"footway"}},{"type":"Feature","geometry":{"type":"LineString","coordinates":[[104.8312318,29.3821739],[104.8311545,29.3819228]]},"properties":{"cls":"path","highway":"footway"}},{"type":"Feature","geometry":{"type":"LineString","coordinates":[[104.8306242,29.3819937],[104.8307078,29.3817684]]},"properties":{"cls":"path","highway":"footway"}},{"type":"Feature","geometry":{"type":"LineString","coordinates":[[104.8303761,29.3818278],[104.8305947,29.3817113]]},"properties":{"cls":"path","highway":"footway"}},{"type":"Feature","geometry":{"type":"LineString","coordinates":[[104.8293109,29.3823422],[104.8293348,29.3823772],[104.8293791,29.3824281],[104.8294321,29.382459],[104.8294964,29.38249],[104.8295769,29.3825017],[104.8296339,29.3824999],[104.8296936,29.3825163],[104.8297539,29.3825397],[104.8298022,29.3825771],[104.8298465,29.3826262],[104.8298679,29.382653],[104.8298786,29.3826736]]},"properties":{"cls":"path","highway":"footway"}},{"type":"Feature","geometry":{"type":"LineString","coordinates":[[104.8296601,29.3827518],[104.8296785,29.3827693],[104.8297006,29.3827854],[104.8297419,29.3827851],[104.8297667,29.3827757],[104.8297834,29.38276],[104.8297905,29.3827392],[104.8297942,29.3827182],[104.8297965,29.3827018],[104.8297969,29.3826887]]},"properties":{"cls":"path","highway":"footway"}},{"type":"Feature","geometry":{"type":"LineString","coordinates":[[104.8290887,29.3825993],[104.8293402,29.3827582],[104.8293892,29.3827833],[104.8294374,29.3827979],[104.8294837,29.3828032],[104.8295508,29.3828014],[104.82965,29.3827676],[104.8296601,29.3827518],[104.8296574,29.3827226],[104.8296721,29.3826922],[104.8296969,29.3826717],[104.8297378,29.3826729],[104.8297747,29.3826857],[104.8297969,29.3826887],[104.8298585,29.3826741],[104.8298786,29.3826736],[104.8299068,29.3826729],[104.8299732,29.3826945],[104.8300872,29.3827138],[104.8301663,29.3827167],[104.8301842,29.3827147],[104.8303045,29.3827015],[104.8304453,29.3826484],[104.8306377,29.3825747],[104.8307209,29.3825712],[104.8308,29.3825934],[104.8309314,29.3826297]]},"properties":{"cls":"path","highway":"footway"}},{"type":"Feature","geometry":{"type":"LineString","coordinates":[[104.8274674,29.3830726],[104.8272782,29.3833025]]},"properties":{"cls":"minor","highway":"service"}},{"type":"Feature","geometry":{"type":"LineString","coordinates":[[104.8301343,29.3835406],[104.8303521,29.3833016],[104.8305813,29.3830333],[104.8307115,29.3828809],[104.8307333,29.3828561],[104.8308295,29.3827465],[104.8309314,29.3826297],[104.8309971,29.382528],[104.8310186,29.3824298],[104.8310105,29.3823083],[104.830977,29.3820921],[104.8309676,29.3819823],[104.8309663,29.3819121],[104.8309757,29.3818631],[104.8309958,29.381828],[104.8310992,29.3816385]]},"properties":{"cls":"minor","highway":"service"}},{"type":"Feature","geometry":{"type":"LineString","coordinates":[[104.8275754,29.3848685],[104.8273934,29.3850705]]},"properties":{"cls":"minor","highway":"service"}},{"type":"Feature","geometry":{"type":"LineString","coordinates":[[104.8272205,29.3849709],[104.8274055,29.3847574]]},"properties":{"cls":"minor","highway":"service"}},{"type":"Feature","geometry":{"type":"LineString","coordinates":[[104.8292651,29.3845011],[104.8292993,29.3844719],[104.8293328,29.384448],[104.8293596,29.3844439],[104.8293824,29.3844345],[104.8294274,29.3844123],[104.8294542,29.3843808],[104.8294763,29.3843516],[104.8294924,29.3843066],[104.8294991,29.3842359],[104.8294973,29.38422],[104.8294954,29.3842031],[104.8294676,29.3841605],[104.8294374,29.3841272]]},"properties":{"cls":"path","highway":"footway"}},{"type":"Feature","geometry":{"type":"LineString","coordinates":[[104.8299082,29.384476],[104.8298934,29.384445],[104.8298773,29.3844205],[104.8298565,29.3844024],[104.8298223,29.3843837],[104.8297895,29.3843732],[104.8297513,29.3843609],[104.8297171,29.384334],[104.8296996,29.3843089],[104.8296963,29.3842885],[104.8297006,29.3842814],[104.8297409,29.3842738],[104.8297649,29.3842668]]},"properties":{"cls":"path","highway":"footway"}},{"type":"Feature","geometry":{"type":"LineString","coordinates":[[104.8299229,29.3846624],[104.8299001,29.3845987],[104.8298961,29.3845666],[104.8298954,29.3845388],[104.8298991,29.3845084],[104.8299082,29.384476],[104.8299263,29.3844602],[104.8299854,29.3844112]]},"properties":{"cls":"path","highway":"footway"}},{"type":"Feature","geometry":{"type":"LineString","coordinates":[[104.8294377,29.3845283],[104.8294689,29.3845561],[104.8294991,29.3845753],[104.829534,29.3845864],[104.8295655,29.3845935],[104.8296031,29.3845911],[104.8296547,29.3845794],[104.8296963,29.3845718],[104.8297365,29.3845695],[104.829766,29.3845753],[104.8298042,29.3845847],[104.8298364,29.3846005],[104.8298773,29.3846244],[104.8299229,29.3846624],[104.8299974,29.3847333]]},"properties":{"cls":"path","highway":"footway"}},{"type":"Feature","geometry":{"type":"LineString","coordinates":[[104.8277134,29.3813051],[104.8277428,29.3813223],[104.827757,29.3813676],[104.8277728,29.3814207],[104.8277745,29.3814412]]},"properties":{"cls":"path","highway":"footway"}},{"type":"Feature","geometry":{"type":"LineString","coordinates":[[104.8278871,29.3813594],[104.8278522,29.3813711],[104.8278187,29.3813828],[104.8277946,29.3814073],[104.8277745,29.3814412],[104.8277624,29.3815207],[104.8277436,29.3816013],[104.8277181,29.3816515],[104.8276578,29.3817298],[104.8275948,29.3817789],[104.8275234,29.3818242],[104.8274849,29.3818497]]},"properties":{"cls":"path","highway":"footway"}},{"type":"Feature","geometry":{"type":"LineString","coordinates":[[104.8287111,29.3819321],[104.8286851,29.3818712],[104.8286529,29.381821],[104.828622,29.3817789],[104.8285778,29.3817345],[104.8285255,29.3816948],[104.8284625,29.3816609],[104.8283873,29.3816282],[104.8283109,29.381606],[104.8282439,29.3815966],[104.8281862,29.3815849],[104.8281205,29.3815569],[104.8280776,29.3815207],[104.8280387,29.3814704],[104.8280239,29.3814365],[104.827985,29.3813933],[104.8279206,29.3813641],[104.8278871,29.3813594],[104.8278818,29.3813091],[104.8278898,29.3812542],[104.8279394,29.3811964],[104.8280172,29.3811065]]},"properties":{"cls":"path","highway":"footway"}},{"type":"Feature","geometry":{"type":"LineString","coordinates":[[104.8305779,29.380931],[104.8306927,29.3809831],[104.8307919,29.3810281],[104.8308295,29.381045],[104.8308624,29.3810503],[104.8308952,29.3810468],[104.8309321,29.3810363],[104.8309562,29.3810205],[104.8309797,29.3809936],[104.8310126,29.3809738],[104.8310447,29.3809673],[104.8310769,29.3809656],[104.8311192,29.380972],[104.8311587,29.3809983],[104.831195,29.38101],[104.8312432,29.38101],[104.8312855,29.3810018],[104.8313163,29.3809954],[104.8313552,29.3809948],[104.83138,29.381],[104.8314015,29.3810076],[104.8314357,29.3810252],[104.8314632,29.3810515],[104.8314947,29.3810976],[104.8315014,29.3811432],[104.8314933,29.3811946],[104.8315108,29.3812437],[104.8315316,29.3812741],[104.8315651,29.3812986],[104.8315906,29.3813103],[104.8316509,29.3813162],[104.8317656,29.3813021],[104.8318116,29.3812971]]},"properties":{"cls":"path","highway":"footway"}},{"type":"Feature","geometry":{"type":"LineString","coordinates":[[104.8334346,29.3828727],[104.8335385,29.3829417],[104.8335674,29.3829452],[104.8337405,29.3829615]]},"properties":{"cls":"minor","highway":"service"}},{"type":"Feature","geometry":{"type":"LineString","coordinates":[[104.8253775,29.3825671],[104.8254138,29.3825619],[104.8254574,29.3825633],[104.8255301,29.3825858],[104.8255657,29.3825969],[104.8256207,29.3826039],[104.8256589,29.3826016],[104.8257065,29.3825964],[104.8257675,29.3825753],[104.8258124,29.3825467],[104.8258486,29.3825116],[104.8258835,29.3824614],[104.8259351,29.38227]]},"properties":{"cls":"path","highway":"footway"}},{"type":"Feature","geometry":{"type":"LineString","coordinates":[[104.8253068,29.3825311],[104.8253055,29.3824923],[104.8253062,29.3824398],[104.8253095,29.3823588],[104.8253041,29.3822464],[104.8252854,29.3821225],[104.8252693,29.3820278]]},"properties":{"cls":"path","highway":"footway"}},{"type":"Feature","geometry":{"type":"LineString","coordinates":[[104.8253354,29.3826405],[104.8253625,29.3826834],[104.8253953,29.382722],[104.8254476,29.3827664],[104.8255187,29.3828038],[104.8256059,29.3828271],[104.8256756,29.3828342],[104.8257776,29.3828201],[104.8258178,29.3828201],[104.8261762,29.382882],[104.8262049,29.382887],[104.8262751,29.3829148],[104.8263757,29.3829592],[104.8264857,29.3830246],[104.8265196,29.3830562]]},"properties":{"cls":"path","highway":"footway"}},{"type":"Feature","geometry":{"type":"LineString","coordinates":[[104.8291377,29.3794757],[104.8290847,29.3792828],[104.8290914,29.3792571],[104.8291022,29.3792442],[104.8291169,29.3792278],[104.829125,29.3792103],[104.8291236,29.379194],[104.829082,29.379059]]},"properties":{"cls":"minor","highway":"service"}},{"type":"Feature","geometry":{"type":"LineString","coordinates":[[104.8305006,29.3802823],[104.8308368,29.3798974]]},"properties":{"cls":"minor","highway":"residential"}},{"type":"Feature","geometry":{"type":"LineString","coordinates":[[104.8309831,29.3799921],[104.8306485,29.3803793]]},"properties":{"cls":"minor","highway":"residential"}},{"type":"Feature","geometry":{"type":"LineString","coordinates":[[104.8254124,29.3812814],[104.8247918,29.3808686],[104.8247731,29.3808253],[104.8247825,29.3807798],[104.824816,29.380733],[104.8253645,29.3801043],[104.8255744,29.379877],[104.825622,29.3798361],[104.8256582,29.3798297],[104.8257186,29.379839],[104.8258017,29.379891],[104.8263058,29.3802262]]},"properties":{"cls":"minor","highway":"service"}},{"type":"Feature","geometry":{"type":"LineString","coordinates":[[104.8261814,29.3829137],[104.8258675,29.3832707]]},"properties":{"cls":"minor","highway":"service"}},{"type":"Feature","geometry":{"type":"LineString","coordinates":[[104.8318746,29.3825876],[104.8322766,29.3827068],[104.8325501,29.3827839],[104.8326051,29.382812],[104.832762,29.3828903],[104.832864,29.3829312],[104.8329726,29.3829487],[104.8330866,29.3829522],[104.8331764,29.3829393],[104.8332864,29.3829113],[104.8333883,29.3828552],[104.8334621,29.3828003],[104.8337719,29.3824462],[104.8338,29.3823878],[104.833792,29.3823352],[104.8337625,29.3822744],[104.8327795,29.3816282],[104.8326266,29.3815861],[104.8325005,29.3815721],[104.8319286,29.3815674]]},"properties":{"cls":"minor","highway":"service"}},{"type":"Feature","geometry":{"type":"LineString","coordinates":[[104.8322646,29.3845838],[104.8322766,29.3827068]]},"properties":{"cls":"minor","highway":"service"}},{"type":"Feature","geometry":{"type":"LineString","coordinates":[[104.8301563,29.3850626],[104.8306157,29.3853682]]},"properties":{"cls":"minor","highway":"service"}},{"type":"Feature","geometry":{"type":"LineString","coordinates":[[104.8296605,29.3852905],[104.8303145,29.3857159],[104.8309831,29.3861563]]},"properties":{"cls":"minor","highway":"service"}},{"type":"Feature","geometry":{"type":"LineString","coordinates":[[104.8291142,29.3850802],[104.8295789,29.3853853]]},"properties":{"cls":"minor","highway":"service"}},{"type":"Feature","geometry":{"type":"LineString","coordinates":[[104.8297902,29.3847883],[104.8298062,29.3849925],[104.8298183,29.385093],[104.8297942,29.3851351],[104.8296605,29.3852905],[104.8295789,29.3853853],[104.8292802,29.3857326]]},"properties":{"cls":"minor","highway":"service"}},{"type":"Feature","geometry":{"type":"LineString","coordinates":[[104.8303145,29.3857159],[104.8306157,29.3853682],[104.8308429,29.3851059],[104.830851,29.3850591],[104.8308362,29.3850252],[104.8308161,29.3850007],[104.8303013,29.3846582],[104.8302153,29.3845894]]},"properties":{"cls":"minor","highway":"service"}},{"type":"Feature","geometry":{"type":"LineString","coordinates":[[104.8288165,29.3854436],[104.8292094,29.3857007],[104.8292802,29.3857326],[104.8301053,29.386105],[104.8306485,29.3863498],[104.8307095,29.3863737],[104.8307557,29.3863732],[104.8307899,29.3863638],[104.8308295,29.3863334],[104.8309831,29.3861563],[104.8314089,29.3856656],[104.8314156,29.3856235],[104.8314022,29.3855686],[104.8309998,29.3852975]]},"properties":{"cls":"minor","highway":"service"}},{"type":"Feature","geometry":{"type":"LineString","coordinates":[[104.8279926,29.3807831],[104.828386,29.3805858],[104.8285054,29.380525],[104.8285684,29.3804701],[104.8286113,29.3804163],[104.8286878,29.3803322],[104.8287213,29.3803018],[104.8289058,29.3801675]]},"properties":{"cls":"minor","highway":"service"}},{"type":"Feature","geometry":{"type":"LineString","coordinates":[[104.827325,29.3817436],[104.8277134,29.3813051],[104.8279488,29.3810392],[104.827989,29.3809808],[104.8280092,29.3809235],[104.8280105,29.380844],[104.8279926,29.3807831],[104.8279823,29.3807482],[104.8279367,29.3806945],[104.8278737,29.3806536],[104.8273519,29.3803032]]},"properties":{"cls":"minor","highway":"service"}},{"type":"Feature","geometry":{"type":"LineString","coordinates":[[104.828306,29.3824007],[104.828091,29.3822518],[104.8274849,29.3818497],[104.827325,29.3817436],[104.8265476,29.3812278]]},"properties":{"cls":"minor","highway":"service"}},{"type":"Feature","geometry":{"type":"LineString","coordinates":[[104.8302558,29.3803154],[104.8303326,29.3803883],[104.8304124,29.3804514],[104.8304761,29.3804935],[104.8305512,29.3805361],[104.8306778,29.3805946]]},"properties":{"cls":"path","highway":"footway"}},{"type":"Feature","geometry":{"type":"LineString","coordinates":[[104.8302013,29.3803602],[104.8302998,29.3804479],[104.8304339,29.3805484],[104.8305693,29.3806185],[104.8306433,29.3806496]]},"properties":{"cls":"path","highway":"footway"}},{"type":"Feature","geometry":{"type":"LineString","coordinates":[[104.8301033,29.3804531],[104.8301999,29.3805396],[104.8302998,29.3806121],[104.8304071,29.3806816],[104.8305735,29.3807585]]},"properties":{"cls":"path","highway":"footway"}},{"type":"Feature","geometry":{"type":"LineString","coordinates":[[104.830045,29.3804888],[104.8301931,29.3806203],[104.8303024,29.3806962],[104.8304084,29.3807546],[104.8305391,29.3808151]]},"properties":{"cls":"path","highway":"footway"}},{"type":"Feature","geometry":{"type":"LineString","coordinates":[[104.8299495,29.380579],[104.8300067,29.3806375],[104.8301127,29.3807248],[104.830234,29.3808137],[104.8303735,29.3808838],[104.8304717,29.3809227]]},"properties":{"cls":"path","highway":"footway"}},{"type":"Feature","geometry":{"type":"LineString","coordinates":[[104.8299021,29.3806332],[104.8300517,29.3807646],[104.8302233,29.3808779],[104.8303816,29.3809562],[104.8304309,29.3809736]]},"properties":{"cls":"path","highway":"footway"}},{"type":"Feature","geometry":{"type":"LineString","coordinates":[[104.8299272,29.3812971],[104.8296794,29.3809522]]},"properties":{"cls":"path","highway":"footway"}},{"type":"Feature","geometry":{"type":"LineString","coordinates":[[104.8295072,29.3811541],[104.8299272,29.3812971],[104.8300521,29.381341]]},"properties":{"cls":"path","highway":"footway"}},{"type":"Feature","geometry":{"type":"LineString","coordinates":[[104.8297599,29.3816749],[104.8294368,29.3812366]]},"properties":{"cls":"path","highway":"footway"}},{"type":"Feature","geometry":{"type":"LineString","coordinates":[[104.8291199,29.3816081],[104.8296866,29.3817587]]},"properties":{"cls":"path","highway":"footway"}},{"type":"Feature","geometry":{"type":"LineString","coordinates":[[104.829345,29.3818002],[104.8293073,29.3816591]]},"properties":{"cls":"path","highway":"footway"}},{"type":"Feature","geometry":{"type":"LineString","coordinates":[[104.8289243,29.382022],[104.8293707,29.3821309]]},"properties":{"cls":"path","highway":"footway"}},{"type":"Feature","geometry":{"type":"LineString","coordinates":[[104.8291951,29.3823343],[104.8289243,29.382022],[104.8288386,29.3819231]]},"properties":{"cls":"path","highway":"footway"}},{"type":"Feature","geometry":{"type":"LineString","coordinates":[[104.8285509,29.3822583],[104.8291266,29.3824137]]},"properties":{"cls":"path","highway":"footway"}},{"type":"Feature","geometry":{"type":"LineString","coordinates":[[104.8287628,29.3796128],[104.8287669,29.3796778],[104.8287769,29.379728],[104.828785,29.3797549],[104.8288272,29.379804],[104.8288701,29.3798472],[104.8289131,29.3798799],[104.8289774,29.3798963],[104.8290499,29.3799103],[104.8291303,29.3799033],[104.8291907,29.3798916],[104.8292685,29.3798472],[104.8292879,29.3798279],[104.8293141,29.3797952],[104.8293529,29.3797432],[104.829365,29.3796941],[104.8293735,29.3796327]]},"properties":{"cls":"path","highway":"footway"}},{"type":"Feature","geometry":{"type":"LineString","coordinates":[[104.8300624,29.3802177],[104.8299202,29.3803345],[104.8298532,29.3802761],[104.8296802,29.3801651],[104.8296104,29.3802399],[104.829536,29.3801931],[104.8294911,29.3802504],[104.829232,29.3800895]]},"properties":{"cls":"path","highway":"footway"}},{"type":"Feature","geometry":{"type":"LineString","coordinates":[[104.8294273,29.3799348],[104.8296332,29.3800692],[104.8296849,29.380012],[104.8297492,29.3800546],[104.8297895,29.3800143],[104.8299129,29.3800932],[104.8299685,29.3801277],[104.8300624,29.3802177],[104.8301466,29.3802899]]},"properties":{"cls":"path","highway":"footway"}},{"type":"Feature","geometry":{"type":"LineString","coordinates":[[104.8290797,29.3802123],[104.8292162,29.3801078],[104.829232,29.3800895],[104.8293154,29.3799933],[104.8293516,29.3800202],[104.8294273,29.3799348],[104.8295874,29.3797541]]},"properties":{"cls":"path","highway":"footway"}},{"type":"Feature","geometry":{"type":"LineString","coordinates":[[104.828785,29.3797549],[104.828787,29.3797946],[104.8287984,29.3798338],[104.8288286,29.3798782],[104.8288634,29.3799202],[104.8289064,29.3799582],[104.8289573,29.3799915],[104.8290096,29.3800137],[104.8290653,29.3800459],[104.8290867,29.3800646],[104.8291243,29.3801125],[104.8291357,29.3801446],[104.8291551,29.3801995],[104.829196,29.3802656],[104.829251,29.38031],[104.8292993,29.3803415],[104.829365,29.3803567],[104.8294267,29.3803637],[104.8294817,29.3803672],[104.829534,29.3803941],[104.829585,29.3804187],[104.8296171,29.3804514],[104.8296654,29.3805203],[104.8296761,29.3805799],[104.8296694,29.3806138],[104.8296642,29.380639]]},"properties":{"cls":"path","highway":"footway"}},{"type":"Feature","geometry":{"type":"LineString","coordinates":[[104.8247007,29.3816644],[104.8245974,29.3817135],[104.824466,29.3818163],[104.8244324,29.3818409]]},"properties":{"cls":"minor","highway":"service"}},{"type":"Feature","geometry":{"type":"LineString","coordinates":[[104.8249588,29.3815732],[104.824914,29.3815747],[104.8247007,29.3816644]]},"properties":{"cls":"path","highway":"path"}},{"type":"Feature","geometry":{"type":"LineString","coordinates":[[104.825166,29.3816679],[104.8250855,29.3816013],[104.82504,29.3815884],[104.8249876,29.3815768],[104.8249588,29.3815732]]},"properties":{"cls":"minor","highway":"service"}},{"type":"Feature","geometry":{"type":"LineString","coordinates":[[104.8258904,29.3807067],[104.8254124,29.3812814],[104.8251861,29.3815534],[104.8251513,29.3815966],[104.8251513,29.381634],[104.825166,29.3816679],[104.8252116,29.3817006],[104.8259165,29.3821705]]},"properties":{"cls":"minor","highway":"service"}},{"type":"Feature","geometry":{"type":"LineString","coordinates":[[104.8274309,29.3802124],[104.8268075,29.3798016],[104.8267807,29.3797911],[104.8267458,29.3797864],[104.8267103,29.3797917],[104.8266774,29.3798034],[104.82666,29.3798174],[104.8266339,29.3798466],[104.8263058,29.3802262],[104.8258904,29.3807067]]},"properties":{"cls":"minor","highway":"service"}},{"type":"Feature","geometry":{"type":"LineString","coordinates":[[104.8265954,29.3811729],[104.8258904,29.3807067]]},"properties":{"cls":"minor","highway":"service"}},{"type":"Feature","geometry":{"type":"LineString","coordinates":[[104.8309622,29.3837278],[104.83218,29.3845286],[104.8322646,29.3845838],[104.8323723,29.3846536],[104.832415,29.3846794],[104.832551,29.3847343],[104.8326922,29.3847709],[104.8328648,29.3847908],[104.8330438,29.3847882],[104.8331984,29.3847594],[104.8333368,29.3847167],[104.8337049,29.3845537],[104.8338199,29.3845044]]},"properties":{"cls":"minor","highway":"service"}},{"type":"Feature","geometry":{"type":"LineString","coordinates":[[104.8282771,29.3855435],[104.8284084,29.3853898],[104.8291486,29.3845383]]},"properties":{"cls":"minor","highway":"service"}},{"type":"Feature","geometry":{"type":"LineString","coordinates":[[104.8259184,29.3821914],[104.8259165,29.3821705],[104.825913,29.3821307],[104.8259224,29.382057],[104.8259358,29.3819881],[104.825968,29.3819121],[104.8260364,29.3818175],[104.8261973,29.3816305],[104.8265476,29.3812278],[104.8265954,29.3811729],[104.8271396,29.3805473],[104.8273519,29.3803032],[104.8274309,29.3802124],[104.8276336,29.3799793],[104.827698,29.379922],[104.8277731,29.3798624],[104.8278818,29.3798016],[104.8280306,29.3797385],[104.8281607,29.3797],[104.8282921,29.3796684],[104.8284665,29.3796205],[104.8287401,29.3795504],[104.8289332,29.3795048],[104.8290257,29.3794826],[104.8291183,29.3794744],[104.8291377,29.3794757],[104.8292135,29.3794873],[104.8292953,29.379506],[104.8293824,29.3795469],[104.8295863,29.3796778],[104.8304661,29.3802597],[104.8305006,29.3802823],[104.8306485,29.3803793],[104.8316449,29.3810322],[104.8318058,29.3811607],[104.8318809,29.3812542],[104.8319292,29.3813758],[104.8319292,29.3814833],[104.8319286,29.3815674],[104.8319225,29.3823574],[104.8319104,29.382459],[104.8318849,29.382563],[104.8318746,29.3825876],[104.8318394,29.3826717],[104.8317777,29.3827781],[104.8317146,29.3828599],[104.831417,29.3832032],[104.8313257,29.3833086],[104.8309622,29.3837278],[104.8307666,29.3839535],[104.8306948,29.3840363],[104.8302153,29.3845894],[104.8301415,29.3846571],[104.8300369,29.3847167],[104.8299974,29.3847333],[104.829931,29.3847611],[104.8298156,29.3847857],[104.8297902,29.3847883],[104.8297593,29.3847915],[104.8296453,29.3847822],[104.829585,29.3847682],[104.8295192,29.3847483],[104.8294093,29.3847086],[104.8293275,29.3846571],[104.8291486,29.3845383],[104.8281044,29.383845],[104.8272782,29.3833025],[104.8263661,29.3827036],[104.8261236,29.3825444],[104.8260739,29.3824964],[104.8260176,29.3824415],[104.8259827,29.3823889],[104.8259532,29.3823212],[104.8259351,29.38227],[104.8259251,29.3822417],[104.8259184,29.3821914]]},"properties":{"cls":"minor","highway":"residential"}},{"type":"Feature","geometry":{"type":"LineString","coordinates":[[104.8246866,29.3808797],[104.8246805,29.3810112],[104.8246866,29.3811268],[104.8246973,29.381166],[104.8247147,29.3811993],[104.8247369,29.3812244],[104.8247603,29.3812455],[104.8247939,29.381263],[104.8248173,29.3812747],[104.8248488,29.3812829],[104.8248753,29.3812855],[104.8248978,29.3812884],[104.8249176,29.3812975],[104.8249434,29.3813202],[104.8249635,29.3813477],[104.8249716,29.3813781],[104.8249642,29.3814172],[104.8249434,29.3814476],[104.82493,29.381471],[104.8249199,29.381495],[104.8249193,29.38153],[104.824934,29.3815633],[104.8250178,29.3817304],[104.8250976,29.3819086],[104.8251338,29.3820278],[104.8251607,29.3821669],[104.8251687,29.3822884],[104.8251714,29.3824427],[104.825166,29.3825455],[104.8251767,29.382632],[104.825213,29.3827115],[104.8252586,29.3827757],[104.8253296,29.382833],[104.825398,29.3828669],[104.8254745,29.3828879],[104.8256569,29.3829171],[104.825862,29.3829522],[104.8260739,29.3829837],[104.8261705,29.3829989],[104.8262671,29.3830317],[104.8263462,29.3830772],[104.8264206,29.3831345],[104.8264843,29.3831953],[104.8265299,29.3832566],[104.8265903,29.38336],[104.8266613,29.3834687],[104.8267324,29.3835879],[104.8268142,29.3837293],[104.8268994,29.3838684],[104.8269235,29.3839227],[104.826949,29.3839946],[104.8269618,29.3840629],[104.8269698,29.3841254],[104.8269644,29.3841967],[104.8269336,29.3843323],[104.8269014,29.3844047],[104.8268518,29.3844854],[104.8268397,29.3845]]},"properties":{"cls":"path","highway":"path"}},{"type":"Feature","geometry":{"type":"LineString","coordinates":[[104.8223565,29.3819413],[104.8224904,29.3818166],[104.8226614,29.3816573],[104.8227518,29.3815742],[104.8229652,29.3813821],[104.8239527,29.3804929],[104.8252076,29.3793073],[104.825247,29.3792711],[104.8252577,29.3792603],[104.8253123,29.3792047],[104.8260018,29.3785792],[104.8263621,29.3781935],[104.8268054,29.3777189],[104.8270616,29.3774446],[104.8271524,29.3773417],[104.827418,29.3770353],[104.8279723,29.3763957],[104.8285564,29.3756714],[104.8287642,29.3753804]]},"properties":{"cls":"major","highway":"trunk","name":"东环路"}},{"type":"Feature","geometry":{"type":"LineString","coordinates":[[104.8258675,29.3832707],[104.8256555,29.3835119]]},"properties":{"cls":"minor","highway":"service"}},{"type":"Feature","geometry":{"type":"LineString","coordinates":[[104.8263661,29.3827036],[104.8262049,29.382887],[104.8261814,29.3829137]]},"properties":{"cls":"minor","highway":"service"}},{"type":"Feature","geometry":{"type":"LineString","coordinates":[[104.8343095,29.382112],[104.8340819,29.381967],[104.8317203,29.3804619],[104.8309831,29.3799921],[104.8308368,29.3798974],[104.8307012,29.3798095],[104.8278552,29.3779641],[104.8274862,29.3777248],[104.8271758,29.3775235]]},"properties":{"cls":"major","highway":"secondary","name":"学府路"}},{"type":"Feature","geometry":{"type":"LineString","coordinates":[[104.8251276,29.3875549],[104.8253291,29.387198],[104.8254204,29.387003],[104.8252294,29.3866191],[104.8252325,29.3865573],[104.8252761,29.3864992],[104.8253087,29.3864142],[104.825346,29.385803]]},"properties":{"cls":"path","highway":"path"}},{"type":"Feature","geometry":{"type":"LineString","coordinates":[[104.8241637,29.3885759],[104.8242356,29.3884623],[104.8244878,29.3882548],[104.8246886,29.3879618],[104.8249828,29.3877828],[104.8250622,29.3875834],[104.8251276,29.3875549]]},"properties":{"cls":"minor","highway":"service"}},{"type":"Feature","geometry":{"type":"LineString","coordinates":[[104.8216047,29.3806093],[104.8225067,29.381368],[104.8227518,29.3815742]]},"properties":{"cls":"major","highway":"secondary","name":"邓萍路"}},{"type":"Feature","geometry":{"type":"LineString","coordinates":[[104.8272662,29.3774237],[104.8276589,29.3776769],[104.8281741,29.378009],[104.8308012,29.3797026],[104.8318126,29.3803546],[104.8341652,29.3818713],[104.8343858,29.3820135]]},"properties":{"cls":"major","highway":"secondary","name":"学府路"}},{"type":"Feature","geometry":{"type":"LineString","coordinates":[[104.8272308,29.3874897],[104.8270967,29.3874899],[104.8267089,29.387332],[104.826536,29.3873404]]},"properties":{"cls":"path","highway":"cycleway"}},{"type":"Feature","geometry":{"type":"LineString","coordinates":[[104.8307012,29.3798095],[104.8308012,29.3797026]]},"properties":{"cls":"path","highway":"footway"}},{"type":"Feature","geometry":{"type":"LineString","coordinates":[[104.8305497,29.3868126],[104.8294225,29.3862827],[104.8282243,29.3856421],[104.8273299,29.3851639],[104.8272471,29.3851167],[104.8267079,29.3848097],[104.8261143,29.3844413],[104.8256021,29.3840941],[104.8243418,29.3831518],[104.8229602,29.3819171],[104.8227631,29.3817409]]},"properties":{"cls":"major","highway":"secondary","name":"邓萍路"}},{"type":"Feature","geometry":{"type":"LineString","coordinates":[[104.827465,29.3892817],[104.8272686,29.3891182],[104.8271925,29.3890458],[104.8271783,29.3890211],[104.8270297,29.3887636],[104.8270199,29.3887113],[104.827012,29.3886695],[104.8270244,29.3885138],[104.8269978,29.3883951],[104.8269536,29.3883041],[104.8268262,29.3881391],[104.8267625,29.3880266],[104.8266103,29.387692],[104.826536,29.3874453],[104.826536,29.3873404],[104.8265607,29.3872433],[104.8266421,29.3870228],[104.8266687,29.3868655],[104.8266899,29.3866235],[104.8266687,29.3865217],[104.8266245,29.38646],[104.826175,29.3860699],[104.8261148,29.3860422],[104.8260423,29.3860391],[104.8258016,29.3861054],[104.8257662,29.3861069],[104.8255645,29.3860314],[104.8255238,29.3859913],[104.8253839,29.3858432],[104.825346,29.385803],[104.8252442,29.3856952],[104.8252017,29.3855919],[104.8252017,29.3854917],[104.8252335,29.3853468],[104.8252778,29.3852835],[104.8254791,29.3851172],[104.825791,29.3848595],[104.8258387,29.3848425],[104.8259058,29.3848467],[104.8261626,29.3848626],[104.8262493,29.3848811],[104.8264192,29.3849381],[104.8265023,29.3849844],[104.8265961,29.3850569],[104.8267218,29.3852126],[104.8267713,29.3853051],[104.8268085,29.3854007],[104.8268987,29.3856675],[104.8269359,29.3857045],[104.8270906,29.3857889],[104.8273146,29.3859111],[104.8273553,29.3859203],[104.8274208,29.3859142],[104.8276721,29.3858371],[104.8277428,29.3858294],[104.8278986,29.3858325],[104.82801,29.3858633],[104.8281109,29.3859157],[104.8281552,29.3859681],[104.8281746,29.3860175],[104.8281799,29.3860745],[104.8281086,29.3865618],[104.8280791,29.3867638],[104.8280667,29.38681],[104.8279109,29.3870398],[104.8278561,29.3871014],[104.8277853,29.3871307],[104.8275907,29.3871677],[104.8275286,29.387177],[104.8274349,29.3871909],[104.8273518,29.387231],[104.8272863,29.3873034],[104.8272491,29.3873882],[104.8272297,29.3874607],[104.8272308,29.3874897],[104.8272385,29.387675],[104.8272668,29.3877614],[104.8273376,29.3878893],[104.827442,29.388025],[104.8275783,29.3881453],[104.8277818,29.3882687],[104.8279747,29.388335],[104.8281109,29.388355],[104.8283286,29.3883427],[104.8284365,29.3883272],[104.8285604,29.3882825],[104.828725,29.3881823],[104.8288011,29.3880805],[104.8288789,29.3879526],[104.828955,29.3878631],[104.8290665,29.3877722],[104.8291727,29.387729],[104.8293833,29.3876704],[104.829493,29.387618],[104.829585,29.3875363],[104.8296098,29.387436],[104.8295921,29.3873343],[104.8295195,29.3872495],[104.8294275,29.3871446],[104.8293974,29.3870382],[104.829424,29.3869503],[104.8294735,29.3868871],[104.8295744,29.3868547],[104.8296717,29.3868439],[104.8298009,29.3868732],[104.8299124,29.386921],[104.8300221,29.3869873],[104.8301035,29.3870845],[104.8301831,29.3872479],[104.8302698,29.3873697],[104.8303795,29.3874807],[104.8305459,29.3876026],[104.8306609,29.3876596],[104.8308308,29.387712],[104.8310821,29.3877336],[104.8312236,29.3877167],[104.8314148,29.3876827],[104.8315528,29.3876812],[104.8316643,29.3877275],[104.8317616,29.3878123],[104.8318094,29.3879186],[104.8318235,29.3880343],[104.8318147,29.3881546],[104.8317881,29.3882486],[104.8317634,29.3882936],[104.8315528,29.3886757],[104.8314431,29.388816],[104.8313422,29.3889008],[104.8312236,29.3889856],[104.8311564,29.3890488],[104.8311157,29.3891244],[104.8310874,29.3892339]]},"properties":{"cls":"path","highway":"cycleway","name":"环湖步道"}},{"type":"Feature","geometry":{"type":"LineString","coordinates":[[104.8302026,29.3891969],[104.8302344,29.3890596],[104.8302787,29.3889579],[104.8302928,29.3888638],[104.8302645,29.388759],[104.8302102,29.3886958],[104.8301955,29.3886788],[104.8301052,29.3886217],[104.830015,29.3885971],[104.8299265,29.3885955],[104.829562,29.3886587],[104.8294735,29.3887035],[104.8293974,29.3887728],[104.8293585,29.3888484],[104.8293496,29.3889471],[104.8293709,29.3891506],[104.829362,29.3892508]]},"properties":{"cls":"path","highway":"cycleway","name":"环湖步道"}},{"type":"Feature","geometry":{"type":"LineString","coordinates":[[104.8273518,29.387231],[104.8275295,29.3870403],[104.8276047,29.3870137],[104.8276481,29.3869983],[104.8278345,29.3869323],[104.8281086,29.3865618]]},"properties":{"cls":"path","highway":"footway"}},{"type":"Feature","geometry":{"type":"LineString","coordinates":[[104.8276481,29.3869983],[104.8276149,29.3868525],[104.8278629,29.3866418],[104.8279686,29.3864292],[104.8279341,29.3863832],[104.8280337,29.386261],[104.8279849,29.3861069],[104.8278467,29.3860095],[104.8276373,29.386036],[104.8275356,29.3859475]]},"properties":{"cls":"path","highway":"footway"}},{"type":"Feature","geometry":{"type":"LineString","coordinates":[[104.8276721,29.3858371],[104.8275356,29.3859475],[104.8273832,29.3860697],[104.8272816,29.3859776],[104.8270498,29.3860272],[104.8269359,29.3857045]]},"properties":{"cls":"path","highway":"footway"}},{"type":"Feature","geometry":{"type":"LineString","coordinates":[[104.8272816,29.3859776],[104.8273553,29.3859203]]},"properties":{"cls":"path","highway":"footway"}},{"type":"Feature","geometry":{"type":"LineString","coordinates":[[104.8276047,29.3870137],[104.8275286,29.387177]]},"properties":{"cls":"path","highway":"footway"}},{"type":"Feature","geometry":{"type":"LineString","coordinates":[[104.8270906,29.3857889],[104.8272531,29.3856729],[104.8273059,29.3855932],[104.8273364,29.3854958],[104.8273282,29.3854253],[104.8273263,29.385409],[104.8272328,29.3852425]]},"properties":{"cls":"path","highway":"cycleway"}},{"type":"Feature","geometry":{"type":"LineString","coordinates":[[104.8273282,29.3854253],[104.827436,29.3853984],[104.8274848,29.3854019],[104.8275377,29.3854267],[104.8274869,29.3854976],[104.8276901,29.3856056]]},"properties":{"cls":"path","highway":"cycleway"}},{"type":"Feature","geometry":{"type":"LineString","coordinates":[[104.8259058,29.3848467],[104.8256879,29.3851575],[104.8254791,29.3851172]]},"properties":{"cls":"path","highway":"footway"}},{"type":"Feature","geometry":{"type":"LineString","coordinates":[[104.8253839,29.3858432],[104.8260375,29.3860006],[104.8261148,29.3860422]]},"properties":{"cls":"path","highway":"footway"}},{"type":"Feature","geometry":{"type":"LineString","coordinates":[[104.8348069,29.3874596],[104.8349618,29.3875624]]},"properties":{"cls":"minor","highway":"service"}},{"type":"Feature","geometry":{"type":"LineString","coordinates":[[104.835123,29.3859443],[104.8351995,29.3866612],[104.8352042,29.3867196],[104.8352022,29.3867699],[104.8351981,29.3868236],[104.8351908,29.3868756],[104.835178,29.3869282],[104.8351606,29.3869796],[104.8351405,29.3870299],[104.8351083,29.3870912],[104.8350774,29.3871426],[104.8350325,29.3871976],[104.8348069,29.3874596],[104.8342909,29.3880588],[104.8342594,29.388088],[104.8342279,29.3881043],[104.8341937,29.3881143],[104.8341568,29.3881178],[104.8341125,29.3881131],[104.8340763,29.3881026],[104.8340072,29.3880705],[104.8332844,29.3877277],[104.8331788,29.3876777],[104.8330726,29.3876273],[104.8321626,29.3871958],[104.8320439,29.3870982],[104.8314518,29.3868166]]},"properties":{"cls":"minor","highway":"service"}},{"type":"Feature","geometry":{"type":"LineString","coordinates":[[104.8333837,29.3873468],[104.8331788,29.3876777],[104.8330557,29.3878765]]},"properties":{"cls":"minor","highway":"service"}},{"type":"Feature","geometry":{"type":"LineString","coordinates":[[104.8334453,29.3874687],[104.8332844,29.3877277],[104.8331609,29.3879265]]},"properties":{"cls":"minor","highway":"service"}},{"type":"Feature","geometry":{"type":"LineString","coordinates":[[104.8332321,29.387367],[104.8330726,29.3876273],[104.8329505,29.3878266]]},"properties":{"cls":"minor","highway":"service"}},{"type":"Feature","geometry":{"type":"LineString","coordinates":[[104.8340803,29.3854408],[104.8344343,29.3850336]]},"properties":{"cls":"minor","highway":"service"}},{"type":"Feature","geometry":{"type":"LineString","coordinates":[[104.8342755,29.3853811],[104.8345213,29.3850896]]},"properties":{"cls":"minor","highway":"service"}},{"type":"Feature","geometry":{"type":"LineString","coordinates":[[104.8325542,29.3869533],[104.8333837,29.3873468],[104.8340039,29.387641],[104.8340414,29.3876533],[104.8340817,29.3876568],[104.8341212,29.387651],[104.8341561,29.3876369],[104.8341823,29.3876159],[104.8342131,29.387582],[104.8347817,29.3869142],[104.8348005,29.3868879],[104.8348133,29.3868552],[104.8348126,29.3868172],[104.834718,29.385904],[104.8347073,29.3858683],[104.8346932,29.3858461],[104.8346684,29.3858222],[104.8346449,29.3858064],[104.8340803,29.3854408],[104.8338416,29.3852862],[104.8334728,29.3850474],[104.8334353,29.3850293],[104.833395,29.3850211],[104.8333588,29.3850229],[104.8333293,29.3850311],[104.8332958,29.3850469],[104.833273,29.3850673],[104.8332556,29.3850866],[104.8322651,29.3862472],[104.8320539,29.3864947],[104.8320271,29.3865286],[104.8320137,29.3865578],[104.8320097,29.3865858],[104.832013,29.3866127],[104.8320217,29.3866396],[104.8320392,29.3866676],[104.832064,29.3866881],[104.8320948,29.3867044],[104.8323517,29.3868254],[104.8323771,29.3868412],[104.832532,29.3869411],[104.8325542,29.3869533]]},"properties":{"cls":"minor","highway":"service"}},{"type":"Feature","geometry":{"type":"LineString","coordinates":[[104.8306145,29.3867167],[104.8305497,29.3868126]]},"properties":{"cls":"minor","highway":"service"}},{"type":"Feature","geometry":{"type":"LineString","coordinates":[[104.8317605,29.3865119],[104.8316518,29.3865298],[104.8312338,29.3870109]]},"properties":{"cls":"minor","highway":"service"}},{"type":"Feature","geometry":{"type":"LineString","coordinates":[[104.8317174,29.385956],[104.8317914,29.3858686],[104.8318111,29.385849],[104.8318458,29.385827],[104.8318945,29.3858115],[104.8319301,29.3858049],[104.8319713,29.3858066],[104.8320088,29.3858172],[104.8320416,29.3858351],[104.8320659,29.3858613],[104.8320959,29.3859241],[104.8321072,29.3859511],[104.8321081,29.3859813],[104.8321043,29.3860131],[104.8320922,29.3860417],[104.8318992,29.3862686],[104.8318814,29.3862866],[104.8318561,29.3863054],[104.8318177,29.3863176],[104.8315497,29.3863633],[104.8315207,29.3863641],[104.8314851,29.3863625],[104.8314485,29.3863511],[104.8314082,29.3863266],[104.8313923,29.3863135],[104.8313745,29.3862849],[104.8313642,29.3862547],[104.8313604,29.3862164],[104.8313464,29.3861894],[104.8313192,29.3861625],[104.831169,29.3860659]]},"properties":{"cls":"minor","highway":"service"}},{"type":"Feature","geometry":{"type":"LineString","coordinates":[[104.8317727,29.3853574],[104.8322243,29.3856482],[104.8322683,29.3856629],[104.8323067,29.3856629],[104.8323442,29.3856523],[104.8323742,29.3856368],[104.8324013,29.3856131],[104.8326871,29.3852784],[104.8327021,29.3852563],[104.8327096,29.3852351],[104.8327114,29.3852196],[104.8327264,29.3850367],[104.832718,29.3850065],[104.8327058,29.3849796],[104.8326815,29.3849551],[104.8326562,29.3849429],[104.8326178,29.3849339],[104.83254,29.3849143],[104.832451,29.3848857],[104.8323714,29.3848522],[104.8322537,29.3847927]]},"properties":{"cls":"minor","highway":"service"}},{"type":"Feature","geometry":{"type":"LineString","coordinates":[[104.8306145,29.3867167],[104.831169,29.3860659],[104.8317727,29.3853574],[104.8322537,29.3847927],[104.8323723,29.3846536]]},"properties":{"cls":"minor","highway":"service"}},{"type":"Feature","geometry":{"type":"LineString","coordinates":[[104.8327511,29.3865635],[104.8322651,29.3862472]]},"properties":{"cls":"minor","highway":"service"}},{"type":"Feature","geometry":{"type":"LineString","coordinates":[[104.8338416,29.3852862],[104.8327511,29.3865635],[104.832614,29.3867241]]},"properties":{"cls":"minor","highway":"service"}},{"type":"Feature","geometry":{"type":"LineString","coordinates":[[104.8318126,29.3803546],[104.8317203,29.3804619]]},"properties":{"cls":"major","highway":"secondary_link"}},{"type":"Feature","geometry":{"type":"LineString","coordinates":[[104.8341652,29.3818713],[104.8340819,29.381967]]},"properties":{"cls":"major","highway":"secondary_link"}},{"type":"Feature","geometry":{"type":"LineString","coordinates":[[104.8225067,29.381368],[104.8226448,29.3814048],[104.822788,29.3814182],[104.8228727,29.3814142],[104.8229652,29.3813821]]},"properties":{"cls":"major","highway":"secondary_link"}},{"type":"Feature","geometry":{"type":"LineString","coordinates":[[104.8230479,29.3814877],[104.8230204,29.3815902],[104.8230151,29.3816904],[104.823031,29.3817613],[104.8230567,29.3818406]]},"properties":{"cls":"major","highway":"secondary_link"}},{"type":"Feature","geometry":{"type":"LineString","coordinates":[[104.8229602,29.3819171],[104.82287,29.3818939],[104.8227656,29.3818847],[104.82267,29.3818847],[104.8225869,29.3818985]]},"properties":{"cls":"major","highway":"secondary_link"}}]}