{"type":"FeatureCollection","features":[{"type":"Feature","geometry":{"type":"Polygon","coordinates":[[[104.8253162,29.3773802],[104.8252518,29.3774644],[104.8251875,29.3775345],[104.825099,29.3775988],[104.8250037,29.3776642],[104.82493,29.3777448],[104.8248643,29.3778243],[104.8248442,29.3779049],[104.8248616,29.3780393],[104.8248683,29.3781247],[104.8248334,29.3781772],[104.8248146,29.3782474],[104.8248262,29.3782954],[104.8248549,29.3783163],[104.8249045,29.3783899],[104.8249166,29.3784472],[104.8248817,29.3784706],[104.8248254,29.3784717],[104.8246591,29.3783677],[104.8245987,29.3783502],[104.824529,29.3783771],[104.8244432,29.3784215],[104.8243479,29.378439],[104.8243037,29.3784285],[104.8241481,29.378529],[104.8241039,29.3786038],[104.824069,29.3786482],[104.8240435,29.3786985],[104.8240703,29.3788539],[104.8240703,29.3790105],[104.8239979,29.3791624],[104.8238423,29.3793096],[104.8236492,29.3792793],[104.8235232,29.3792138],[104.8234454,29.3791133],[104.823432,29.3789707],[104.8234159,29.3788656],[104.8234051,29.3787884],[104.8234507,29.3787347],[104.8235768,29.3786505],[104.8235875,29.378529],[104.8235932,29.3784375],[104.8236868,29.3783677],[104.8237458,29.3783292],[104.8238525,29.3782492],[104.8239786,29.3781423],[104.824049,29.3780299],[104.8241976,29.3778865],[104.824316,29.3778394],[104.8244375,29.3778447],[104.8245088,29.3779051],[104.8245768,29.3778996],[104.8246374,29.3778554],[104.8246718,29.3777363],[104.8247627,29.3776569],[104.8248162,29.3775693],[104.8248868,29.377416],[104.825071,29.3772362],[104.8251244,29.3772247],[104.8251969,29.3772762],[104.8252606,29.3773195],[104.8252948,29.3773434],[104.8253135,29.3773592],[104.8253162,29.3773802]]]},"properties":{}},{"type":"Feature","geometry":{"type":"Polygon","coordinates":[[[104.8258382,29.3798159],[104.8260236,29.3796007],[104.8264619,29.3798873],[104.8262765,29.3801025],[104.8258382,29.3798159]]]},"properties":{"name":"室外游泳池"}},{"type":"Feature","geometry":{"type":"Polygon","coordinates":[[[104.8266411,29.3829488],[104.8267161,29.3828638],[104.8267523,29.382888],[104.8266772,29.382973],[104.8266411,29.3829488]]]},"properties":{}},{"type":"Feature","geometry":{"type":"Polygon","coordinates":[[[104.8267161,29.3828638],[104.8267546,29.3828202],[104.8267908,29.3828444],[104.8267523,29.382888],[104.8267161,29.3828638]]]},"properties":{}},{"type":"Feature","geometry":{"type":"Polygon","coordinates":[[[104.8264241,29.3831653],[104.8265196,29.3830562],[104.8265865,29.3829804],[104.8266033,29.3829917],[104.8266411,29.3829488],[104.8266772,29.382973],[104.8266411,29.3830139],[104.8266625,29.3830283],[104.8265257,29.3831832],[104.8264903,29.3832233],[104.8264241,29.3831653]]]},"properties":{}},{"type":"Feature","geometry":{"type":"Polygon","coordinates":[[[104.8266654,29.3844012],[104.8266654,29.3843533],[104.8267043,29.3843019],[104.8267338,29.384157],[104.8267324,29.3840343],[104.8266372,29.3838193],[104.8264588,29.3835248],[104.8263046,29.3832899],[104.8262429,29.3832362],[104.8261222,29.3831789],[104.8258714,29.3831357],[104.8257407,29.3831164],[104.8256367,29.3831006],[104.8254758,29.3830749],[104.8253041,29.3830287],[104.8252136,29.3829802],[104.8250601,29.3828494],[104.8249876,29.3827255],[104.8249568,29.382549],[104.8249689,29.3824076],[104.8249742,29.3821248],[104.8249474,29.382043],[104.8248777,29.3818853],[104.8247462,29.3816293],[104.8245612,29.3813465],[104.8245303,29.3813021],[104.8244753,29.3812717],[104.8244284,29.3812636],[104.8243882,29.3812729],[104.8243506,29.3812893],[104.824297,29.3813127],[104.8242232,29.3813162],[104.8241642,29.3812869],[104.824132,29.3812192],[104.8241454,29.3811303],[104.8241857,29.3810182],[104.8242661,29.3809107],[104.8243573,29.380816],[104.824415,29.3807646],[104.8245786,29.3806372],[104.8246162,29.3805869],[104.8246939,29.3805005],[104.824883,29.3803053],[104.8250194,29.3801403],[104.8250279,29.38013],[104.8251767,29.3799723],[104.8253712,29.3797339],[104.8254852,29.3795854],[104.8255965,29.3794791],[104.8256287,29.3794417],[104.8256665,29.3794159],[104.8256783,29.3794078],[104.8258285,29.3792512],[104.8259338,29.3791469],[104.8259519,29.3791402],[104.8259734,29.3791355],[104.8260069,29.3791414],[104.8260431,29.3791601],[104.8260471,29.3791834],[104.8260471,29.3792173],[104.8260123,29.3792676],[104.8259304,29.3793412],[104.825795,29.3794873],[104.8256555,29.3796415],[104.8251848,29.3801125],[104.8250265,29.3802971],[104.8249394,29.3804245],[104.8248509,29.3805531],[104.8247798,29.3806465],[104.8247127,29.3807833],[104.8246711,29.380927],[104.824651,29.3809971],[104.8246564,29.3810883],[104.8246658,29.3811759],[104.82471,29.3812425],[104.8247811,29.381294],[104.8248341,29.3813015],[104.8248757,29.3813103],[104.8249092,29.3813197],[104.8249384,29.381367],[104.824941,29.3813863],[104.8249367,29.3814105],[104.8249226,29.3814272],[104.8248951,29.3814669],[104.8248924,29.381499],[104.8248951,29.3815382],[104.824914,29.3815747],[104.8249193,29.3815849],[104.8250507,29.3818584],[104.8250748,29.3819203],[104.8251191,29.3820828],[104.8251425,29.3822335],[104.8251446,29.3823323],[104.8251419,29.382445],[104.8251419,29.3825408],[104.8251479,29.3826145],[104.8251721,29.3826805],[104.8252083,29.3827491],[104.8252468,29.3827924],[104.8253189,29.3828482],[104.8253625,29.3828727],[104.8254027,29.3828914],[104.8254564,29.3829072],[104.8257152,29.3829463],[104.8259479,29.3829846],[104.8260672,29.383003],[104.8261551,29.3830188],[104.8262402,29.383048],[104.8263261,29.3830948],[104.8264052,29.3831508],[104.8264241,29.3831653],[104.8264903,29.3832233],[104.8265433,29.3833343],[104.8266305,29.3834769],[104.8267163,29.3836113],[104.8267794,29.3837176],[104.826884,29.383883],[104.8269041,29.3839391],[104.8269229,29.3840098],[104.8269363,29.3840717],[104.8269416,29.3841441],[104.8269349,29.3842096],[104.8269162,29.3843089],[104.826892,29.384372],[104.8268545,29.3844398],[104.826782,29.3844608],[104.8267454,29.3844379],[104.8266654,29.3844012]]]},"properties":{}},{"type":"Feature","geometry":{"type":"Polygon","coordinates":[[[104.8276343,29.3824295],[104.8276115,29.3824526],[104.8275767,29.3824281],[104.8272166,29.3828447],[104.827116,29.3827781],[104.8270851,29.382764],[104.8270503,29.382757],[104.8270074,29.3827652],[104.8269577,29.3827991],[104.8269309,29.3828166],[104.8268799,29.3828225],[104.8268337,29.3828377],[104.8268089,29.3828552],[104.8267908,29.3828444],[104.8267546,29.3828202],[104.8267103,29.3827927],[104.8266949,29.3827693],[104.8266754,29.3827535],[104.8266513,29.3827418],[104.8266144,29.3827337],[104.8265943,29.382722],[104.82655,29.3826752],[104.8265299,29.382632],[104.8265246,29.3825853],[104.8265447,29.3825479],[104.8265655,29.382528],[104.8265909,29.3825134],[104.8266406,29.3825075],[104.8266761,29.3825081],[104.826715,29.3824941],[104.8267311,29.3824602],[104.8267271,29.3824263],[104.8266976,29.3823796],[104.8266627,29.3823317],[104.8266211,29.3822779],[104.8266144,29.3822329],[104.8266184,29.3821949],[104.8266359,29.3821616],[104.826658,29.3821412],[104.8266801,29.3821219],[104.8267163,29.3821032],[104.8267572,29.382095],[104.8267908,29.3820968],[104.8268223,29.3821038],[104.8268605,29.3821126],[104.8269034,29.382105],[104.8269356,29.3820892],[104.8269571,29.3820646],[104.8270033,29.3820144],[104.8270416,29.381977],[104.827059,29.3819548],[104.8270818,29.3819449],[104.8271099,29.3819355],[104.8271435,29.3819303],[104.827177,29.3819297],[104.8272052,29.3819349],[104.82724,29.3819495],[104.8272675,29.3819653],[104.8272923,29.3819922],[104.8273078,29.3820267],[104.8273158,29.3820629],[104.8273198,29.3821015],[104.8273359,29.3821342],[104.8273721,29.3821727],[104.8274177,29.3822078],[104.8274754,29.3822312],[104.8275505,29.3822429],[104.8276041,29.382237],[104.8276672,29.382216],[104.8277289,29.3821751],[104.8277611,29.3821353],[104.8277798,29.3820722],[104.8277731,29.3820091],[104.8277704,29.3819215],[104.8277812,29.3818829],[104.8278053,29.3818385],[104.8278388,29.3818058],[104.8278818,29.3817766],[104.827922,29.3817637],[104.8279864,29.3817485],[104.8280454,29.3817509],[104.828095,29.3817614],[104.8281459,29.3817859],[104.8281942,29.3818163],[104.8282358,29.3818771],[104.8282519,29.3819355],[104.8282532,29.3819893],[104.8282532,29.3820442],[104.828272,29.3820898],[104.8283015,29.382126],[104.8283793,29.3821798],[104.8284524,29.3822218],[104.8284142,29.3822709],[104.8283887,29.3822499],[104.8283337,29.3822125],[104.8282801,29.3821903],[104.8282264,29.3821833],[104.8281687,29.3821891],[104.8281191,29.3822195],[104.828091,29.3822518],[104.8278755,29.3824999],[104.8278501,29.3825292],[104.8278268,29.382556],[104.8276343,29.3824295]]]},"properties":{"name":"志远湖"}},{"type":"Feature","geometry":{"type":"Polygon","coordinates":[[[104.8302837,29.3828388],[104.8302716,29.3828762],[104.8302662,29.382923],[104.8302823,29.3829896],[104.8302837,29.3830258],[104.8302649,29.3830726],[104.83023,29.3831216],[104.8302174,29.3831339],[104.8301817,29.3831684],[104.8301107,29.3831988],[104.8300007,29.3832175],[104.8299471,29.3831999],[104.8298626,29.3831731],[104.8298082,29.3831374],[104.8297653,29.3831012],[104.8297311,29.3830533],[104.829715,29.3830299],[104.8296956,29.383013],[104.8296681,29.3830071],[104.8296332,29.3830071],[104.8295461,29.3829989],[104.829479,29.3829744],[104.8292152,29.3827964],[104.8290304,29.3826717],[104.8290639,29.3826337],[104.8294026,29.3828511],[104.8294234,29.3828675],[104.8294488,29.3828727],[104.8294837,29.382871],[104.8295246,29.3828827],[104.8295508,29.3828984],[104.8295836,29.3829148],[104.8296299,29.3829201],[104.8296822,29.3829025],[104.8297231,29.3828698],[104.8297727,29.3828231],[104.8298002,29.3827968],[104.8298357,29.3827769],[104.8298572,29.3827699],[104.8298934,29.3827635],[104.8299296,29.3827617],[104.8299618,29.3827699],[104.8299953,29.3827804],[104.8300208,29.3828003],[104.8300543,29.382833],[104.8300946,29.3828458],[104.8301348,29.3828447],[104.8301643,29.3828295],[104.8301791,29.3828143],[104.8302045,29.3827976],[104.830231,29.3827813],[104.8302837,29.3828388]]]},"properties":{"name":"真知湖"}},{"type":"Feature","geometry":{"type":"Polygon","coordinates":[[[104.8317869,29.3818366],[104.8317163,29.381823],[104.8317039,29.3817766],[104.8316863,29.381735],[104.8316717,29.3817006],[104.8316281,29.3816591],[104.8315926,29.3816288],[104.8315537,29.3816182],[104.8315168,29.3816191],[104.8314732,29.3816159],[104.8314115,29.3816001],[104.8313512,29.3815697],[104.8313249,29.3815448],[104.8313069,29.3815277],[104.8312821,29.3814909],[104.8312405,29.3814581],[104.8312043,29.3814377],[104.8311547,29.3814207],[104.8311098,29.3814155],[104.8310508,29.381419],[104.8310329,29.3814177],[104.8310012,29.3814155],[104.8309214,29.3813939],[104.8308778,29.3813711],[104.8308241,29.3813313],[104.8307893,29.3812659],[104.8307879,29.3812361],[104.8307899,29.3811911],[104.8308161,29.3811561],[104.8308375,29.3811303],[104.8308785,29.3811041],[104.8309308,29.3810854],[104.8309549,29.3810725],[104.8309851,29.3810521],[104.8310065,29.3810246],[104.8310287,29.3810071],[104.8310494,29.3810018],[104.831081,29.3810006],[104.8311125,29.3810117],[104.8311574,29.381043],[104.8311742,29.3810553],[104.8312017,29.3810661],[104.8312338,29.3810643],[104.831266,29.3810491],[104.8313069,29.3810316],[104.8313525,29.3810334],[104.8313914,29.3810427],[104.831427,29.3810655],[104.8314491,29.3811005],[104.8314531,29.3811502],[104.8314471,29.3811876],[104.8314591,29.381239],[104.8314786,29.3812735],[104.8314994,29.3812998],[104.8315389,29.3813267],[104.8315792,29.3813424],[104.8316345,29.3813629],[104.8316576,29.3813763],[104.8316858,29.3814044],[104.8317324,29.3814318],[104.8317723,29.3814389],[104.8318166,29.38144],[104.8318179,29.3815008],[104.8318152,29.3815148],[104.8317864,29.3815218],[104.831771,29.3815534],[104.8317736,29.381648],[104.831781,29.3817501],[104.8317869,29.3818366]]]},"properties":{"name":"盐都湖"}},{"type":"Feature","geometry":{"type":"Polygon","coordinates":[[[104.8302837,29.3828388],[104.830231,29.3827813],[104.8302877,29.3827529],[104.8303413,29.3827307],[104.8304097,29.3827144],[104.8304741,29.3826904],[104.8305217,29.3826671],[104.8305754,29.3826408],[104.8306223,29.3826232],[104.830681,29.3826124],[104.8307155,29.3826113],[104.8307396,29.3826121],[104.8307806,29.3826215],[104.8308429,29.3826472],[104.8308865,29.3826776],[104.830914,29.3827144],[104.8309482,29.3827623],[104.8309871,29.3827991],[104.8310394,29.3828324],[104.8311017,29.3828616],[104.8311648,29.3828756],[104.8312312,29.3828792],[104.8312445,29.3828779],[104.8312942,29.3828733],[104.8313572,29.3828587],[104.8313995,29.38284],[104.8314545,29.382802],[104.8315021,29.3827559],[104.8315785,29.3826828],[104.8316328,29.3826115],[104.831665,29.3825549],[104.8316972,29.3824661],[104.8317032,29.3824111],[104.8317079,29.382268],[104.8317173,29.3820319],[104.831728,29.381932],[104.8317163,29.381823],[104.8317869,29.3818366],[104.831787,29.3818771],[104.8317911,29.3819326],[104.8317696,29.3821348],[104.8317629,29.3824211],[104.8317575,29.3824783],[104.8317066,29.3826151],[104.831657,29.3826817],[104.8316481,29.3826904],[104.8315001,29.3828359],[104.8314209,29.3828885],[104.8313338,29.3829247],[104.8312332,29.3829352],[104.8311507,29.3829247],[104.8310622,29.3829049],[104.8309529,29.3828476],[104.8308898,29.3827798],[104.8308656,29.3827496],[104.8308335,29.3827097],[104.8307785,29.3826746],[104.8307115,29.3826595],[104.8306404,29.3826723],[104.830568,29.3827027],[104.8304915,29.3827459],[104.8303615,29.3827798],[104.8303293,29.382795],[104.8302837,29.3828388]]]},"properties":{}},{"type":"Feature","geometry":{"type":"Polygon","coordinates":[[[104.8366623,29.380888498827225],[104.836347,29.3815531],[104.836038,29.3820844],[104.8353632,29.3825804],[104.8350135,29.3830197],[104.8345907,29.383551],[104.8343224,29.3838415],[104.8343875,29.3840753],[104.8345907,29.3842099],[104.8352039,29.3842903],[104.8347452,29.3844933],[104.8346151,29.3846421],[104.8344281,29.3846917],[104.8341923,29.3845642],[104.8340866,29.3841745],[104.8340541,29.3838132],[104.834111,29.383629],[104.834298,29.3835652],[104.8346314,29.3829772],[104.8348672,29.3826725],[104.8354282,29.382134],[104.8357779,29.3817444],[104.8362413,29.3810217],[104.8366479,29.379881],[104.8366623,29.379872091428574]]]},"properties":{}},{"type":"Feature","geometry":{"type":"Polygon","coordinates":[[[104.8261037,29.3858748],[104.8258516,29.3858374],[104.825519,29.3857626],[104.8253689,29.3856972],[104.8252777,29.3855196],[104.8253313,29.38537],[104.8254815,29.3852812],[104.8256639,29.3852625],[104.825798,29.3851643],[104.8258409,29.3850568],[104.8259482,29.384968],[104.8260608,29.3849353],[104.8262485,29.3849399],[104.8264267,29.3849839],[104.826506,29.3850381],[104.8266617,29.3852297],[104.8267636,29.3854261],[104.8268279,29.3856832],[104.8268762,29.3859262],[104.8269402,29.3860469],[104.8270439,29.3861248],[104.8271841,29.3861603],[104.8273386,29.3861372],[104.8274972,29.3860487],[104.8276533,29.3859607],[104.8277679,29.3859326],[104.8279361,29.3859261],[104.8280203,29.3860007],[104.8280729,29.3861366],[104.8280384,29.386384],[104.8279578,29.3866269],[104.8278399,29.3867827],[104.8275838,29.3869315],[104.8273805,29.3870874],[104.827222,29.3872822],[104.8271732,29.3874735],[104.8271722,29.38775],[104.8273399,29.388019],[104.8275381,29.3882091],[104.8278318,29.3883648],[104.8282046,29.3884061],[104.8286198,29.3883587],[104.8288609,29.3881657],[104.8289398,29.387964],[104.8290577,29.3878365],[104.8292772,29.3877231],[104.8295455,29.3876523],[104.8296838,29.3875106],[104.8296716,29.3873866],[104.8296187,29.3872697],[104.8295171,29.3871528],[104.8294642,29.387043],[104.8295171,29.3869403],[104.8296594,29.3868907],[104.8298667,29.3869296],[104.8300212,29.3870359],[104.8301186,29.387204],[104.8301838,29.3873441],[104.8304968,29.3876275],[104.8307692,29.3877586],[104.8312042,29.3877621],[104.831501,29.3877393],[104.8316557,29.3877785],[104.8317449,29.3878967],[104.8317449,29.3880703],[104.8317002,29.3882474],[104.8315742,29.388382],[104.8313669,29.3885733],[104.8312002,29.3887079],[104.8310701,29.3888779],[104.8310497,29.3891471],[104.83105873409338,29.3892835],[104.83052906519428,29.3892835],[104.8304251,29.3890267],[104.8302706,29.3885308],[104.8301608,29.3884529],[104.8300267,29.3884068],[104.82986,29.3883785],[104.8296608,29.3883927],[104.8295185,29.3884281],[104.8293315,29.3886017],[104.8292502,29.3887929],[104.8292827,29.3889453],[104.8292908,29.3890976],[104.8292461,29.3892676],[104.82922967648166,29.3892835],[104.82777734140527,29.3892835],[104.8277703,29.3892605],[104.8275955,29.3891401],[104.8273882,29.3890196],[104.8272459,29.3888673],[104.827128,29.3887044],[104.8270711,29.3884139],[104.8269532,29.3881872],[104.8267958,29.3879806],[104.8266466,29.3876395],[104.8266035,29.3874114],[104.8267133,29.3870005],[104.8268434,29.3867349],[104.8268597,29.3865932],[104.8267092,29.3862956],[104.8265141,29.3860831],[104.8262824,29.3859378],[104.8261037,29.3858748]]]},"properties":{}},{"type":"Feature","geometry":{"type":"Polygon","coordinates":[[[104.8345907,29.3842099],[104.8351862,29.3841634],[104.835827,29.3842278],[104.8363261,29.3844855],[104.8365418,29.3851835],[104.836511,29.3853983],[104.8362399,29.3857312],[104.8360057,29.3858815],[104.8359687,29.3861876],[104.8361413,29.3864883],[104.8365665,29.3866493],[104.8366623,29.3867259349029],[104.8366623,29.387641619545015],[104.8364371,29.3876265],[104.8355744,29.3876426],[104.8353649,29.3877393],[104.8353156,29.3881205],[104.8353833,29.388593],[104.8353587,29.3888024],[104.8352108,29.3892158],[104.83517327585099,29.3892835],[104.83487181337325,29.3892835],[104.8348657,29.3891353],[104.8351122,29.3886252],[104.8349951,29.3882118],[104.8350075,29.3877876],[104.8351985,29.3874762],[104.8354819,29.387401],[104.8360427,29.3874386],[104.8363693,29.3873205],[104.8364679,29.3871218],[104.8362337,29.3869017],[104.8359071,29.3867084],[104.8356545,29.3864722],[104.8355682,29.386107],[104.8356298,29.3857258],[104.8358147,29.3855111],[104.8361659,29.3853231],[104.8363015,29.3849634],[104.8361105,29.384711],[104.8358701,29.3844318],[104.8352786,29.3843835],[104.8347452,29.3844933],[104.8345907,29.3842099]]]},"properties":{}}]}